<?xml version="1.0" encoding="UTF-8"?>
<gpx version="1.1" creator="Lehrfahrer Linieneditor" xmlns="http://www.topografix.com/GPX/1/1">
  <metadata>
    <name>12 - 1 - Merzdorf Feuerwehr - Kolkwitz, Technologiepark (ohne Krankenkasse &amp; Bergsicherunng)</name>
    <desc>Export aus dem Lehrfahrer Linieneditor | Farbe: #d32f2f</desc>
  </metadata>
  <wpt lat="51.779014" lon="14.384993">
    <name>Merzdorf Feuerwehr</name>
    <desc>Stopp 1</desc>
  </wpt>
  <wpt lat="51.779165" lon="14.379516">
    <name>Merzdorf Tranitzfließ</name>
    <desc>Stopp 2</desc>
  </wpt>
  <wpt lat="51.780087" lon="14.372181">
    <name>Am Hammergraben</name>
    <desc>Stopp 3</desc>
  </wpt>
  <wpt lat="51.77507" lon="14.371981">
    <name>Hammergrabensiedlung</name>
    <desc>Stopp 4</desc>
  </wpt>
  <wpt lat="51.770597" lon="14.371951">
    <name>Bärenbrücker Straße</name>
    <desc>Stopp 5</desc>
  </wpt>
  <wpt lat="51.7669" lon="14.359038">
    <name>Merzdorfer Weg</name>
    <desc>Stopp 6</desc>
  </wpt>
  <wpt lat="51.765701" lon="14.354351">
    <name>Cottbus, Peitzer Straße</name>
    <desc>Stopp 7</desc>
  </wpt>
  <wpt lat="51.765642" lon="14.354024">
    <name>Freie Haltestelle 8</name>
    <desc>Stopp 8</desc>
  </wpt>
  <wpt lat="51.765913" lon="14.348273">
    <name>Cottbus, Max-Grünebaum-Straße</name>
    <desc>Stopp 9</desc>
  </wpt>
  <wpt lat="51.765745" lon="14.343156">
    <name>Cottbus, Elisabeth-Wolf-Straße</name>
    <desc>Stopp 10</desc>
  </wpt>
  <wpt lat="51.763169" lon="14.343144">
    <name>Cottbus, Hermannstraße</name>
    <desc>Stopp 11</desc>
  </wpt>
  <wpt lat="51.759192" lon="14.342987">
    <name>Cottbus, Carl-Blechen-Park</name>
    <desc>Stopp 12</desc>
  </wpt>
  <wpt lat="51.757879" lon="14.337903">
    <name>Cottbus, Freiheitsstraße</name>
    <desc>Stopp 13</desc>
  </wpt>
  <wpt lat="51.757274" lon="14.330561">
    <name>Cottbus, Stadtpromenade</name>
    <desc>Stopp 14</desc>
  </wpt>
  <wpt lat="51.755198" lon="14.324637">
    <name>Cottbus, Carl-von-Ossietzky-Straße</name>
    <desc>Stopp 15</desc>
  </wpt>
  <wpt lat="51.753905" lon="14.324469">
    <name>Cottbus, Spreewaldbahnhof</name>
    <desc>Stopp 16</desc>
  </wpt>
  <wpt lat="51.754866" lon="14.316712">
    <name>Cottbus, Ausbesserungswerk</name>
    <desc>Stopp 17</desc>
  </wpt>
  <wpt lat="51.755812" lon="14.31097">
    <name>Cottbus, Friedrich-Hebbel-Straße</name>
    <desc>Stopp 18</desc>
  </wpt>
  <wpt lat="51.754503" lon="14.303653">
    <name>Cottbus, Ströbitzer Hauptstraße</name>
    <desc>Stopp 19</desc>
  </wpt>
  <wpt lat="51.753389" lon="14.297341">
    <name>Cottbus, Kornblumenweg</name>
    <desc>Stopp 20</desc>
  </wpt>
  <wpt lat="51.752571" lon="14.290426">
    <name>Cottbus, Ströbitz Friedhof</name>
    <desc>Stopp 21</desc>
  </wpt>
  <wpt lat="51.751151" lon="14.278681">
    <name>Cottbus, Steinteichmühle</name>
    <desc>Stopp 22</desc>
  </wpt>
  <wpt lat="51.750985" lon="14.260965">
    <name>Kolkwitz, Langosa</name>
    <desc>Stopp 23</desc>
  </wpt>
  <wpt lat="51.751211" lon="14.259975">
    <name>Freie Haltestelle 24</name>
    <desc>Stopp 24</desc>
  </wpt>
  <wpt lat="51.750617" lon="14.259532">
    <name>Freie Haltestelle 25</name>
    <desc>Stopp 25</desc>
  </wpt>
  <wpt lat="51.749725" lon="14.260503">
    <name>Langosa Berliner Straße</name>
    <desc>Stopp 26</desc>
  </wpt>
  <wpt lat="51.749662" lon="14.252286">
    <name>Kolkwitz, Schadowstraße</name>
    <desc>Stopp 27</desc>
  </wpt>
  <wpt lat="51.749823" lon="14.245832">
    <name>Kolkwitz, Rathaus</name>
    <desc>Stopp 28</desc>
  </wpt>
  <wpt lat="51.747194" lon="14.242522">
    <name>Süd Bahnhof</name>
    <desc>Stopp 29</desc>
  </wpt>
  <wpt lat="51.738311" lon="14.250016">
    <name>Koschendorfer Straße</name>
    <desc>Stopp 30</desc>
  </wpt>
  <wpt lat="51.734254" lon="14.245481">
    <name>Kolkwitz, Altes Forsthaus</name>
    <desc>Stopp 31</desc>
  </wpt>
  <wpt lat="51.730975" lon="14.235288">
    <name>Freie Haltestelle 32</name>
    <desc>Stopp 32</desc>
  </wpt>
  <wpt lat="51.734411" lon="14.2337">
    <name>Freie Haltestelle 33</name>
    <desc>Stopp 33</desc>
  </wpt>
  <wpt lat="51.734322" lon="14.229912">
    <name>Klinikum</name>
    <desc>Stopp 34</desc>
  </wpt>
  <wpt lat="51.732756" lon="14.218251">
    <name>Freie Haltestelle 35</name>
    <desc>Stopp 35</desc>
  </wpt>
  <wpt lat="51.731134" lon="14.21923">
    <name>Technologiepark</name>
    <desc>Stopp 36</desc>
  </wpt>
  <trk>
    <name>12 - 1 - Merzdorf Feuerwehr - Kolkwitz, Technologiepark (ohne Krankenkasse &amp; Bergsicherunng)</name>
    <desc>Route für Maps.me Offline-Nutzung</desc>
    <trkseg>
      <trkpt lat="51.779018" lon="14.384993"></trkpt>
      <trkpt lat="51.779017" lon="14.384968"></trkpt>
      <trkpt lat="51.779015" lon="14.38474"></trkpt>
      <trkpt lat="51.779014" lon="14.384234"></trkpt>
      <trkpt lat="51.779017" lon="14.384095"></trkpt>
      <trkpt lat="51.779029" lon="14.383929"></trkpt>
      <trkpt lat="51.779051" lon="14.383735"></trkpt>
      <trkpt lat="51.779157" lon="14.382979"></trkpt>
      <trkpt lat="51.779217" lon="14.382562"></trkpt>
      <trkpt lat="51.77924" lon="14.382348"></trkpt>
      <trkpt lat="51.779259" lon="14.382134"></trkpt>
      <trkpt lat="51.77927" lon="14.381959"></trkpt>
      <trkpt lat="51.779272" lon="14.381749"></trkpt>
      <trkpt lat="51.779262" lon="14.381578"></trkpt>
      <trkpt lat="51.779237" lon="14.381277"></trkpt>
      <trkpt lat="51.779191" lon="14.380849"></trkpt>
      <trkpt lat="51.779142" lon="14.380434"></trkpt>
      <trkpt lat="51.77913" lon="14.380335"></trkpt>
      <trkpt lat="51.779103" lon="14.380073"></trkpt>
      <trkpt lat="51.77909" lon="14.379863"></trkpt>
      <trkpt lat="51.779137" lon="14.37953"></trkpt>
      <trkpt lat="51.779142" lon="14.379504"></trkpt>
      <trkpt lat="51.779173" lon="14.379341"></trkpt>
      <trkpt lat="51.780225" lon="14.375482"></trkpt>
      <trkpt lat="51.780261" lon="14.375366"></trkpt>
      <trkpt lat="51.780348" lon="14.375094"></trkpt>
      <trkpt lat="51.780356" lon="14.375067"></trkpt>
      <trkpt lat="51.780398" lon="14.374949"></trkpt>
      <trkpt lat="51.780322" lon="14.374892"></trkpt>
      <trkpt lat="51.780289" lon="14.374851"></trkpt>
      <trkpt lat="51.780263" lon="14.374798"></trkpt>
      <trkpt lat="51.780246" lon="14.374714"></trkpt>
      <trkpt lat="51.780236" lon="14.374611"></trkpt>
      <trkpt lat="51.780284" lon="14.37314"></trkpt>
      <trkpt lat="51.780296" lon="14.372616"></trkpt>
      <trkpt lat="51.780293" lon="14.3723"></trkpt>
      <trkpt lat="51.780083" lon="14.372205"></trkpt>
      <trkpt lat="51.780081" lon="14.372204"></trkpt>
      <trkpt lat="51.779786" lon="14.372088"></trkpt>
      <trkpt lat="51.779729" lon="14.372066"></trkpt>
      <trkpt lat="51.779684" lon="14.372028"></trkpt>
      <trkpt lat="51.779643" lon="14.371976"></trkpt>
      <trkpt lat="51.779599" lon="14.371916"></trkpt>
      <trkpt lat="51.779506" lon="14.371715"></trkpt>
      <trkpt lat="51.779239" lon="14.371087"></trkpt>
      <trkpt lat="51.779158" lon="14.370969"></trkpt>
      <trkpt lat="51.779071" lon="14.370878"></trkpt>
      <trkpt lat="51.778996" lon="14.370825"></trkpt>
      <trkpt lat="51.778842" lon="14.370774"></trkpt>
      <trkpt lat="51.778691" lon="14.370758"></trkpt>
      <trkpt lat="51.778524" lon="14.37077"></trkpt>
      <trkpt lat="51.778314" lon="14.370837"></trkpt>
      <trkpt lat="51.777956" lon="14.371"></trkpt>
      <trkpt lat="51.777709" lon="14.371166"></trkpt>
      <trkpt lat="51.777394" lon="14.371443"></trkpt>
      <trkpt lat="51.77698" lon="14.371826"></trkpt>
      <trkpt lat="51.776732" lon="14.371999"></trkpt>
      <trkpt lat="51.776592" lon="14.372076"></trkpt>
      <trkpt lat="51.776488" lon="14.372108"></trkpt>
      <trkpt lat="51.776389" lon="14.372125"></trkpt>
      <trkpt lat="51.775841" lon="14.372098"></trkpt>
      <trkpt lat="51.775635" lon="14.372076"></trkpt>
      <trkpt lat="51.775512" lon="14.372063"></trkpt>
      <trkpt lat="51.775402" lon="14.372047"></trkpt>
      <trkpt lat="51.775244" lon="14.37203"></trkpt>
      <trkpt lat="51.775076" lon="14.372013"></trkpt>
      <trkpt lat="51.775068" lon="14.372012"></trkpt>
      <trkpt lat="51.774853" lon="14.371984"></trkpt>
      <trkpt lat="51.773656" lon="14.371836"></trkpt>
      <trkpt lat="51.773208" lon="14.371776"></trkpt>
      <trkpt lat="51.773063" lon="14.371766"></trkpt>
      <trkpt lat="51.77297" lon="14.37176"></trkpt>
      <trkpt lat="51.772679" lon="14.371774"></trkpt>
      <trkpt lat="51.772191" lon="14.371908"></trkpt>
      <trkpt lat="51.771915" lon="14.372074"></trkpt>
      <trkpt lat="51.771739" lon="14.372205"></trkpt>
      <trkpt lat="51.771658" lon="14.372269"></trkpt>
      <trkpt lat="51.771631" lon="14.372291"></trkpt>
      <trkpt lat="51.771011" lon="14.372832"></trkpt>
      <trkpt lat="51.770962" lon="14.372885"></trkpt>
      <trkpt lat="51.770608" lon="14.371942"></trkpt>
      <trkpt lat="51.770608" lon="14.371942"></trkpt>
      <trkpt lat="51.770505" lon="14.371662"></trkpt>
      <trkpt lat="51.770381" lon="14.371323"></trkpt>
      <trkpt lat="51.770097" lon="14.370546"></trkpt>
      <trkpt lat="51.769644" lon="14.368967"></trkpt>
      <trkpt lat="51.769384" lon="14.368112"></trkpt>
      <trkpt lat="51.76919" lon="14.367505"></trkpt>
      <trkpt lat="51.769119" lon="14.367196"></trkpt>
      <trkpt lat="51.769036" lon="14.366906"></trkpt>
      <trkpt lat="51.768964" lon="14.366659"></trkpt>
      <trkpt lat="51.768945" lon="14.366592"></trkpt>
      <trkpt lat="51.768895" lon="14.366418"></trkpt>
      <trkpt lat="51.768803" lon="14.3661"></trkpt>
      <trkpt lat="51.768697" lon="14.365797"></trkpt>
      <trkpt lat="51.768621" lon="14.365515"></trkpt>
      <trkpt lat="51.768585" lon="14.365389"></trkpt>
      <trkpt lat="51.768336" lon="14.364493"></trkpt>
      <trkpt lat="51.768129" lon="14.363742"></trkpt>
      <trkpt lat="51.76797" lon="14.363167"></trkpt>
      <trkpt lat="51.767842" lon="14.362692"></trkpt>
      <trkpt lat="51.76732" lon="14.360757"></trkpt>
      <trkpt lat="51.76725" lon="14.360497"></trkpt>
      <trkpt lat="51.767004" lon="14.359564"></trkpt>
      <trkpt lat="51.766876" lon="14.35907"></trkpt>
      <trkpt lat="51.766873" lon="14.359057"></trkpt>
      <trkpt lat="51.766811" lon="14.358831"></trkpt>
      <trkpt lat="51.766782" lon="14.358724"></trkpt>
      <trkpt lat="51.766729" lon="14.358527"></trkpt>
      <trkpt lat="51.766662" lon="14.358292"></trkpt>
      <trkpt lat="51.766604" lon="14.358107"></trkpt>
      <trkpt lat="51.766521" lon="14.357814"></trkpt>
      <trkpt lat="51.766485" lon="14.357686"></trkpt>
      <trkpt lat="51.766404" lon="14.357397"></trkpt>
      <trkpt lat="51.766246" lon="14.356794"></trkpt>
      <trkpt lat="51.766083" lon="14.35617"></trkpt>
      <trkpt lat="51.765942" lon="14.35563"></trkpt>
      <trkpt lat="51.765687" lon="14.354669"></trkpt>
      <trkpt lat="51.765628" lon="14.354447"></trkpt>
      <trkpt lat="51.765673" lon="14.354405"></trkpt>
      <trkpt lat="51.765687" lon="14.354343"></trkpt>
      <trkpt lat="51.76569" lon="14.354332"></trkpt>
      <trkpt lat="51.76572" lon="14.354156"></trkpt>
      <trkpt lat="51.765641" lon="14.354047"></trkpt>
      <trkpt lat="51.765635" lon="14.354038"></trkpt>
      <trkpt lat="51.765455" lon="14.353791"></trkpt>
      <trkpt lat="51.765319" lon="14.353589"></trkpt>
      <trkpt lat="51.765208" lon="14.353427"></trkpt>
      <trkpt lat="51.765143" lon="14.353334"></trkpt>
      <trkpt lat="51.765092" lon="14.353257"></trkpt>
      <trkpt lat="51.765078" lon="14.353159"></trkpt>
      <trkpt lat="51.765079" lon="14.353069"></trkpt>
      <trkpt lat="51.765095" lon="14.352964"></trkpt>
      <trkpt lat="51.765128" lon="14.352843"></trkpt>
      <trkpt lat="51.765181" lon="14.352747"></trkpt>
      <trkpt lat="51.765275" lon="14.352684"></trkpt>
      <trkpt lat="51.765342" lon="14.352624"></trkpt>
      <trkpt lat="51.76545" lon="14.352511"></trkpt>
      <trkpt lat="51.765574" lon="14.352315"></trkpt>
      <trkpt lat="51.765753" lon="14.351854"></trkpt>
      <trkpt lat="51.765868" lon="14.351556"></trkpt>
      <trkpt lat="51.765913" lon="14.351408"></trkpt>
      <trkpt lat="51.765946" lon="14.351245"></trkpt>
      <trkpt lat="51.76597" lon="14.351087"></trkpt>
      <trkpt lat="51.765977" lon="14.350944"></trkpt>
      <trkpt lat="51.765969" lon="14.350576"></trkpt>
      <trkpt lat="51.765964" lon="14.350475"></trkpt>
      <trkpt lat="51.765949" lon="14.350131"></trkpt>
      <trkpt lat="51.765921" lon="14.349515"></trkpt>
      <trkpt lat="51.765904" lon="14.349136"></trkpt>
      <trkpt lat="51.765888" lon="14.348766"></trkpt>
      <trkpt lat="51.765883" lon="14.348634"></trkpt>
      <trkpt lat="51.76588" lon="14.348549"></trkpt>
      <trkpt lat="51.765874" lon="14.348274"></trkpt>
      <trkpt lat="51.765874" lon="14.348274"></trkpt>
      <trkpt lat="51.765869" lon="14.348022"></trkpt>
      <trkpt lat="51.765865" lon="14.347831"></trkpt>
      <trkpt lat="51.765861" lon="14.34766"></trkpt>
      <trkpt lat="51.765853" lon="14.347301"></trkpt>
      <trkpt lat="51.765846" lon="14.347075"></trkpt>
      <trkpt lat="51.765832" lon="14.346548"></trkpt>
      <trkpt lat="51.765822" lon="14.346186"></trkpt>
      <trkpt lat="51.765816" lon="14.346016"></trkpt>
      <trkpt lat="51.765791" lon="14.345185"></trkpt>
      <trkpt lat="51.765773" lon="14.344602"></trkpt>
      <trkpt lat="51.765765" lon="14.344338"></trkpt>
      <trkpt lat="51.765748" lon="14.343782"></trkpt>
      <trkpt lat="51.76574" lon="14.343515"></trkpt>
      <trkpt lat="51.765729" lon="14.343158"></trkpt>
      <trkpt lat="51.765729" lon="14.343157"></trkpt>
      <trkpt lat="51.765724" lon="14.342997"></trkpt>
      <trkpt lat="51.765719" lon="14.342823"></trkpt>
      <trkpt lat="51.765633" lon="14.342833"></trkpt>
      <trkpt lat="51.764707" lon="14.342949"></trkpt>
      <trkpt lat="51.764648" lon="14.342957"></trkpt>
      <trkpt lat="51.764499" lon="14.342979"></trkpt>
      <trkpt lat="51.764357" lon="14.342999"></trkpt>
      <trkpt lat="51.7643" lon="14.343007"></trkpt>
      <trkpt lat="51.764202" lon="14.343021"></trkpt>
      <trkpt lat="51.763797" lon="14.34308"></trkpt>
      <trkpt lat="51.763556" lon="14.343115"></trkpt>
      <trkpt lat="51.763447" lon="14.34313"></trkpt>
      <trkpt lat="51.763388" lon="14.343138"></trkpt>
      <trkpt lat="51.763316" lon="14.343149"></trkpt>
      <trkpt lat="51.763168" lon="14.343172"></trkpt>
      <trkpt lat="51.763168" lon="14.343172"></trkpt>
      <trkpt lat="51.762825" lon="14.343223"></trkpt>
      <trkpt lat="51.762681" lon="14.343245"></trkpt>
      <trkpt lat="51.762538" lon="14.343268"></trkpt>
      <trkpt lat="51.762506" lon="14.343275"></trkpt>
      <trkpt lat="51.762349" lon="14.343315"></trkpt>
      <trkpt lat="51.762329" lon="14.343319"></trkpt>
      <trkpt lat="51.762323" lon="14.343319"></trkpt>
      <trkpt lat="51.762145" lon="14.343354"></trkpt>
      <trkpt lat="51.762141" lon="14.343356"></trkpt>
      <trkpt lat="51.762116" lon="14.343366"></trkpt>
      <trkpt lat="51.761941" lon="14.343439"></trkpt>
      <trkpt lat="51.761625" lon="14.34357"></trkpt>
      <trkpt lat="51.761459" lon="14.343645"></trkpt>
      <trkpt lat="51.761272" lon="14.343725"></trkpt>
      <trkpt lat="51.760669" lon="14.344003"></trkpt>
      <trkpt lat="51.760176" lon="14.344281"></trkpt>
      <trkpt lat="51.759849" lon="14.34447"></trkpt>
      <trkpt lat="51.759839" lon="14.344476"></trkpt>
      <trkpt lat="51.759804" lon="14.344496"></trkpt>
      <trkpt lat="51.759639" lon="14.344601"></trkpt>
      <trkpt lat="51.759552" lon="14.344333"></trkpt>
      <trkpt lat="51.759534" lon="14.344272"></trkpt>
      <trkpt lat="51.759347" lon="14.343595"></trkpt>
      <trkpt lat="51.759255" lon="14.343271"></trkpt>
      <trkpt lat="51.759177" lon="14.342998"></trkpt>
      <trkpt lat="51.759171" lon="14.342976"></trkpt>
      <trkpt lat="51.759019" lon="14.342402"></trkpt>
      <trkpt lat="51.758995" lon="14.342308"></trkpt>
      <trkpt lat="51.75898" lon="14.342247"></trkpt>
      <trkpt lat="51.758827" lon="14.341611"></trkpt>
      <trkpt lat="51.7588" lon="14.341507"></trkpt>
      <trkpt lat="51.758757" lon="14.341337"></trkpt>
      <trkpt lat="51.758699" lon="14.341119"></trkpt>
      <trkpt lat="51.758689" lon="14.341082"></trkpt>
      <trkpt lat="51.758533" lon="14.340502"></trkpt>
      <trkpt lat="51.75852" lon="14.340449"></trkpt>
      <trkpt lat="51.75843" lon="14.340075"></trkpt>
      <trkpt lat="51.758374" lon="14.339787"></trkpt>
      <trkpt lat="51.758357" lon="14.339708"></trkpt>
      <trkpt lat="51.758273" lon="14.339399"></trkpt>
      <trkpt lat="51.758261" lon="14.339355"></trkpt>
      <trkpt lat="51.758234" lon="14.339257"></trkpt>
      <trkpt lat="51.7582" lon="14.339152"></trkpt>
      <trkpt lat="51.758182" lon="14.339099"></trkpt>
      <trkpt lat="51.75816" lon="14.33903"></trkpt>
      <trkpt lat="51.758136" lon="14.338911"></trkpt>
      <trkpt lat="51.75797" lon="14.338385"></trkpt>
      <trkpt lat="51.757944" lon="14.338292"></trkpt>
      <trkpt lat="51.757903" lon="14.338128"></trkpt>
      <trkpt lat="51.757862" lon="14.337911"></trkpt>
      <trkpt lat="51.757852" lon="14.337857"></trkpt>
      <trkpt lat="51.757835" lon="14.337724"></trkpt>
      <trkpt lat="51.757825" lon="14.337655"></trkpt>
      <trkpt lat="51.75781" lon="14.337395"></trkpt>
      <trkpt lat="51.757789" lon="14.337132"></trkpt>
      <trkpt lat="51.757743" lon="14.336796"></trkpt>
      <trkpt lat="51.757669" lon="14.33645"></trkpt>
      <trkpt lat="51.757535" lon="14.335933"></trkpt>
      <trkpt lat="51.757505" lon="14.335813"></trkpt>
      <trkpt lat="51.757481" lon="14.335693"></trkpt>
      <trkpt lat="51.757469" lon="14.335633"></trkpt>
      <trkpt lat="51.757436" lon="14.335434"></trkpt>
      <trkpt lat="51.757407" lon="14.335175"></trkpt>
      <trkpt lat="51.757377" lon="14.33475"></trkpt>
      <trkpt lat="51.757369" lon="14.334623"></trkpt>
      <trkpt lat="51.757356" lon="14.334151"></trkpt>
      <trkpt lat="51.757353" lon="14.333624"></trkpt>
      <trkpt lat="51.757361" lon="14.333392"></trkpt>
      <trkpt lat="51.757359" lon="14.333097"></trkpt>
      <trkpt lat="51.757356" lon="14.333035"></trkpt>
      <trkpt lat="51.757355" lon="14.333"></trkpt>
      <trkpt lat="51.757352" lon="14.332887"></trkpt>
      <trkpt lat="51.75734" lon="14.332585"></trkpt>
      <trkpt lat="51.757332" lon="14.332404"></trkpt>
      <trkpt lat="51.757308" lon="14.33174"></trkpt>
      <trkpt lat="51.757293" lon="14.331402"></trkpt>
      <trkpt lat="51.757285" lon="14.331211"></trkpt>
      <trkpt lat="51.75728" lon="14.331107"></trkpt>
      <trkpt lat="51.757254" lon="14.330563"></trkpt>
      <trkpt lat="51.757254" lon="14.33056"></trkpt>
      <trkpt lat="51.75723" lon="14.330274"></trkpt>
      <trkpt lat="51.75717" lon="14.329972"></trkpt>
      <trkpt lat="51.757104" lon="14.329644"></trkpt>
      <trkpt lat="51.75707" lon="14.329032"></trkpt>
      <trkpt lat="51.757028" lon="14.328245"></trkpt>
      <trkpt lat="51.757022" lon="14.328092"></trkpt>
      <trkpt lat="51.757021" lon="14.328071"></trkpt>
      <trkpt lat="51.757017" lon="14.327981"></trkpt>
      <trkpt lat="51.757015" lon="14.327957"></trkpt>
      <trkpt lat="51.757009" lon="14.327848"></trkpt>
      <trkpt lat="51.756976" lon="14.327309"></trkpt>
      <trkpt lat="51.756941" lon="14.326582"></trkpt>
      <trkpt lat="51.75693" lon="14.32632"></trkpt>
      <trkpt lat="51.756917" lon="14.326049"></trkpt>
      <trkpt lat="51.756866" lon="14.325039"></trkpt>
      <trkpt lat="51.75685" lon="14.324717"></trkpt>
      <trkpt lat="51.756839" lon="14.324516"></trkpt>
      <trkpt lat="51.756695" lon="14.32453"></trkpt>
      <trkpt lat="51.756338" lon="14.324563"></trkpt>
      <trkpt lat="51.756209" lon="14.324575"></trkpt>
      <trkpt lat="51.75605" lon="14.324591"></trkpt>
      <trkpt lat="51.755904" lon="14.324605"></trkpt>
      <trkpt lat="51.755635" lon="14.324634"></trkpt>
      <trkpt lat="51.755578" lon="14.32464"></trkpt>
      <trkpt lat="51.7552" lon="14.324684"></trkpt>
      <trkpt lat="51.755183" lon="14.324686"></trkpt>
      <trkpt lat="51.754071" lon="14.324808"></trkpt>
      <trkpt lat="51.753995" lon="14.324871"></trkpt>
      <trkpt lat="51.753949" lon="14.32473"></trkpt>
      <trkpt lat="51.753877" lon="14.32451"></trkpt>
      <trkpt lat="51.753873" lon="14.324497"></trkpt>
      <trkpt lat="51.753825" lon="14.324354"></trkpt>
      <trkpt lat="51.753806" lon="14.324299"></trkpt>
      <trkpt lat="51.753799" lon="14.324278"></trkpt>
      <trkpt lat="51.753755" lon="14.32415"></trkpt>
      <trkpt lat="51.753599" lon="14.323688"></trkpt>
      <trkpt lat="51.753568" lon="14.323523"></trkpt>
      <trkpt lat="51.753551" lon="14.323366"></trkpt>
      <trkpt lat="51.753547" lon="14.323215"></trkpt>
      <trkpt lat="51.753555" lon="14.323026"></trkpt>
      <trkpt lat="51.753562" lon="14.322904"></trkpt>
      <trkpt lat="51.753577" lon="14.322786"></trkpt>
      <trkpt lat="51.7536" lon="14.322673"></trkpt>
      <trkpt lat="51.753673" lon="14.322389"></trkpt>
      <trkpt lat="51.753734" lon="14.322185"></trkpt>
      <trkpt lat="51.753828" lon="14.321869"></trkpt>
      <trkpt lat="51.753938" lon="14.321494"></trkpt>
      <trkpt lat="51.754011" lon="14.321249"></trkpt>
      <trkpt lat="51.754051" lon="14.321115"></trkpt>
      <trkpt lat="51.754186" lon="14.320541"></trkpt>
      <trkpt lat="51.754196" lon="14.3205"></trkpt>
      <trkpt lat="51.754294" lon="14.320088"></trkpt>
      <trkpt lat="51.754642" lon="14.318428"></trkpt>
      <trkpt lat="51.754776" lon="14.317478"></trkpt>
      <trkpt lat="51.75484" lon="14.31704"></trkpt>
      <trkpt lat="51.754886" lon="14.316719"></trkpt>
      <trkpt lat="51.754893" lon="14.316668"></trkpt>
      <trkpt lat="51.754928" lon="14.316426"></trkpt>
      <trkpt lat="51.754948" lon="14.316287"></trkpt>
      <trkpt lat="51.755008" lon="14.315862"></trkpt>
      <trkpt lat="51.755068" lon="14.315655"></trkpt>
      <trkpt lat="51.755115" lon="14.315514"></trkpt>
      <trkpt lat="51.75523" lon="14.315285"></trkpt>
      <trkpt lat="51.755324" lon="14.315167"></trkpt>
      <trkpt lat="51.755403" lon="14.315077"></trkpt>
      <trkpt lat="51.755476" lon="14.315023"></trkpt>
      <trkpt lat="51.755562" lon="14.314976"></trkpt>
      <trkpt lat="51.75572" lon="14.314913"></trkpt>
      <trkpt lat="51.755902" lon="14.314861"></trkpt>
      <trkpt lat="51.756374" lon="14.314731"></trkpt>
      <trkpt lat="51.756474" lon="14.314711"></trkpt>
      <trkpt lat="51.75644" lon="14.314536"></trkpt>
      <trkpt lat="51.75631" lon="14.313717"></trkpt>
      <trkpt lat="51.756304" lon="14.313678"></trkpt>
      <trkpt lat="51.756069" lon="14.3123"></trkpt>
      <trkpt lat="51.756057" lon="14.312233"></trkpt>
      <trkpt lat="51.755912" lon="14.31146"></trkpt>
      <trkpt lat="51.755859" lon="14.311146"></trkpt>
      <trkpt lat="51.755828" lon="14.310966"></trkpt>
      <trkpt lat="51.755827" lon="14.310962"></trkpt>
      <trkpt lat="51.755803" lon="14.31084"></trkpt>
      <trkpt lat="51.755784" lon="14.310733"></trkpt>
      <trkpt lat="51.75569" lon="14.310217"></trkpt>
      <trkpt lat="51.755663" lon="14.31007"></trkpt>
      <trkpt lat="51.755635" lon="14.309922"></trkpt>
      <trkpt lat="51.755378" lon="14.308537"></trkpt>
      <trkpt lat="51.755314" lon="14.308206"></trkpt>
      <trkpt lat="51.754992" lon="14.30652"></trkpt>
      <trkpt lat="51.754946" lon="14.306285"></trkpt>
      <trkpt lat="51.754836" lon="14.30572"></trkpt>
      <trkpt lat="51.754819" lon="14.305636"></trkpt>
      <trkpt lat="51.754753" lon="14.30526"></trkpt>
      <trkpt lat="51.754722" lon="14.305084"></trkpt>
      <trkpt lat="51.754688" lon="14.304892"></trkpt>
      <trkpt lat="51.754577" lon="14.304247"></trkpt>
      <trkpt lat="51.754557" lon="14.304129"></trkpt>
      <trkpt lat="51.754519" lon="14.303912"></trkpt>
      <trkpt lat="51.754499" lon="14.303802"></trkpt>
      <trkpt lat="51.754495" lon="14.303779"></trkpt>
      <trkpt lat="51.754476" lon="14.30367"></trkpt>
      <trkpt lat="51.754475" lon="14.303667"></trkpt>
      <trkpt lat="51.754443" lon="14.303505"></trkpt>
      <trkpt lat="51.754354" lon="14.303211"></trkpt>
      <trkpt lat="51.754308" lon="14.30307"></trkpt>
      <trkpt lat="51.754253" lon="14.302913"></trkpt>
      <trkpt lat="51.754169" lon="14.302673"></trkpt>
      <trkpt lat="51.754062" lon="14.302315"></trkpt>
      <trkpt lat="51.753989" lon="14.302"></trkpt>
      <trkpt lat="51.753938" lon="14.301591"></trkpt>
      <trkpt lat="51.753901" lon="14.301299"></trkpt>
      <trkpt lat="51.753893" lon="14.301237"></trkpt>
      <trkpt lat="51.753798" lon="14.300499"></trkpt>
      <trkpt lat="51.753775" lon="14.300321"></trkpt>
      <trkpt lat="51.753753" lon="14.300152"></trkpt>
      <trkpt lat="51.753539" lon="14.298501"></trkpt>
      <trkpt lat="51.753502" lon="14.298215"></trkpt>
      <trkpt lat="51.753453" lon="14.297815"></trkpt>
      <trkpt lat="51.753394" lon="14.297346"></trkpt>
      <trkpt lat="51.753393" lon="14.29734"></trkpt>
      <trkpt lat="51.753336" lon="14.296871"></trkpt>
      <trkpt lat="51.753222" lon="14.29591"></trkpt>
      <trkpt lat="51.75314" lon="14.295213"></trkpt>
      <trkpt lat="51.753062" lon="14.294539"></trkpt>
      <trkpt lat="51.753019" lon="14.294193"></trkpt>
      <trkpt lat="51.752855" lon="14.29284"></trkpt>
      <trkpt lat="51.752744" lon="14.291929"></trkpt>
      <trkpt lat="51.752736" lon="14.291867"></trkpt>
      <trkpt lat="51.752735" lon="14.291854"></trkpt>
      <trkpt lat="51.752708" lon="14.291636"></trkpt>
      <trkpt lat="51.752639" lon="14.291073"></trkpt>
      <trkpt lat="51.752587" lon="14.290639"></trkpt>
      <trkpt lat="51.752562" lon="14.290429"></trkpt>
      <trkpt lat="51.75256" lon="14.290412"></trkpt>
      <trkpt lat="51.752492" lon="14.289855"></trkpt>
      <trkpt lat="51.751892" lon="14.284931"></trkpt>
      <trkpt lat="51.751785" lon="14.284068"></trkpt>
      <trkpt lat="51.751747" lon="14.28375"></trkpt>
      <trkpt lat="51.75171" lon="14.283401"></trkpt>
      <trkpt lat="51.75169" lon="14.28319"></trkpt>
      <trkpt lat="51.751629" lon="14.28273"></trkpt>
      <trkpt lat="51.751327" lon="14.280301"></trkpt>
      <trkpt lat="51.751245" lon="14.279638"></trkpt>
      <trkpt lat="51.751131" lon="14.278687"></trkpt>
      <trkpt lat="51.75113" lon="14.278683"></trkpt>
      <trkpt lat="51.751117" lon="14.278585"></trkpt>
      <trkpt lat="51.751043" lon="14.277985"></trkpt>
      <trkpt lat="51.750974" lon="14.27744"></trkpt>
      <trkpt lat="51.750857" lon="14.276454"></trkpt>
      <trkpt lat="51.750829" lon="14.276136"></trkpt>
      <trkpt lat="51.75081" lon="14.27593"></trkpt>
      <trkpt lat="51.750761" lon="14.275392"></trkpt>
      <trkpt lat="51.750695" lon="14.274533"></trkpt>
      <trkpt lat="51.750591" lon="14.273219"></trkpt>
      <trkpt lat="51.750437" lon="14.271032"></trkpt>
      <trkpt lat="51.750131" lon="14.266601"></trkpt>
      <trkpt lat="51.749975" lon="14.264424"></trkpt>
      <trkpt lat="51.749934" lon="14.263866"></trkpt>
      <trkpt lat="51.749929" lon="14.263789"></trkpt>
      <trkpt lat="51.749883" lon="14.263151"></trkpt>
      <trkpt lat="51.749853" lon="14.262735"></trkpt>
      <trkpt lat="51.749813" lon="14.262226"></trkpt>
      <trkpt lat="51.749751" lon="14.261227"></trkpt>
      <trkpt lat="51.749733" lon="14.260989"></trkpt>
      <trkpt lat="51.749726" lon="14.260909"></trkpt>
      <trkpt lat="51.749894" lon="14.26091"></trkpt>
      <trkpt lat="51.750159" lon="14.260905"></trkpt>
      <trkpt lat="51.750447" lon="14.2609"></trkpt>
      <trkpt lat="51.750491" lon="14.260902"></trkpt>
      <trkpt lat="51.750585" lon="14.260905"></trkpt>
      <trkpt lat="51.750728" lon="14.260907"></trkpt>
      <trkpt lat="51.750889" lon="14.260914"></trkpt>
      <trkpt lat="51.750985" lon="14.260918"></trkpt>
      <trkpt lat="51.750985" lon="14.260918"></trkpt>
      <trkpt lat="51.751044" lon="14.260921"></trkpt>
      <trkpt lat="51.751101" lon="14.260922"></trkpt>
      <trkpt lat="51.751138" lon="14.260908"></trkpt>
      <trkpt lat="51.751154" lon="14.260887"></trkpt>
      <trkpt lat="51.751173" lon="14.260864"></trkpt>
      <trkpt lat="51.751181" lon="14.260855"></trkpt>
      <trkpt lat="51.751195" lon="14.260814"></trkpt>
      <trkpt lat="51.751202" lon="14.260754"></trkpt>
      <trkpt lat="51.751215" lon="14.260481"></trkpt>
      <trkpt lat="51.751225" lon="14.259976"></trkpt>
      <trkpt lat="51.751233" lon="14.259581"></trkpt>
      <trkpt lat="51.751084" lon="14.25957"></trkpt>
      <trkpt lat="51.750928" lon="14.25956"></trkpt>
      <trkpt lat="51.750771" lon="14.25955"></trkpt>
      <trkpt lat="51.750624" lon="14.259544"></trkpt>
      <trkpt lat="51.750617" lon="14.259544"></trkpt>
      <trkpt lat="51.750624" lon="14.259544"></trkpt>
      <trkpt lat="51.750585" lon="14.260905"></trkpt>
      <trkpt lat="51.750491" lon="14.260902"></trkpt>
      <trkpt lat="51.750447" lon="14.2609"></trkpt>
      <trkpt lat="51.750159" lon="14.260905"></trkpt>
      <trkpt lat="51.749894" lon="14.26091"></trkpt>
      <trkpt lat="51.749726" lon="14.260909"></trkpt>
      <trkpt lat="51.749707" lon="14.260664"></trkpt>
      <trkpt lat="51.749698" lon="14.260511"></trkpt>
      <trkpt lat="51.749697" lon="14.260502"></trkpt>
      <trkpt lat="51.749645" lon="14.259837"></trkpt>
      <trkpt lat="51.749578" lon="14.258989"></trkpt>
      <trkpt lat="51.749554" lon="14.258659"></trkpt>
      <trkpt lat="51.749526" lon="14.258192"></trkpt>
      <trkpt lat="51.749513" lon="14.257681"></trkpt>
      <trkpt lat="51.74951" lon="14.25742"></trkpt>
      <trkpt lat="51.749594" lon="14.2543"></trkpt>
      <trkpt lat="51.749632" lon="14.25289"></trkpt>
      <trkpt lat="51.749641" lon="14.252575"></trkpt>
      <trkpt lat="51.749648" lon="14.252285"></trkpt>
      <trkpt lat="51.749648" lon="14.252277"></trkpt>
      <trkpt lat="51.749719" lon="14.249348"></trkpt>
      <trkpt lat="51.749784" lon="14.246666"></trkpt>
      <trkpt lat="51.749791" lon="14.246366"></trkpt>
      <trkpt lat="51.749798" lon="14.246142"></trkpt>
      <trkpt lat="51.749809" lon="14.245831"></trkpt>
      <trkpt lat="51.74981" lon="14.245799"></trkpt>
      <trkpt lat="51.749817" lon="14.245554"></trkpt>
      <trkpt lat="51.749837" lon="14.244956"></trkpt>
      <trkpt lat="51.74985" lon="14.24459"></trkpt>
      <trkpt lat="51.749742" lon="14.244457"></trkpt>
      <trkpt lat="51.749715" lon="14.244424"></trkpt>
      <trkpt lat="51.749698" lon="14.244404"></trkpt>
      <trkpt lat="51.749171" lon="14.243802"></trkpt>
      <trkpt lat="51.747771" lon="14.242894"></trkpt>
      <trkpt lat="51.747555" lon="14.242768"></trkpt>
      <trkpt lat="51.747303" lon="14.242607"></trkpt>
      <trkpt lat="51.74719" lon="14.24254"></trkpt>
      <trkpt lat="51.74719" lon="14.24254"></trkpt>
      <trkpt lat="51.746977" lon="14.242415"></trkpt>
      <trkpt lat="51.746937" lon="14.242389"></trkpt>
      <trkpt lat="51.746798" lon="14.242321"></trkpt>
      <trkpt lat="51.746477" lon="14.242136"></trkpt>
      <trkpt lat="51.74637" lon="14.242093"></trkpt>
      <trkpt lat="51.746346" lon="14.242081"></trkpt>
      <trkpt lat="51.746144" lon="14.242032"></trkpt>
      <trkpt lat="51.746018" lon="14.242161"></trkpt>
      <trkpt lat="51.744277" lon="14.243954"></trkpt>
      <trkpt lat="51.743745" lon="14.244511"></trkpt>
      <trkpt lat="51.743602" lon="14.244641"></trkpt>
      <trkpt lat="51.742957" lon="14.245288"></trkpt>
      <trkpt lat="51.74253" lon="14.245691"></trkpt>
      <trkpt lat="51.740866" lon="14.247428"></trkpt>
      <trkpt lat="51.740696" lon="14.247599"></trkpt>
      <trkpt lat="51.740489" lon="14.247807"></trkpt>
      <trkpt lat="51.739543" lon="14.248748"></trkpt>
      <trkpt lat="51.739272" lon="14.249017"></trkpt>
      <trkpt lat="51.738618" lon="14.249665"></trkpt>
      <trkpt lat="51.738606" lon="14.249677"></trkpt>
      <trkpt lat="51.738473" lon="14.24981"></trkpt>
      <trkpt lat="51.738414" lon="14.249889"></trkpt>
      <trkpt lat="51.738386" lon="14.249927"></trkpt>
      <trkpt lat="51.738327" lon="14.250028"></trkpt>
      <trkpt lat="51.738324" lon="14.250034"></trkpt>
      <trkpt lat="51.738092" lon="14.25045"></trkpt>
      <trkpt lat="51.73772" lon="14.249876"></trkpt>
      <trkpt lat="51.737699" lon="14.24985"></trkpt>
      <trkpt lat="51.7374" lon="14.249433"></trkpt>
      <trkpt lat="51.737255" lon="14.249243"></trkpt>
      <trkpt lat="51.736843" lon="14.248796"></trkpt>
      <trkpt lat="51.735121" lon="14.247051"></trkpt>
      <trkpt lat="51.734908" lon="14.246826"></trkpt>
      <trkpt lat="51.734686" lon="14.246524"></trkpt>
      <trkpt lat="51.734508" lon="14.246227"></trkpt>
      <trkpt lat="51.734436" lon="14.246064"></trkpt>
      <trkpt lat="51.73432" lon="14.245759"></trkpt>
      <trkpt lat="51.734228" lon="14.245505"></trkpt>
      <trkpt lat="51.733762" lon="14.244215"></trkpt>
      <trkpt lat="51.733361" lon="14.243187"></trkpt>
      <trkpt lat="51.732654" lon="14.241376"></trkpt>
      <trkpt lat="51.732614" lon="14.241274"></trkpt>
      <trkpt lat="51.732016" lon="14.239742"></trkpt>
      <trkpt lat="51.730717" lon="14.235404"></trkpt>
      <trkpt lat="51.730975" lon="14.235287"></trkpt>
      <trkpt lat="51.732319" lon="14.234675"></trkpt>
      <trkpt lat="51.734401" lon="14.233645"></trkpt>
      <trkpt lat="51.734834" lon="14.233431"></trkpt>
      <trkpt lat="51.734622" lon="14.231885"></trkpt>
      <trkpt lat="51.734416" lon="14.230389"></trkpt>
      <trkpt lat="51.734362" lon="14.229976"></trkpt>
      <trkpt lat="51.734351" lon="14.229901"></trkpt>
      <trkpt lat="51.734344" lon="14.229852"></trkpt>
      <trkpt lat="51.734298" lon="14.2295"></trkpt>
      <trkpt lat="51.734241" lon="14.229103"></trkpt>
      <trkpt lat="51.733852" lon="14.226174"></trkpt>
      <trkpt lat="51.733756" lon="14.225523"></trkpt>
      <trkpt lat="51.733743" lon="14.225415"></trkpt>
      <trkpt lat="51.73361" lon="14.224452"></trkpt>
      <trkpt lat="51.733201" lon="14.221436"></trkpt>
      <trkpt lat="51.733103" lon="14.220724"></trkpt>
      <trkpt lat="51.732961" lon="14.219713"></trkpt>
      <trkpt lat="51.732757" lon="14.218251"></trkpt>
      <trkpt lat="51.732683" lon="14.217722"></trkpt>
      <trkpt lat="51.73267" lon="14.217628"></trkpt>
      <trkpt lat="51.732645" lon="14.217563"></trkpt>
      <trkpt lat="51.732608" lon="14.217527"></trkpt>
      <trkpt lat="51.732563" lon="14.217505"></trkpt>
      <trkpt lat="51.732525" lon="14.21751"></trkpt>
      <trkpt lat="51.730955" lon="14.218248"></trkpt>
      <trkpt lat="51.730967" lon="14.218323"></trkpt>
      <trkpt lat="51.731068" lon="14.21887"></trkpt>
      <trkpt lat="51.731134" lon="14.219226"></trkpt>
      <trkpt lat="51.731135" lon="14.219233"></trkpt>
    </trkseg>
  </trk>
</gpx>