<?xml version="1.0" encoding="UTF-8"?>
<gpx version="1.1" creator="Lehrfahrer Linieneditor" xmlns="http://www.topografix.com/GPX/1/1">
  <metadata>
    <name>Linie 10 - Route 02 - Schloss Branitz - Cottbus, Hauptbahnhof</name>
    <desc>Export aus dem Lehrfahrer Linieneditor | Farbe: #d32f2f</desc>
  </metadata>
  <wpt lat="51.743324" lon="14.375011">
    <name>Schloss Branitz</name>
    <cmt>SollMinute:0;Stop:1</cmt>
    <desc>Stopp 1 | SollMinute: 0</desc>
  </wpt>
  <wpt lat="51.737719" lon="14.374261">
    <name>Branitz Waldesruh</name>
    <cmt>SollMinute:2.5;Stop:2</cmt>
    <desc>Stopp 2 | SollMinute: 2.5</desc>
  </wpt>
  <wpt lat="51.737117" lon="14.368966">
    <name>Branitz Alte Schule</name>
    <cmt>SollMinute:4;Stop:3</cmt>
    <desc>Stopp 3 | SollMinute: 4</desc>
  </wpt>
  <wpt lat="51.736458" lon="14.367085">
    <name>Branitz Zum Seebad</name>
    <cmt>SollMinute:5.5;Stop:4</cmt>
    <desc>Stopp 4 | SollMinute: 5.5</desc>
  </wpt>
  <wpt lat="51.738933" lon="14.364306">
    <name>Branitz Park</name>
    <cmt>SollMinute:7;Stop:5</cmt>
    <desc>Stopp 5 | SollMinute: 7</desc>
  </wpt>
  <wpt lat="51.744857" lon="14.353809">
    <name>Tierpark</name>
    <cmt>SollMinute:11.5;Stop:6</cmt>
    <desc>Stopp 6 | SollMinute: 11.5</desc>
  </wpt>
  <wpt lat="51.751157" lon="14.354142">
    <name>Vorpark</name>
    <cmt>SollMinute:15;Stop:7</cmt>
    <desc>Stopp 7 | SollMinute: 15</desc>
  </wpt>
  <wpt lat="51.756992" lon="14.346178">
    <name>Georg-Schlesinger-Straße</name>
    <cmt>SollMinute:17.5;Stop:8</cmt>
    <desc>Stopp 8 | SollMinute: 17.5</desc>
  </wpt>
  <wpt lat="51.759192" lon="14.342987">
    <name>Cottbus, Carl-Blechen-Park</name>
    <cmt>SollMinute:19;Stop:9</cmt>
    <desc>Stopp 9 | SollMinute: 19</desc>
  </wpt>
  <wpt lat="51.757879" lon="14.337903">
    <name>Cottbus, Freiheitsstraße</name>
    <cmt>SollMinute:21.5;Stop:10</cmt>
    <desc>Stopp 10 | SollMinute: 21.5</desc>
  </wpt>
  <wpt lat="51.757274" lon="14.330561">
    <name>Cottbus, Stadtpromenade</name>
    <cmt>SollMinute:23;Stop:11</cmt>
    <desc>Stopp 11 | SollMinute: 23</desc>
  </wpt>
  <wpt lat="51.755209" lon="14.328184">
    <name>Freie Haltestelle 12</name>
    <cmt>SollMinute:24.5;Stop:12</cmt>
    <desc>Stopp 12 | SollMinute: 24.5</desc>
  </wpt>
  <wpt lat="51.749623" lon="14.326387">
    <name>Freie Haltestelle 13</name>
    <cmt>SollMinute:28;Stop:13</cmt>
    <desc>Stopp 13 | SollMinute: 28</desc>
  </wpt>
  <wpt lat="51.750201" lon="14.326487">
    <name>Cottbus, Hauptbahnhof</name>
    <cmt>SollMinute:29;Stop:14</cmt>
    <desc>Stopp 14 | SollMinute: 29</desc>
  </wpt>
  <trk>
    <name>Linie 10 - Route 02 - Schloss Branitz - Cottbus, Hauptbahnhof</name>
    <desc>Route für Maps.me Offline-Nutzung</desc>
    <trkseg>
      <trkpt lat="51.743324" lon="14.374998"></trkpt>
      <trkpt lat="51.743195" lon="14.375001"></trkpt>
      <trkpt lat="51.743072" lon="14.375016"></trkpt>
      <trkpt lat="51.742879" lon="14.375053"></trkpt>
      <trkpt lat="51.742722" lon="14.375066"></trkpt>
      <trkpt lat="51.741763" lon="14.374946"></trkpt>
      <trkpt lat="51.741367" lon="14.374905"></trkpt>
      <trkpt lat="51.740881" lon="14.374903"></trkpt>
      <trkpt lat="51.740679" lon="14.374936"></trkpt>
      <trkpt lat="51.740439" lon="14.375052"></trkpt>
      <trkpt lat="51.740183" lon="14.375182"></trkpt>
      <trkpt lat="51.739905" lon="14.375244"></trkpt>
      <trkpt lat="51.739468" lon="14.375294"></trkpt>
      <trkpt lat="51.739247" lon="14.375313"></trkpt>
      <trkpt lat="51.738777" lon="14.37532"></trkpt>
      <trkpt lat="51.737948" lon="14.375236"></trkpt>
      <trkpt lat="51.737835" lon="14.375207"></trkpt>
      <trkpt lat="51.73772" lon="14.375045"></trkpt>
      <trkpt lat="51.737703" lon="14.374962"></trkpt>
      <trkpt lat="51.737728" lon="14.374213"></trkpt>
      <trkpt lat="51.737768" lon="14.372941"></trkpt>
      <trkpt lat="51.737857" lon="14.370699"></trkpt>
      <trkpt lat="51.737915" lon="14.369382"></trkpt>
      <trkpt lat="51.737957" lon="14.369333"></trkpt>
      <trkpt lat="51.737878" lon="14.369263"></trkpt>
      <trkpt lat="51.737715" lon="14.369197"></trkpt>
      <trkpt lat="51.737378" lon="14.369056"></trkpt>
      <trkpt lat="51.737268" lon="14.36901"></trkpt>
      <trkpt lat="51.737121" lon="14.368951"></trkpt>
      <trkpt lat="51.736914" lon="14.368862"></trkpt>
      <trkpt lat="51.736681" lon="14.368699"></trkpt>
      <trkpt lat="51.736512" lon="14.367423"></trkpt>
      <trkpt lat="51.736462" lon="14.367079"></trkpt>
      <trkpt lat="51.736428" lon="14.36694"></trkpt>
      <trkpt lat="51.736465" lon="14.366848"></trkpt>
      <trkpt lat="51.736701" lon="14.366274"></trkpt>
      <trkpt lat="51.736734" lon="14.366052"></trkpt>
      <trkpt lat="51.736765" lon="14.365449"></trkpt>
      <trkpt lat="51.736957" lon="14.365437"></trkpt>
      <trkpt lat="51.737789" lon="14.365315"></trkpt>
      <trkpt lat="51.738505" lon="14.365128"></trkpt>
      <trkpt lat="51.738643" lon="14.365091"></trkpt>
      <trkpt lat="51.739043" lon="14.364988"></trkpt>
      <trkpt lat="51.739023" lon="14.36475"></trkpt>
      <trkpt lat="51.738977" lon="14.364534"></trkpt>
      <trkpt lat="51.738933" lon="14.364306"></trkpt>
      <trkpt lat="51.73888" lon="14.364043"></trkpt>
      <trkpt lat="51.738742" lon="14.363371"></trkpt>
      <trkpt lat="51.738498" lon="14.3622"></trkpt>
      <trkpt lat="51.738467" lon="14.362039"></trkpt>
      <trkpt lat="51.738445" lon="14.361883"></trkpt>
      <trkpt lat="51.738426" lon="14.361662"></trkpt>
      <trkpt lat="51.738422" lon="14.361582"></trkpt>
      <trkpt lat="51.738413" lon="14.361389"></trkpt>
      <trkpt lat="51.738418" lon="14.36119"></trkpt>
      <trkpt lat="51.738445" lon="14.361001"></trkpt>
      <trkpt lat="51.738486" lon="14.360814"></trkpt>
      <trkpt lat="51.738611" lon="14.360428"></trkpt>
      <trkpt lat="51.738804" lon="14.359906"></trkpt>
      <trkpt lat="51.739549" lon="14.357914"></trkpt>
      <trkpt lat="51.739728" lon="14.357538"></trkpt>
      <trkpt lat="51.739797" lon="14.35742"></trkpt>
      <trkpt lat="51.739871" lon="14.357311"></trkpt>
      <trkpt lat="51.739986" lon="14.357206"></trkpt>
      <trkpt lat="51.741787" lon="14.355863"></trkpt>
      <trkpt lat="51.742345" lon="14.355433"></trkpt>
      <trkpt lat="51.742892" lon="14.35494"></trkpt>
      <trkpt lat="51.743078" lon="14.354788"></trkpt>
      <trkpt lat="51.743489" lon="14.354473"></trkpt>
      <trkpt lat="51.743923" lon="14.354206"></trkpt>
      <trkpt lat="51.744324" lon="14.354008"></trkpt>
      <trkpt lat="51.744382" lon="14.353979"></trkpt>
      <trkpt lat="51.744637" lon="14.353867"></trkpt>
      <trkpt lat="51.744863" lon="14.353767"></trkpt>
      <trkpt lat="51.744949" lon="14.353736"></trkpt>
      <trkpt lat="51.745751" lon="14.353463"></trkpt>
      <trkpt lat="51.746124" lon="14.353413"></trkpt>
      <trkpt lat="51.746234" lon="14.353439"></trkpt>
      <trkpt lat="51.746285" lon="14.353479"></trkpt>
      <trkpt lat="51.746353" lon="14.353618"></trkpt>
      <trkpt lat="51.747187" lon="14.355864"></trkpt>
      <trkpt lat="51.747306" lon="14.356135"></trkpt>
      <trkpt lat="51.747431" lon="14.356407"></trkpt>
      <trkpt lat="51.747604" lon="14.356728"></trkpt>
      <trkpt lat="51.747815" lon="14.357036"></trkpt>
      <trkpt lat="51.748013" lon="14.357305"></trkpt>
      <trkpt lat="51.748254" lon="14.357558"></trkpt>
      <trkpt lat="51.748609" lon="14.357842"></trkpt>
      <trkpt lat="51.74894" lon="14.358089"></trkpt>
      <trkpt lat="51.749122" lon="14.358223"></trkpt>
      <trkpt lat="51.749558" lon="14.357145"></trkpt>
      <trkpt lat="51.749956" lon="14.356384"></trkpt>
      <trkpt lat="51.750711" lon="14.354941"></trkpt>
      <trkpt lat="51.750831" lon="14.354712"></trkpt>
      <trkpt lat="51.750914" lon="14.354552"></trkpt>
      <trkpt lat="51.751066" lon="14.354324"></trkpt>
      <trkpt lat="51.75117" lon="14.354141"></trkpt>
      <trkpt lat="51.751369" lon="14.35379"></trkpt>
      <trkpt lat="51.751783" lon="14.353023"></trkpt>
      <trkpt lat="51.751867" lon="14.352875"></trkpt>
      <trkpt lat="51.751944" lon="14.35274"></trkpt>
      <trkpt lat="51.75235" lon="14.352022"></trkpt>
      <trkpt lat="51.752455" lon="14.351833"></trkpt>
      <trkpt lat="51.752533" lon="14.351685"></trkpt>
      <trkpt lat="51.752619" lon="14.351523"></trkpt>
      <trkpt lat="51.752764" lon="14.351222"></trkpt>
      <trkpt lat="51.752918" lon="14.350902"></trkpt>
      <trkpt lat="51.75335" lon="14.35"></trkpt>
      <trkpt lat="51.75381" lon="14.349191"></trkpt>
      <trkpt lat="51.754331" lon="14.348462"></trkpt>
      <trkpt lat="51.75481" lon="14.347898"></trkpt>
      <trkpt lat="51.755255" lon="14.34743"></trkpt>
      <trkpt lat="51.755418" lon="14.347301"></trkpt>
      <trkpt lat="51.755928" lon="14.346894"></trkpt>
      <trkpt lat="51.756054" lon="14.346793"></trkpt>
      <trkpt lat="51.756231" lon="14.346675"></trkpt>
      <trkpt lat="51.756274" lon="14.346648"></trkpt>
      <trkpt lat="51.756605" lon="14.346444"></trkpt>
      <trkpt lat="51.756697" lon="14.346388"></trkpt>
      <trkpt lat="51.756834" lon="14.346304"></trkpt>
      <trkpt lat="51.756947" lon="14.346234"></trkpt>
      <trkpt lat="51.757085" lon="14.346148"></trkpt>
      <trkpt lat="51.757205" lon="14.346074"></trkpt>
      <trkpt lat="51.757307" lon="14.346011"></trkpt>
      <trkpt lat="51.757493" lon="14.345898"></trkpt>
      <trkpt lat="51.75765" lon="14.345802"></trkpt>
      <trkpt lat="51.758174" lon="14.34549"></trkpt>
      <trkpt lat="51.758592" lon="14.345244"></trkpt>
      <trkpt lat="51.758671" lon="14.345196"></trkpt>
      <trkpt lat="51.759115" lon="14.344929"></trkpt>
      <trkpt lat="51.759445" lon="14.344727"></trkpt>
      <trkpt lat="51.759485" lon="14.344703"></trkpt>
      <trkpt lat="51.759639" lon="14.344601"></trkpt>
      <trkpt lat="51.759552" lon="14.344333"></trkpt>
      <trkpt lat="51.759534" lon="14.344272"></trkpt>
      <trkpt lat="51.759347" lon="14.343595"></trkpt>
      <trkpt lat="51.759255" lon="14.343271"></trkpt>
      <trkpt lat="51.759171" lon="14.342976"></trkpt>
      <trkpt lat="51.759019" lon="14.342402"></trkpt>
      <trkpt lat="51.75898" lon="14.342247"></trkpt>
      <trkpt lat="51.758827" lon="14.341611"></trkpt>
      <trkpt lat="51.7588" lon="14.341507"></trkpt>
      <trkpt lat="51.758757" lon="14.341337"></trkpt>
      <trkpt lat="51.758689" lon="14.341082"></trkpt>
      <trkpt lat="51.75852" lon="14.340449"></trkpt>
      <trkpt lat="51.75843" lon="14.340075"></trkpt>
      <trkpt lat="51.758374" lon="14.339787"></trkpt>
      <trkpt lat="51.758357" lon="14.339708"></trkpt>
      <trkpt lat="51.758261" lon="14.339355"></trkpt>
      <trkpt lat="51.7582" lon="14.339152"></trkpt>
      <trkpt lat="51.75816" lon="14.33903"></trkpt>
      <trkpt lat="51.758136" lon="14.338911"></trkpt>
      <trkpt lat="51.75797" lon="14.338385"></trkpt>
      <trkpt lat="51.757944" lon="14.338292"></trkpt>
      <trkpt lat="51.757903" lon="14.338128"></trkpt>
      <trkpt lat="51.757852" lon="14.337857"></trkpt>
      <trkpt lat="51.757825" lon="14.337655"></trkpt>
      <trkpt lat="51.75781" lon="14.337395"></trkpt>
      <trkpt lat="51.757789" lon="14.337132"></trkpt>
      <trkpt lat="51.757743" lon="14.336796"></trkpt>
      <trkpt lat="51.757669" lon="14.33645"></trkpt>
      <trkpt lat="51.757535" lon="14.335933"></trkpt>
      <trkpt lat="51.757481" lon="14.335693"></trkpt>
      <trkpt lat="51.757469" lon="14.335633"></trkpt>
      <trkpt lat="51.757436" lon="14.335434"></trkpt>
      <trkpt lat="51.757407" lon="14.335175"></trkpt>
      <trkpt lat="51.757377" lon="14.33475"></trkpt>
      <trkpt lat="51.757369" lon="14.334623"></trkpt>
      <trkpt lat="51.757356" lon="14.334151"></trkpt>
      <trkpt lat="51.757353" lon="14.333624"></trkpt>
      <trkpt lat="51.757361" lon="14.333392"></trkpt>
      <trkpt lat="51.757359" lon="14.333097"></trkpt>
      <trkpt lat="51.757352" lon="14.332887"></trkpt>
      <trkpt lat="51.75734" lon="14.332585"></trkpt>
      <trkpt lat="51.757332" lon="14.332404"></trkpt>
      <trkpt lat="51.757308" lon="14.33174"></trkpt>
      <trkpt lat="51.757293" lon="14.331402"></trkpt>
      <trkpt lat="51.757285" lon="14.331211"></trkpt>
      <trkpt lat="51.75728" lon="14.331107"></trkpt>
      <trkpt lat="51.757254" lon="14.33056"></trkpt>
      <trkpt lat="51.75723" lon="14.330274"></trkpt>
      <trkpt lat="51.75717" lon="14.329972"></trkpt>
      <trkpt lat="51.757104" lon="14.329644"></trkpt>
      <trkpt lat="51.75707" lon="14.329032"></trkpt>
      <trkpt lat="51.757028" lon="14.328245"></trkpt>
      <trkpt lat="51.757021" lon="14.328071"></trkpt>
      <trkpt lat="51.757015" lon="14.327957"></trkpt>
      <trkpt lat="51.75688" lon="14.327972"></trkpt>
      <trkpt lat="51.756711" lon="14.327989"></trkpt>
      <trkpt lat="51.756259" lon="14.328047"></trkpt>
      <trkpt lat="51.75611" lon="14.328066"></trkpt>
      <trkpt lat="51.755748" lon="14.328113"></trkpt>
      <trkpt lat="51.755358" lon="14.32816"></trkpt>
      <trkpt lat="51.755209" lon="14.328178"></trkpt>
      <trkpt lat="51.754762" lon="14.328233"></trkpt>
      <trkpt lat="51.754462" lon="14.328255"></trkpt>
      <trkpt lat="51.754324" lon="14.32826"></trkpt>
      <trkpt lat="51.754172" lon="14.328268"></trkpt>
      <trkpt lat="51.754059" lon="14.328276"></trkpt>
      <trkpt lat="51.753871" lon="14.328272"></trkpt>
      <trkpt lat="51.753531" lon="14.328264"></trkpt>
      <trkpt lat="51.753247" lon="14.328264"></trkpt>
      <trkpt lat="51.752101" lon="14.328359"></trkpt>
      <trkpt lat="51.750828" lon="14.328417"></trkpt>
      <trkpt lat="51.750641" lon="14.328431"></trkpt>
      <trkpt lat="51.750523" lon="14.328442"></trkpt>
      <trkpt lat="51.750385" lon="14.328463"></trkpt>
      <trkpt lat="51.750197" lon="14.328468"></trkpt>
      <trkpt lat="51.749859" lon="14.328459"></trkpt>
      <trkpt lat="51.749662" lon="14.32843"></trkpt>
      <trkpt lat="51.749618" lon="14.328416"></trkpt>
      <trkpt lat="51.749469" lon="14.328325"></trkpt>
      <trkpt lat="51.749482" lon="14.328112"></trkpt>
      <trkpt lat="51.749494" lon="14.327969"></trkpt>
      <trkpt lat="51.749543" lon="14.32741"></trkpt>
      <trkpt lat="51.749571" lon="14.327014"></trkpt>
      <trkpt lat="51.749594" lon="14.326754"></trkpt>
      <trkpt lat="51.749612" lon="14.326538"></trkpt>
      <trkpt lat="51.74963" lon="14.326337"></trkpt>
      <trkpt lat="51.750191" lon="14.326305"></trkpt>
      <trkpt lat="51.750201" lon="14.326487"></trkpt>
      <trkpt lat="51.74963" lon="14.326337"></trkpt>
      <trkpt lat="51.750191" lon="14.326305"></trkpt>
      <trkpt lat="51.750201" lon="14.326487"></trkpt>
    </trkseg>
  </trk>
</gpx>