<?xml version="1.0" encoding="UTF-8"?>
<gpx version="1.1" creator="Lehrfahrer Linieneditor" xmlns="http://www.topografix.com/GPX/1/1">
  <metadata>
    <name>21 - 01 - Drachhausen Dorfstraße – Sachsendorf Hegelstraße</name>
    <desc>Export aus dem Lehrfahrer Linieneditor | Farbe: #d32f2f</desc>
  </metadata>
  <wpt lat="51.89243" lon="14.329545">
    <name>Drachhausen Dorfstraße</name>
    <cmt>SollMinute:0;Stop:1</cmt>
    <desc>Stopp 1 | SollMinute: 0</desc>
  </wpt>
  <wpt lat="51.890522" lon="14.321224">
    <name>Drachhausen Gasthaus</name>
    <cmt>SollMinute:0;Stop:2</cmt>
    <desc>Stopp 2 | SollMinute: 0</desc>
  </wpt>
  <wpt lat="51.89092" lon="14.313336">
    <name>Drachhausen Sportplatz</name>
    <cmt>SollMinute:0;Stop:3</cmt>
    <desc>Stopp 3 | SollMinute: 0</desc>
  </wpt>
  <wpt lat="51.87636" lon="14.316326">
    <name>Drachhausen Süd</name>
    <cmt>SollMinute:0;Stop:4</cmt>
    <desc>Stopp 4 | SollMinute: 0</desc>
  </wpt>
  <wpt lat="51.86798" lon="14.344614">
    <name>Drehnow West</name>
    <cmt>SollMinute:0;Stop:5</cmt>
    <desc>Stopp 5 | SollMinute: 0</desc>
  </wpt>
  <wpt lat="51.866566" lon="14.35671">
    <name>Drehnow Alte Schule</name>
    <cmt>SollMinute:0;Stop:6</cmt>
    <desc>Stopp 6 | SollMinute: 0</desc>
  </wpt>
  <wpt lat="51.865253" lon="14.368997">
    <name>Drehnow Schmiede</name>
    <cmt>SollMinute:0;Stop:7</cmt>
    <desc>Stopp 7 | SollMinute: 0</desc>
  </wpt>
  <wpt lat="51.86972" lon="14.380324">
    <name>Turnow Straße nach Drehnow</name>
    <cmt>SollMinute:0;Stop:8</cmt>
    <desc>Stopp 8 | SollMinute: 0</desc>
  </wpt>
  <wpt lat="51.862556" lon="14.397517">
    <name>Peitz Martinstraße</name>
    <cmt>SollMinute:0;Stop:9</cmt>
    <desc>Stopp 9 | SollMinute: 0</desc>
  </wpt>
  <wpt lat="51.85994" lon="14.404558">
    <name>Peitz August-Bebel-Straße</name>
    <cmt>SollMinute:0;Stop:10</cmt>
    <desc>Stopp 10 | SollMinute: 0</desc>
  </wpt>
  <wpt lat="51.856544" lon="14.410792">
    <name>Peitz, Markt6</name>
    <cmt>SollMinute:0;Stop:11</cmt>
    <desc>Stopp 11 | SollMinute: 0</desc>
  </wpt>
  <wpt lat="51.8561" lon="14.411912">
    <name>Peitz Dammzollstraße</name>
    <cmt>SollMinute:0;Stop:12</cmt>
    <desc>Stopp 12 | SollMinute: 0</desc>
  </wpt>
  <wpt lat="51.85617" lon="14.420567">
    <name>Peitz Richard-Wagner-Straße</name>
    <cmt>SollMinute:0;Stop:13</cmt>
    <desc>Stopp 13 | SollMinute: 0</desc>
  </wpt>
  <wpt lat="51.85043" lon="14.425848">
    <name>Peitz Alte Bahnhofstraße</name>
    <cmt>SollMinute:0;Stop:14</cmt>
    <desc>Stopp 14 | SollMinute: 0</desc>
  </wpt>
  <wpt lat="51.851692" lon="14.403785">
    <name>Peitz, Teichschänke1</name>
    <cmt>SollMinute:0;Stop:15</cmt>
    <desc>Stopp 15 | SollMinute: 0</desc>
  </wpt>
  <wpt lat="51.77143" lon="14.328057">
    <name>Freizeitbad Lagune</name>
    <cmt>SollMinute:0;Stop:16</cmt>
    <desc>Stopp 16 | SollMinute: 0</desc>
  </wpt>
  <wpt lat="51.76642" lon="14.328231">
    <name>BTU/Bibliothek</name>
    <cmt>SollMinute:0;Stop:17</cmt>
    <desc>Stopp 17 | SollMinute: 0</desc>
  </wpt>
  <wpt lat="51.76607" lon="14.325756">
    <name>BTU/Mensa</name>
    <cmt>SollMinute:0;Stop:18</cmt>
    <desc>Stopp 18 | SollMinute: 0</desc>
  </wpt>
  <wpt lat="51.75716" lon="14.332204">
    <name>Stadtpromenade</name>
    <cmt>SollMinute:0;Stop:19</cmt>
    <desc>Stopp 19 | SollMinute: 0</desc>
  </wpt>
  <wpt lat="51.757023" lon="14.346009">
    <name>Georg-Schlesinger-Straße</name>
    <cmt>SollMinute:0;Stop:20</cmt>
    <desc>Stopp 20 | SollMinute: 0</desc>
  </wpt>
  <wpt lat="51.72556" lon="14.33875">
    <name>Uhlandstraße</name>
    <cmt>SollMinute:0;Stop:21</cmt>
    <desc>Stopp 21 | SollMinute: 0</desc>
  </wpt>
  <wpt lat="51.722282" lon="14.325813">
    <name>Zielona-Gora-Straße</name>
    <cmt>SollMinute:0;Stop:22</cmt>
    <desc>Stopp 22 | SollMinute: 0</desc>
  </wpt>
  <wpt lat="51.72146" lon="14.326573">
    <name>Sachsendorf Hegelstraße</name>
    <cmt>SollMinute:0;Stop:23</cmt>
    <desc>Stopp 23 | SollMinute: 0</desc>
  </wpt>
  <trk>
    <name>21 - 01 - Drachhausen Dorfstraße – Sachsendorf Hegelstraße</name>
    <desc>Route für Maps.me Offline-Nutzung</desc>
    <trkseg>
      <trkpt lat="51.892411" lon="14.329552"></trkpt>
      <trkpt lat="51.892398" lon="14.329466"></trkpt>
      <trkpt lat="51.892309" lon="14.328893"></trkpt>
      <trkpt lat="51.892252" lon="14.328567"></trkpt>
      <trkpt lat="51.892103" lon="14.327836"></trkpt>
      <trkpt lat="51.891956" lon="14.327146"></trkpt>
      <trkpt lat="51.891911" lon="14.326998"></trkpt>
      <trkpt lat="51.891851" lon="14.326841"></trkpt>
      <trkpt lat="51.891519" lon="14.326235"></trkpt>
      <trkpt lat="51.891364" lon="14.325896"></trkpt>
      <trkpt lat="51.891271" lon="14.32567"></trkpt>
      <trkpt lat="51.891172" lon="14.325424"></trkpt>
      <trkpt lat="51.891106" lon="14.325229"></trkpt>
      <trkpt lat="51.891085" lon="14.325159"></trkpt>
      <trkpt lat="51.891022" lon="14.324943"></trkpt>
      <trkpt lat="51.890927" lon="14.324536"></trkpt>
      <trkpt lat="51.890826" lon="14.32407"></trkpt>
      <trkpt lat="51.890763" lon="14.32375"></trkpt>
      <trkpt lat="51.89072" lon="14.323456"></trkpt>
      <trkpt lat="51.890496" lon="14.321303"></trkpt>
      <trkpt lat="51.890492" lon="14.321228"></trkpt>
      <trkpt lat="51.890491" lon="14.321209"></trkpt>
      <trkpt lat="51.890479" lon="14.321002"></trkpt>
      <trkpt lat="51.890478" lon="14.320619"></trkpt>
      <trkpt lat="51.890476" lon="14.320486"></trkpt>
      <trkpt lat="51.890503" lon="14.319985"></trkpt>
      <trkpt lat="51.890522" lon="14.319812"></trkpt>
      <trkpt lat="51.890567" lon="14.31964"></trkpt>
      <trkpt lat="51.890635" lon="14.319486"></trkpt>
      <trkpt lat="51.89072" lon="14.319299"></trkpt>
      <trkpt lat="51.890984" lon="14.318747"></trkpt>
      <trkpt lat="51.891201" lon="14.318276"></trkpt>
      <trkpt lat="51.891313" lon="14.31802"></trkpt>
      <trkpt lat="51.891391" lon="14.317833"></trkpt>
      <trkpt lat="51.891416" lon="14.317735"></trkpt>
      <trkpt lat="51.891431" lon="14.317657"></trkpt>
      <trkpt lat="51.891437" lon="14.317582"></trkpt>
      <trkpt lat="51.891436" lon="14.317446"></trkpt>
      <trkpt lat="51.891384" lon="14.316513"></trkpt>
      <trkpt lat="51.891339" lon="14.315845"></trkpt>
      <trkpt lat="51.891316" lon="14.315602"></trkpt>
      <trkpt lat="51.891297" lon="14.315425"></trkpt>
      <trkpt lat="51.89127" lon="14.31523"></trkpt>
      <trkpt lat="51.891255" lon="14.315125"></trkpt>
      <trkpt lat="51.891212" lon="14.314911"></trkpt>
      <trkpt lat="51.891169" lon="14.314727"></trkpt>
      <trkpt lat="51.89108" lon="14.31429"></trkpt>
      <trkpt lat="51.89093" lon="14.313543"></trkpt>
      <trkpt lat="51.89089" lon="14.313353"></trkpt>
      <trkpt lat="51.89089" lon="14.313353"></trkpt>
      <trkpt lat="51.890817" lon="14.313009"></trkpt>
      <trkpt lat="51.890766" lon="14.312774"></trkpt>
      <trkpt lat="51.890738" lon="14.312663"></trkpt>
      <trkpt lat="51.890691" lon="14.312562"></trkpt>
      <trkpt lat="51.890654" lon="14.312524"></trkpt>
      <trkpt lat="51.890615" lon="14.312489"></trkpt>
      <trkpt lat="51.890307" lon="14.312329"></trkpt>
      <trkpt lat="51.890038" lon="14.31219"></trkpt>
      <trkpt lat="51.889941" lon="14.312141"></trkpt>
      <trkpt lat="51.88984" lon="14.312157"></trkpt>
      <trkpt lat="51.889352" lon="14.312233"></trkpt>
      <trkpt lat="51.88823" lon="14.312407"></trkpt>
      <trkpt lat="51.888014" lon="14.312447"></trkpt>
      <trkpt lat="51.886718" lon="14.312693"></trkpt>
      <trkpt lat="51.885712" lon="14.312873"></trkpt>
      <trkpt lat="51.885468" lon="14.312924"></trkpt>
      <trkpt lat="51.88096" lon="14.313863"></trkpt>
      <trkpt lat="51.87723" lon="14.314545"></trkpt>
      <trkpt lat="51.876919" lon="14.314562"></trkpt>
      <trkpt lat="51.876874" lon="14.314623"></trkpt>
      <trkpt lat="51.87681" lon="14.31485"></trkpt>
      <trkpt lat="51.876555" lon="14.315751"></trkpt>
      <trkpt lat="51.876424" lon="14.316221"></trkpt>
      <trkpt lat="51.876391" lon="14.316347"></trkpt>
      <trkpt lat="51.876223" lon="14.316981"></trkpt>
      <trkpt lat="51.875554" lon="14.319757"></trkpt>
      <trkpt lat="51.874691" lon="14.323268"></trkpt>
      <trkpt lat="51.874497" lon="14.324032"></trkpt>
      <trkpt lat="51.874472" lon="14.324135"></trkpt>
      <trkpt lat="51.873612" lon="14.327242"></trkpt>
      <trkpt lat="51.873462" lon="14.327694"></trkpt>
      <trkpt lat="51.873156" lon="14.328697"></trkpt>
      <trkpt lat="51.872531" lon="14.330525"></trkpt>
      <trkpt lat="51.871927" lon="14.332399"></trkpt>
      <trkpt lat="51.871361" lon="14.334157"></trkpt>
      <trkpt lat="51.869061" lon="14.341383"></trkpt>
      <trkpt lat="51.868615" lon="14.342754"></trkpt>
      <trkpt lat="51.868136" lon="14.344235"></trkpt>
      <trkpt lat="51.868012" lon="14.344618"></trkpt>
      <trkpt lat="51.868006" lon="14.344636"></trkpt>
      <trkpt lat="51.867423" lon="14.34644"></trkpt>
      <trkpt lat="51.867298" lon="14.34686"></trkpt>
      <trkpt lat="51.867189" lon="14.347294"></trkpt>
      <trkpt lat="51.867076" lon="14.34775"></trkpt>
      <trkpt lat="51.866954" lon="14.348374"></trkpt>
      <trkpt lat="51.866859" lon="14.348991"></trkpt>
      <trkpt lat="51.866559" lon="14.351009"></trkpt>
      <trkpt lat="51.866514" lon="14.351351"></trkpt>
      <trkpt lat="51.866493" lon="14.351582"></trkpt>
      <trkpt lat="51.86651" lon="14.351736"></trkpt>
      <trkpt lat="51.866563" lon="14.351908"></trkpt>
      <trkpt lat="51.866682" lon="14.352036"></trkpt>
      <trkpt lat="51.866877" lon="14.352208"></trkpt>
      <trkpt lat="51.86697" lon="14.352345"></trkpt>
      <trkpt lat="51.867025" lon="14.352526"></trkpt>
      <trkpt lat="51.867015" lon="14.35273"></trkpt>
      <trkpt lat="51.866976" lon="14.353068"></trkpt>
      <trkpt lat="51.866805" lon="14.354737"></trkpt>
      <trkpt lat="51.866747" lon="14.355308"></trkpt>
      <trkpt lat="51.866688" lon="14.35596"></trkpt>
      <trkpt lat="51.866654" lon="14.35624"></trkpt>
      <trkpt lat="51.866624" lon="14.356491"></trkpt>
      <trkpt lat="51.866596" lon="14.35672"></trkpt>
      <trkpt lat="51.866594" lon="14.356738"></trkpt>
      <trkpt lat="51.866564" lon="14.35699"></trkpt>
      <trkpt lat="51.866512" lon="14.35745"></trkpt>
      <trkpt lat="51.866393" lon="14.358521"></trkpt>
      <trkpt lat="51.866353" lon="14.358938"></trkpt>
      <trkpt lat="51.866332" lon="14.359346"></trkpt>
      <trkpt lat="51.866332" lon="14.359737"></trkpt>
      <trkpt lat="51.866353" lon="14.360228"></trkpt>
      <trkpt lat="51.866344" lon="14.3606"></trkpt>
      <trkpt lat="51.866312" lon="14.361076"></trkpt>
      <trkpt lat="51.866257" lon="14.361596"></trkpt>
      <trkpt lat="51.866123" lon="14.362727"></trkpt>
      <trkpt lat="51.866086" lon="14.36326"></trkpt>
      <trkpt lat="51.865986" lon="14.364691"></trkpt>
      <trkpt lat="51.865926" lon="14.365452"></trkpt>
      <trkpt lat="51.865843" lon="14.366041"></trkpt>
      <trkpt lat="51.865485" lon="14.368088"></trkpt>
      <trkpt lat="51.865454" lon="14.368249"></trkpt>
      <trkpt lat="51.865343" lon="14.36876"></trkpt>
      <trkpt lat="51.865288" lon="14.368998"></trkpt>
      <trkpt lat="51.865284" lon="14.369016"></trkpt>
      <trkpt lat="51.864962" lon="14.370413"></trkpt>
      <trkpt lat="51.864942" lon="14.370511"></trkpt>
      <trkpt lat="51.864936" lon="14.370552"></trkpt>
      <trkpt lat="51.864952" lon="14.370607"></trkpt>
      <trkpt lat="51.865001" lon="14.370655"></trkpt>
      <trkpt lat="51.865059" lon="14.370711"></trkpt>
      <trkpt lat="51.865379" lon="14.371131"></trkpt>
      <trkpt lat="51.866152" lon="14.372375"></trkpt>
      <trkpt lat="51.866423" lon="14.372828"></trkpt>
      <trkpt lat="51.86666" lon="14.373294"></trkpt>
      <trkpt lat="51.86729" lon="14.374596"></trkpt>
      <trkpt lat="51.867556" lon="14.375189"></trkpt>
      <trkpt lat="51.867822" lon="14.375908"></trkpt>
      <trkpt lat="51.868405" lon="14.377676"></trkpt>
      <trkpt lat="51.86861" lon="14.378139"></trkpt>
      <trkpt lat="51.868979" lon="14.378812"></trkpt>
      <trkpt lat="51.86932" lon="14.379527"></trkpt>
      <trkpt lat="51.869535" lon="14.379994"></trkpt>
      <trkpt lat="51.869699" lon="14.38035"></trkpt>
      <trkpt lat="51.8697" lon="14.380352"></trkpt>
      <trkpt lat="51.869725" lon="14.380405"></trkpt>
      <trkpt lat="51.869796" lon="14.380558"></trkpt>
      <trkpt lat="51.869943" lon="14.380874"></trkpt>
      <trkpt lat="51.869981" lon="14.380955"></trkpt>
      <trkpt lat="51.869903" lon="14.381063"></trkpt>
      <trkpt lat="51.869823" lon="14.381166"></trkpt>
      <trkpt lat="51.869143" lon="14.382061"></trkpt>
      <trkpt lat="51.868757" lon="14.382949"></trkpt>
      <trkpt lat="51.868721" lon="14.383033"></trkpt>
      <trkpt lat="51.868658" lon="14.383176"></trkpt>
      <trkpt lat="51.868518" lon="14.383519"></trkpt>
      <trkpt lat="51.868217" lon="14.384255"></trkpt>
      <trkpt lat="51.867693" lon="14.385438"></trkpt>
      <trkpt lat="51.867202" lon="14.38662"></trkpt>
      <trkpt lat="51.867101" lon="14.386877"></trkpt>
      <trkpt lat="51.867033" lon="14.387036"></trkpt>
      <trkpt lat="51.865553" lon="14.390515"></trkpt>
      <trkpt lat="51.864192" lon="14.393751"></trkpt>
      <trkpt lat="51.863896" lon="14.394453"></trkpt>
      <trkpt lat="51.863808" lon="14.394664"></trkpt>
      <trkpt lat="51.863414" lon="14.395579"></trkpt>
      <trkpt lat="51.863269" lon="14.395915"></trkpt>
      <trkpt lat="51.863081" lon="14.396388"></trkpt>
      <trkpt lat="51.863036" lon="14.396494"></trkpt>
      <trkpt lat="51.862891" lon="14.396844"></trkpt>
      <trkpt lat="51.862769" lon="14.397134"></trkpt>
      <trkpt lat="51.862622" lon="14.397483"></trkpt>
      <trkpt lat="51.862591" lon="14.397556"></trkpt>
      <trkpt lat="51.862262" lon="14.398339"></trkpt>
      <trkpt lat="51.862025" lon="14.398894"></trkpt>
      <trkpt lat="51.861037" lon="14.401233"></trkpt>
      <trkpt lat="51.860548" lon="14.402404"></trkpt>
      <trkpt lat="51.860527" lon="14.402455"></trkpt>
      <trkpt lat="51.860439" lon="14.402691"></trkpt>
      <trkpt lat="51.860364" lon="14.402942"></trkpt>
      <trkpt lat="51.860259" lon="14.40338"></trkpt>
      <trkpt lat="51.860029" lon="14.404362"></trkpt>
      <trkpt lat="51.860013" lon="14.404429"></trkpt>
      <trkpt lat="51.859978" lon="14.404581"></trkpt>
      <trkpt lat="51.859734" lon="14.405644"></trkpt>
      <trkpt lat="51.859513" lon="14.406564"></trkpt>
      <trkpt lat="51.859471" lon="14.406735"></trkpt>
      <trkpt lat="51.859431" lon="14.406959"></trkpt>
      <trkpt lat="51.859402" lon="14.407362"></trkpt>
      <trkpt lat="51.859374" lon="14.407856"></trkpt>
      <trkpt lat="51.859361" lon="14.408143"></trkpt>
      <trkpt lat="51.859373" lon="14.408298"></trkpt>
      <trkpt lat="51.859388" lon="14.408402"></trkpt>
      <trkpt lat="51.859438" lon="14.408635"></trkpt>
      <trkpt lat="51.859459" lon="14.408807"></trkpt>
      <trkpt lat="51.859464" lon="14.408969"></trkpt>
      <trkpt lat="51.859451" lon="14.409133"></trkpt>
      <trkpt lat="51.859416" lon="14.409351"></trkpt>
      <trkpt lat="51.859375" lon="14.409499"></trkpt>
      <trkpt lat="51.859298" lon="14.40975"></trkpt>
      <trkpt lat="51.859208" lon="14.409994"></trkpt>
      <trkpt lat="51.859017" lon="14.410345"></trkpt>
      <trkpt lat="51.858823" lon="14.410702"></trkpt>
      <trkpt lat="51.85868" lon="14.410995"></trkpt>
      <trkpt lat="51.858439" lon="14.411474"></trkpt>
      <trkpt lat="51.8584" lon="14.411607"></trkpt>
      <trkpt lat="51.858336" lon="14.411548"></trkpt>
      <trkpt lat="51.858183" lon="14.411439"></trkpt>
      <trkpt lat="51.858116" lon="14.411399"></trkpt>
      <trkpt lat="51.857976" lon="14.411333"></trkpt>
      <trkpt lat="51.857784" lon="14.411236"></trkpt>
      <trkpt lat="51.857585" lon="14.411166"></trkpt>
      <trkpt lat="51.857142" lon="14.411022"></trkpt>
      <trkpt lat="51.857087" lon="14.411008"></trkpt>
      <trkpt lat="51.856908" lon="14.410975"></trkpt>
      <trkpt lat="51.856687" lon="14.410903"></trkpt>
      <trkpt lat="51.856569" lon="14.410869"></trkpt>
      <trkpt lat="51.856536" lon="14.410859"></trkpt>
      <trkpt lat="51.856432" lon="14.410828"></trkpt>
      <trkpt lat="51.856377" lon="14.410956"></trkpt>
      <trkpt lat="51.856304" lon="14.411214"></trkpt>
      <trkpt lat="51.856221" lon="14.411562"></trkpt>
      <trkpt lat="51.856174" lon="14.411802"></trkpt>
      <trkpt lat="51.856147" lon="14.411937"></trkpt>
      <trkpt lat="51.856092" lon="14.412215"></trkpt>
      <trkpt lat="51.855992" lon="14.412789"></trkpt>
      <trkpt lat="51.855969" lon="14.412921"></trkpt>
      <trkpt lat="51.855752" lon="14.413976"></trkpt>
      <trkpt lat="51.855735" lon="14.414056"></trkpt>
      <trkpt lat="51.855672" lon="14.414356"></trkpt>
      <trkpt lat="51.85566" lon="14.414405"></trkpt>
      <trkpt lat="51.855649" lon="14.414456"></trkpt>
      <trkpt lat="51.855435" lon="14.415403"></trkpt>
      <trkpt lat="51.855021" lon="14.417197"></trkpt>
      <trkpt lat="51.854889" lon="14.417789"></trkpt>
      <trkpt lat="51.854931" lon="14.417816"></trkpt>
      <trkpt lat="51.855892" lon="14.418437"></trkpt>
      <trkpt lat="51.856319" lon="14.418713"></trkpt>
      <trkpt lat="51.856527" lon="14.418847"></trkpt>
      <trkpt lat="51.856482" lon="14.4191"></trkpt>
      <trkpt lat="51.856383" lon="14.419643"></trkpt>
      <trkpt lat="51.856225" lon="14.420527"></trkpt>
      <trkpt lat="51.856215" lon="14.420587"></trkpt>
      <trkpt lat="51.856026" lon="14.421679"></trkpt>
      <trkpt lat="51.855878" lon="14.422509"></trkpt>
      <trkpt lat="51.855837" lon="14.422737"></trkpt>
      <trkpt lat="51.855604" lon="14.424035"></trkpt>
      <trkpt lat="51.855379" lon="14.425194"></trkpt>
      <trkpt lat="51.85532" lon="14.425443"></trkpt>
      <trkpt lat="51.855268" lon="14.425595"></trkpt>
      <trkpt lat="51.854922" lon="14.426616"></trkpt>
      <trkpt lat="51.85486" lon="14.426804"></trkpt>
      <trkpt lat="51.85374" lon="14.429895"></trkpt>
      <trkpt lat="51.853373" lon="14.430812"></trkpt>
      <trkpt lat="51.85322" lon="14.43116"></trkpt>
      <trkpt lat="51.852966" lon="14.431466"></trkpt>
      <trkpt lat="51.852439" lon="14.43182"></trkpt>
      <trkpt lat="51.852324" lon="14.43187"></trkpt>
      <trkpt lat="51.852267" lon="14.431467"></trkpt>
      <trkpt lat="51.852212" lon="14.431118"></trkpt>
      <trkpt lat="51.852056" lon="14.43028"></trkpt>
      <trkpt lat="51.851976" lon="14.429907"></trkpt>
      <trkpt lat="51.851889" lon="14.429554"></trkpt>
      <trkpt lat="51.851789" lon="14.4292"></trkpt>
      <trkpt lat="51.851677" lon="14.428818"></trkpt>
      <trkpt lat="51.851638" lon="14.428687"></trkpt>
      <trkpt lat="51.85151" lon="14.428303"></trkpt>
      <trkpt lat="51.851357" lon="14.427901"></trkpt>
      <trkpt lat="51.851088" lon="14.427274"></trkpt>
      <trkpt lat="51.850774" lon="14.426633"></trkpt>
      <trkpt lat="51.850571" lon="14.426214"></trkpt>
      <trkpt lat="51.85041" lon="14.425901"></trkpt>
      <trkpt lat="51.850402" lon="14.425885"></trkpt>
      <trkpt lat="51.850344" lon="14.425772"></trkpt>
      <trkpt lat="51.850155" lon="14.425349"></trkpt>
      <trkpt lat="51.849969" lon="14.424853"></trkpt>
      <trkpt lat="51.849877" lon="14.424536"></trkpt>
      <trkpt lat="51.849801" lon="14.424211"></trkpt>
      <trkpt lat="51.849732" lon="14.423867"></trkpt>
      <trkpt lat="51.849676" lon="14.423527"></trkpt>
      <trkpt lat="51.84963" lon="14.422978"></trkpt>
      <trkpt lat="51.849622" lon="14.422811"></trkpt>
      <trkpt lat="51.849612" lon="14.422586"></trkpt>
      <trkpt lat="51.849613" lon="14.422219"></trkpt>
      <trkpt lat="51.849623" lon="14.421609"></trkpt>
      <trkpt lat="51.849668" lon="14.419711"></trkpt>
      <trkpt lat="51.849673" lon="14.419411"></trkpt>
      <trkpt lat="51.849703" lon="14.41836"></trkpt>
      <trkpt lat="51.849719" lon="14.417827"></trkpt>
      <trkpt lat="51.849738" lon="14.41733"></trkpt>
      <trkpt lat="51.849795" lon="14.416747"></trkpt>
      <trkpt lat="51.849851" lon="14.416333"></trkpt>
      <trkpt lat="51.849939" lon="14.415838"></trkpt>
      <trkpt lat="51.850032" lon="14.415411"></trkpt>
      <trkpt lat="51.850132" lon="14.415048"></trkpt>
      <trkpt lat="51.850241" lon="14.414704"></trkpt>
      <trkpt lat="51.850377" lon="14.414318"></trkpt>
      <trkpt lat="51.850492" lon="14.414019"></trkpt>
      <trkpt lat="51.850812" lon="14.413214"></trkpt>
      <trkpt lat="51.850956" lon="14.41275"></trkpt>
      <trkpt lat="51.851075" lon="14.412272"></trkpt>
      <trkpt lat="51.85112" lon="14.41193"></trkpt>
      <trkpt lat="51.851152" lon="14.411616"></trkpt>
      <trkpt lat="51.851184" lon="14.411223"></trkpt>
      <trkpt lat="51.851235" lon="14.410686"></trkpt>
      <trkpt lat="51.85132" lon="14.410191"></trkpt>
      <trkpt lat="51.851416" lon="14.40979"></trkpt>
      <trkpt lat="51.851561" lon="14.409409"></trkpt>
      <trkpt lat="51.851728" lon="14.409072"></trkpt>
      <trkpt lat="51.851935" lon="14.408733"></trkpt>
      <trkpt lat="51.852072" lon="14.408552"></trkpt>
      <trkpt lat="51.85261" lon="14.407935"></trkpt>
      <trkpt lat="51.852811" lon="14.407656"></trkpt>
      <trkpt lat="51.852831" lon="14.407628"></trkpt>
      <trkpt lat="51.852866" lon="14.407579"></trkpt>
      <trkpt lat="51.852924" lon="14.40745"></trkpt>
      <trkpt lat="51.85298" lon="14.407469"></trkpt>
      <trkpt lat="51.853037" lon="14.40746"></trkpt>
      <trkpt lat="51.85309" lon="14.407424"></trkpt>
      <trkpt lat="51.853134" lon="14.407364"></trkpt>
      <trkpt lat="51.853163" lon="14.407291"></trkpt>
      <trkpt lat="51.853178" lon="14.407208"></trkpt>
      <trkpt lat="51.853179" lon="14.407122"></trkpt>
      <trkpt lat="51.853164" lon="14.407039"></trkpt>
      <trkpt lat="51.853136" lon="14.406966"></trkpt>
      <trkpt lat="51.85309" lon="14.406902"></trkpt>
      <trkpt lat="51.853033" lon="14.406864"></trkpt>
      <trkpt lat="51.852972" lon="14.406858"></trkpt>
      <trkpt lat="51.852913" lon="14.406884"></trkpt>
      <trkpt lat="51.85286" lon="14.406778"></trkpt>
      <trkpt lat="51.852728" lon="14.406455"></trkpt>
      <trkpt lat="51.852583" lon="14.406106"></trkpt>
      <trkpt lat="51.852516" lon="14.405943"></trkpt>
      <trkpt lat="51.852433" lon="14.40574"></trkpt>
      <trkpt lat="51.851969" lon="14.404597"></trkpt>
      <trkpt lat="51.851832" lon="14.404264"></trkpt>
      <trkpt lat="51.851696" lon="14.40393"></trkpt>
      <trkpt lat="51.851677" lon="14.40389"></trkpt>
      <trkpt lat="51.851652" lon="14.40383"></trkpt>
      <trkpt lat="51.851561" lon="14.403617"></trkpt>
      <trkpt lat="51.851295" lon="14.402969"></trkpt>
      <trkpt lat="51.851242" lon="14.402841"></trkpt>
      <trkpt lat="51.851124" lon="14.402553"></trkpt>
      <trkpt lat="51.85109" lon="14.402472"></trkpt>
      <trkpt lat="51.851" lon="14.402251"></trkpt>
      <trkpt lat="51.850871" lon="14.401938"></trkpt>
      <trkpt lat="51.850616" lon="14.401309"></trkpt>
      <trkpt lat="51.849813" lon="14.399163"></trkpt>
      <trkpt lat="51.849597" lon="14.398591"></trkpt>
      <trkpt lat="51.849448" lon="14.398195"></trkpt>
      <trkpt lat="51.849389" lon="14.39804"></trkpt>
      <trkpt lat="51.849251" lon="14.397685"></trkpt>
      <trkpt lat="51.848879" lon="14.396742"></trkpt>
      <trkpt lat="51.84845" lon="14.395695"></trkpt>
      <trkpt lat="51.846298" lon="14.390433"></trkpt>
      <trkpt lat="51.845996" lon="14.389878"></trkpt>
      <trkpt lat="51.84569" lon="14.389397"></trkpt>
      <trkpt lat="51.845394" lon="14.389048"></trkpt>
      <trkpt lat="51.844979" lon="14.388668"></trkpt>
      <trkpt lat="51.844635" lon="14.388421"></trkpt>
      <trkpt lat="51.844487" lon="14.388314"></trkpt>
      <trkpt lat="51.844109" lon="14.388136"></trkpt>
      <trkpt lat="51.843902" lon="14.38807"></trkpt>
      <trkpt lat="51.843648" lon="14.388032"></trkpt>
      <trkpt lat="51.839531" lon="14.387711"></trkpt>
      <trkpt lat="51.832166" lon="14.387121"></trkpt>
      <trkpt lat="51.828099" lon="14.386796"></trkpt>
      <trkpt lat="51.827431" lon="14.38675"></trkpt>
      <trkpt lat="51.82702" lon="14.386722"></trkpt>
      <trkpt lat="51.826304" lon="14.386673"></trkpt>
      <trkpt lat="51.826103" lon="14.386657"></trkpt>
      <trkpt lat="51.825933" lon="14.386641"></trkpt>
      <trkpt lat="51.825324" lon="14.386589"></trkpt>
      <trkpt lat="51.820109" lon="14.38622"></trkpt>
      <trkpt lat="51.819507" lon="14.386178"></trkpt>
      <trkpt lat="51.819368" lon="14.386186"></trkpt>
      <trkpt lat="51.818802" lon="14.386289"></trkpt>
      <trkpt lat="51.818388" lon="14.386424"></trkpt>
      <trkpt lat="51.8178" lon="14.386698"></trkpt>
      <trkpt lat="51.817455" lon="14.386913"></trkpt>
      <trkpt lat="51.817097" lon="14.387172"></trkpt>
      <trkpt lat="51.81694" lon="14.38729"></trkpt>
      <trkpt lat="51.814689" lon="14.38912"></trkpt>
      <trkpt lat="51.813957" lon="14.389699"></trkpt>
      <trkpt lat="51.813802" lon="14.389817"></trkpt>
      <trkpt lat="51.813453" lon="14.390059"></trkpt>
      <trkpt lat="51.813147" lon="14.390224"></trkpt>
      <trkpt lat="51.812844" lon="14.390355"></trkpt>
      <trkpt lat="51.812668" lon="14.390419"></trkpt>
      <trkpt lat="51.812502" lon="14.390475"></trkpt>
      <trkpt lat="51.812432" lon="14.39049"></trkpt>
      <trkpt lat="51.812303" lon="14.390503"></trkpt>
      <trkpt lat="51.812085" lon="14.390523"></trkpt>
      <trkpt lat="51.811865" lon="14.390538"></trkpt>
      <trkpt lat="51.811581" lon="14.390525"></trkpt>
      <trkpt lat="51.811377" lon="14.390504"></trkpt>
      <trkpt lat="51.811063" lon="14.390441"></trkpt>
      <trkpt lat="51.810695" lon="14.3903"></trkpt>
      <trkpt lat="51.810397" lon="14.390168"></trkpt>
      <trkpt lat="51.810146" lon="14.390021"></trkpt>
      <trkpt lat="51.809924" lon="14.389854"></trkpt>
      <trkpt lat="51.809701" lon="14.38968"></trkpt>
      <trkpt lat="51.809491" lon="14.389473"></trkpt>
      <trkpt lat="51.809208" lon="14.389149"></trkpt>
      <trkpt lat="51.808933" lon="14.388802"></trkpt>
      <trkpt lat="51.808797" lon="14.388608"></trkpt>
      <trkpt lat="51.808652" lon="14.388396"></trkpt>
      <trkpt lat="51.808396" lon="14.387927"></trkpt>
      <trkpt lat="51.808104" lon="14.387304"></trkpt>
      <trkpt lat="51.807481" lon="14.38583"></trkpt>
      <trkpt lat="51.807295" lon="14.385486"></trkpt>
      <trkpt lat="51.807148" lon="14.385247"></trkpt>
      <trkpt lat="51.806425" lon="14.38428"></trkpt>
      <trkpt lat="51.806244" lon="14.38407"></trkpt>
      <trkpt lat="51.805959" lon="14.383803"></trkpt>
      <trkpt lat="51.805779" lon="14.383674"></trkpt>
      <trkpt lat="51.805562" lon="14.383561"></trkpt>
      <trkpt lat="51.805116" lon="14.383411"></trkpt>
      <trkpt lat="51.802233" lon="14.382527"></trkpt>
      <trkpt lat="51.802073" lon="14.382479"></trkpt>
      <trkpt lat="51.801801" lon="14.382397"></trkpt>
      <trkpt lat="51.798049" lon="14.381283"></trkpt>
      <trkpt lat="51.797533" lon="14.381063"></trkpt>
      <trkpt lat="51.79702" lon="14.380794"></trkpt>
      <trkpt lat="51.796744" lon="14.380627"></trkpt>
      <trkpt lat="51.796468" lon="14.380445"></trkpt>
      <trkpt lat="51.796194" lon="14.380254"></trkpt>
      <trkpt lat="51.796052" lon="14.38016"></trkpt>
      <trkpt lat="51.795931" lon="14.38008"></trkpt>
      <trkpt lat="51.795602" lon="14.379861"></trkpt>
      <trkpt lat="51.794804" lon="14.379331"></trkpt>
      <trkpt lat="51.794655" lon="14.379232"></trkpt>
      <trkpt lat="51.792066" lon="14.377516"></trkpt>
      <trkpt lat="51.791667" lon="14.377254"></trkpt>
      <trkpt lat="51.790696" lon="14.376602"></trkpt>
      <trkpt lat="51.788898" lon="14.375385"></trkpt>
      <trkpt lat="51.787862" lon="14.374676"></trkpt>
      <trkpt lat="51.786643" lon="14.373838"></trkpt>
      <trkpt lat="51.786331" lon="14.373621"></trkpt>
      <trkpt lat="51.785566" lon="14.373074"></trkpt>
      <trkpt lat="51.785151" lon="14.372759"></trkpt>
      <trkpt lat="51.784432" lon="14.372176"></trkpt>
      <trkpt lat="51.783857" lon="14.371678"></trkpt>
      <trkpt lat="51.783284" lon="14.371169"></trkpt>
      <trkpt lat="51.78258" lon="14.370512"></trkpt>
      <trkpt lat="51.782089" lon="14.370029"></trkpt>
      <trkpt lat="51.778075" lon="14.366167"></trkpt>
      <trkpt lat="51.777113" lon="14.365251"></trkpt>
      <trkpt lat="51.775739" lon="14.363935"></trkpt>
      <trkpt lat="51.774687" lon="14.362923"></trkpt>
      <trkpt lat="51.774496" lon="14.362741"></trkpt>
      <trkpt lat="51.774467" lon="14.362712"></trkpt>
      <trkpt lat="51.77401" lon="14.362275"></trkpt>
      <trkpt lat="51.773829" lon="14.362099"></trkpt>
      <trkpt lat="51.773193" lon="14.361486"></trkpt>
      <trkpt lat="51.772915" lon="14.36121"></trkpt>
      <trkpt lat="51.772614" lon="14.36093"></trkpt>
      <trkpt lat="51.772283" lon="14.360615"></trkpt>
      <trkpt lat="51.772116" lon="14.360456"></trkpt>
      <trkpt lat="51.77208" lon="14.360421"></trkpt>
      <trkpt lat="51.771873" lon="14.360216"></trkpt>
      <trkpt lat="51.771802" lon="14.360148"></trkpt>
      <trkpt lat="51.770205" lon="14.358623"></trkpt>
      <trkpt lat="51.769599" lon="14.358046"></trkpt>
      <trkpt lat="51.769344" lon="14.357839"></trkpt>
      <trkpt lat="51.769196" lon="14.357751"></trkpt>
      <trkpt lat="51.768874" lon="14.35761"></trkpt>
      <trkpt lat="51.768736" lon="14.357568"></trkpt>
      <trkpt lat="51.768648" lon="14.357482"></trkpt>
      <trkpt lat="51.768633" lon="14.357372"></trkpt>
      <trkpt lat="51.768594" lon="14.357269"></trkpt>
      <trkpt lat="51.768603" lon="14.357113"></trkpt>
      <trkpt lat="51.768868" lon="14.356171"></trkpt>
      <trkpt lat="51.768939" lon="14.355863"></trkpt>
      <trkpt lat="51.769226" lon="14.354861"></trkpt>
      <trkpt lat="51.770029" lon="14.352133"></trkpt>
      <trkpt lat="51.770213" lon="14.351466"></trkpt>
      <trkpt lat="51.77034" lon="14.350899"></trkpt>
      <trkpt lat="51.77047" lon="14.350265"></trkpt>
      <trkpt lat="51.77058" lon="14.349552"></trkpt>
      <trkpt lat="51.770719" lon="14.348156"></trkpt>
      <trkpt lat="51.770739" lon="14.347968"></trkpt>
      <trkpt lat="51.7708" lon="14.347318"></trkpt>
      <trkpt lat="51.77082" lon="14.347103"></trkpt>
      <trkpt lat="51.770839" lon="14.346878"></trkpt>
      <trkpt lat="51.770863" lon="14.346628"></trkpt>
      <trkpt lat="51.770918" lon="14.34609"></trkpt>
      <trkpt lat="51.771077" lon="14.344573"></trkpt>
      <trkpt lat="51.771101" lon="14.344295"></trkpt>
      <trkpt lat="51.771125" lon="14.344026"></trkpt>
      <trkpt lat="51.771272" lon="14.342489"></trkpt>
      <trkpt lat="51.77133" lon="14.341897"></trkpt>
      <trkpt lat="51.771425" lon="14.340921"></trkpt>
      <trkpt lat="51.771447" lon="14.340685"></trkpt>
      <trkpt lat="51.771469" lon="14.340444"></trkpt>
      <trkpt lat="51.77161" lon="14.339005"></trkpt>
      <trkpt lat="51.771633" lon="14.338737"></trkpt>
      <trkpt lat="51.771642" lon="14.338634"></trkpt>
      <trkpt lat="51.771659" lon="14.33841"></trkpt>
      <trkpt lat="51.771663" lon="14.33832"></trkpt>
      <trkpt lat="51.771704" lon="14.337363"></trkpt>
      <trkpt lat="51.771733" lon="14.336047"></trkpt>
      <trkpt lat="51.771752" lon="14.335321"></trkpt>
      <trkpt lat="51.77176" lon="14.335078"></trkpt>
      <trkpt lat="51.77176" lon="14.335053"></trkpt>
      <trkpt lat="51.771761" lon="14.335032"></trkpt>
      <trkpt lat="51.771766" lon="14.334829"></trkpt>
      <trkpt lat="51.771871" lon="14.330527"></trkpt>
      <trkpt lat="51.771879" lon="14.330168"></trkpt>
      <trkpt lat="51.7719" lon="14.328865"></trkpt>
      <trkpt lat="51.771894" lon="14.328058"></trkpt>
      <trkpt lat="51.771895" lon="14.327983"></trkpt>
      <trkpt lat="51.771898" lon="14.327737"></trkpt>
      <trkpt lat="51.771857" lon="14.327778"></trkpt>
      <trkpt lat="51.771817" lon="14.327817"></trkpt>
      <trkpt lat="51.771742" lon="14.327891"></trkpt>
      <trkpt lat="51.771682" lon="14.327951"></trkpt>
      <trkpt lat="51.771483" lon="14.328178"></trkpt>
      <trkpt lat="51.771476" lon="14.328186"></trkpt>
      <trkpt lat="51.771399" lon="14.328269"></trkpt>
      <trkpt lat="51.771338" lon="14.328333"></trkpt>
      <trkpt lat="51.771261" lon="14.328413"></trkpt>
      <trkpt lat="51.771058" lon="14.328616"></trkpt>
      <trkpt lat="51.770761" lon="14.328861"></trkpt>
      <trkpt lat="51.770672" lon="14.328926"></trkpt>
      <trkpt lat="51.770581" lon="14.328993"></trkpt>
      <trkpt lat="51.77034" lon="14.329192"></trkpt>
      <trkpt lat="51.770253" lon="14.329237"></trkpt>
      <trkpt lat="51.770239" lon="14.329244"></trkpt>
      <trkpt lat="51.770149" lon="14.329275"></trkpt>
      <trkpt lat="51.770045" lon="14.32929"></trkpt>
      <trkpt lat="51.770008" lon="14.329287"></trkpt>
      <trkpt lat="51.769596" lon="14.329251"></trkpt>
      <trkpt lat="51.769412" lon="14.329224"></trkpt>
      <trkpt lat="51.769165" lon="14.329182"></trkpt>
      <trkpt lat="51.76911" lon="14.329172"></trkpt>
      <trkpt lat="51.769028" lon="14.329158"></trkpt>
      <trkpt lat="51.768745" lon="14.329087"></trkpt>
      <trkpt lat="51.768646" lon="14.329057"></trkpt>
      <trkpt lat="51.768565" lon="14.329033"></trkpt>
      <trkpt lat="51.767729" lon="14.328785"></trkpt>
      <trkpt lat="51.767373" lon="14.328668"></trkpt>
      <trkpt lat="51.767321" lon="14.328651"></trkpt>
      <trkpt lat="51.767062" lon="14.328447"></trkpt>
      <trkpt lat="51.766944" lon="14.328379"></trkpt>
      <trkpt lat="51.766831" lon="14.328337"></trkpt>
      <trkpt lat="51.766744" lon="14.328327"></trkpt>
      <trkpt lat="51.766546" lon="14.328331"></trkpt>
      <trkpt lat="51.766466" lon="14.328309"></trkpt>
      <trkpt lat="51.766413" lon="14.328293"></trkpt>
      <trkpt lat="51.76639" lon="14.328286"></trkpt>
      <trkpt lat="51.766244" lon="14.32828"></trkpt>
      <trkpt lat="51.765993" lon="14.328193"></trkpt>
      <trkpt lat="51.765905" lon="14.328163"></trkpt>
      <trkpt lat="51.765726" lon="14.328093"></trkpt>
      <trkpt lat="51.765739" lon="14.327993"></trkpt>
      <trkpt lat="51.765748" lon="14.327923"></trkpt>
      <trkpt lat="51.765752" lon="14.327889"></trkpt>
      <trkpt lat="51.765762" lon="14.327817"></trkpt>
      <trkpt lat="51.765881" lon="14.326903"></trkpt>
      <trkpt lat="51.765884" lon="14.326873"></trkpt>
      <trkpt lat="51.765897" lon="14.326778"></trkpt>
      <trkpt lat="51.766032" lon="14.325743"></trkpt>
      <trkpt lat="51.765897" lon="14.326778"></trkpt>
      <trkpt lat="51.765884" lon="14.326873"></trkpt>
      <trkpt lat="51.765881" lon="14.326903"></trkpt>
      <trkpt lat="51.765762" lon="14.327817"></trkpt>
      <trkpt lat="51.765752" lon="14.327889"></trkpt>
      <trkpt lat="51.765748" lon="14.327923"></trkpt>
      <trkpt lat="51.765739" lon="14.327993"></trkpt>
      <trkpt lat="51.765726" lon="14.328093"></trkpt>
      <trkpt lat="51.765538" lon="14.328031"></trkpt>
      <trkpt lat="51.765421" lon="14.32799"></trkpt>
      <trkpt lat="51.765275" lon="14.327943"></trkpt>
      <trkpt lat="51.765087" lon="14.327882"></trkpt>
      <trkpt lat="51.764736" lon="14.327768"></trkpt>
      <trkpt lat="51.764571" lon="14.327711"></trkpt>
      <trkpt lat="51.764511" lon="14.327692"></trkpt>
      <trkpt lat="51.764459" lon="14.327678"></trkpt>
      <trkpt lat="51.763914" lon="14.327497"></trkpt>
      <trkpt lat="51.763824" lon="14.327471"></trkpt>
      <trkpt lat="51.763314" lon="14.327379"></trkpt>
      <trkpt lat="51.763207" lon="14.32737"></trkpt>
      <trkpt lat="51.762859" lon="14.327391"></trkpt>
      <trkpt lat="51.762794" lon="14.327395"></trkpt>
      <trkpt lat="51.762697" lon="14.327405"></trkpt>
      <trkpt lat="51.762581" lon="14.327415"></trkpt>
      <trkpt lat="51.762205" lon="14.327436"></trkpt>
      <trkpt lat="51.76202" lon="14.327446"></trkpt>
      <trkpt lat="51.761512" lon="14.327473"></trkpt>
      <trkpt lat="51.761468" lon="14.327476"></trkpt>
      <trkpt lat="51.76136" lon="14.327483"></trkpt>
      <trkpt lat="51.761338" lon="14.327485"></trkpt>
      <trkpt lat="51.761321" lon="14.327487"></trkpt>
      <trkpt lat="51.761304" lon="14.327487"></trkpt>
      <trkpt lat="51.761287" lon="14.327489"></trkpt>
      <trkpt lat="51.761255" lon="14.327489"></trkpt>
      <trkpt lat="51.761187" lon="14.327489"></trkpt>
      <trkpt lat="51.761131" lon="14.327492"></trkpt>
      <trkpt lat="51.761088" lon="14.327494"></trkpt>
      <trkpt lat="51.761052" lon="14.327498"></trkpt>
      <trkpt lat="51.760768" lon="14.32753"></trkpt>
      <trkpt lat="51.76056" lon="14.327552"></trkpt>
      <trkpt lat="51.760423" lon="14.327566"></trkpt>
      <trkpt lat="51.760381" lon="14.32757"></trkpt>
      <trkpt lat="51.760256" lon="14.327583"></trkpt>
      <trkpt lat="51.760056" lon="14.327605"></trkpt>
      <trkpt lat="51.759985" lon="14.327612"></trkpt>
      <trkpt lat="51.759842" lon="14.327627"></trkpt>
      <trkpt lat="51.759684" lon="14.327644"></trkpt>
      <trkpt lat="51.759612" lon="14.327652"></trkpt>
      <trkpt lat="51.759447" lon="14.327672"></trkpt>
      <trkpt lat="51.759337" lon="14.327685"></trkpt>
      <trkpt lat="51.759235" lon="14.327698"></trkpt>
      <trkpt lat="51.759116" lon="14.327712"></trkpt>
      <trkpt lat="51.758964" lon="14.327731"></trkpt>
      <trkpt lat="51.758856" lon="14.327744"></trkpt>
      <trkpt lat="51.758738" lon="14.327756"></trkpt>
      <trkpt lat="51.758392" lon="14.327794"></trkpt>
      <trkpt lat="51.758246" lon="14.327811"></trkpt>
      <trkpt lat="51.758124" lon="14.327826"></trkpt>
      <trkpt lat="51.758025" lon="14.327837"></trkpt>
      <trkpt lat="51.758005" lon="14.327839"></trkpt>
      <trkpt lat="51.757695" lon="14.327877"></trkpt>
      <trkpt lat="51.757632" lon="14.327884"></trkpt>
      <trkpt lat="51.757514" lon="14.3279"></trkpt>
      <trkpt lat="51.757442" lon="14.32791"></trkpt>
      <trkpt lat="51.757176" lon="14.327937"></trkpt>
      <trkpt lat="51.757137" lon="14.327941"></trkpt>
      <trkpt lat="51.757015" lon="14.327957"></trkpt>
      <trkpt lat="51.757016" lon="14.327981"></trkpt>
      <trkpt lat="51.757021" lon="14.32807"></trkpt>
      <trkpt lat="51.757022" lon="14.328092"></trkpt>
      <trkpt lat="51.757028" lon="14.328245"></trkpt>
      <trkpt lat="51.75707" lon="14.329032"></trkpt>
      <trkpt lat="51.757104" lon="14.329644"></trkpt>
      <trkpt lat="51.75711" lon="14.330014"></trkpt>
      <trkpt lat="51.75712" lon="14.33028"></trkpt>
      <trkpt lat="51.757126" lon="14.330413"></trkpt>
      <trkpt lat="51.757151" lon="14.330941"></trkpt>
      <trkpt lat="51.757159" lon="14.331165"></trkpt>
      <trkpt lat="51.757169" lon="14.331415"></trkpt>
      <trkpt lat="51.757186" lon="14.331827"></trkpt>
      <trkpt lat="51.757203" lon="14.332199"></trkpt>
      <trkpt lat="51.757204" lon="14.33223"></trkpt>
      <trkpt lat="51.757207" lon="14.332292"></trkpt>
      <trkpt lat="51.757214" lon="14.332448"></trkpt>
      <trkpt lat="51.757217" lon="14.332527"></trkpt>
      <trkpt lat="51.757236" lon="14.332967"></trkpt>
      <trkpt lat="51.757238" lon="14.333156"></trkpt>
      <trkpt lat="51.757237" lon="14.333194"></trkpt>
      <trkpt lat="51.757237" lon="14.333222"></trkpt>
      <trkpt lat="51.757237" lon="14.333335"></trkpt>
      <trkpt lat="51.757237" lon="14.33345"></trkpt>
      <trkpt lat="51.757236" lon="14.33361"></trkpt>
      <trkpt lat="51.75724" lon="14.333773"></trkpt>
      <trkpt lat="51.75725" lon="14.334152"></trkpt>
      <trkpt lat="51.757257" lon="14.334432"></trkpt>
      <trkpt lat="51.757262" lon="14.334625"></trkpt>
      <trkpt lat="51.757293" lon="14.335052"></trkpt>
      <trkpt lat="51.757342" lon="14.335465"></trkpt>
      <trkpt lat="51.757391" lon="14.335739"></trkpt>
      <trkpt lat="51.757443" lon="14.335995"></trkpt>
      <trkpt lat="51.757504" lon="14.336228"></trkpt>
      <trkpt lat="51.757574" lon="14.336472"></trkpt>
      <trkpt lat="51.757619" lon="14.336688"></trkpt>
      <trkpt lat="51.757673" lon="14.337005"></trkpt>
      <trkpt lat="51.757683" lon="14.337082"></trkpt>
      <trkpt lat="51.757692" lon="14.337159"></trkpt>
      <trkpt lat="51.757712" lon="14.337406"></trkpt>
      <trkpt lat="51.757732" lon="14.337671"></trkpt>
      <trkpt lat="51.757754" lon="14.337898"></trkpt>
      <trkpt lat="51.757793" lon="14.33808"></trkpt>
      <trkpt lat="51.757927" lon="14.338457"></trkpt>
      <trkpt lat="51.758046" lon="14.338788"></trkpt>
      <trkpt lat="51.75807" lon="14.338855"></trkpt>
      <trkpt lat="51.75816" lon="14.339029"></trkpt>
      <trkpt lat="51.758182" lon="14.339098"></trkpt>
      <trkpt lat="51.7582" lon="14.339152"></trkpt>
      <trkpt lat="51.758234" lon="14.339257"></trkpt>
      <trkpt lat="51.758261" lon="14.339355"></trkpt>
      <trkpt lat="51.758273" lon="14.339398"></trkpt>
      <trkpt lat="51.758357" lon="14.339708"></trkpt>
      <trkpt lat="51.758374" lon="14.339787"></trkpt>
      <trkpt lat="51.75843" lon="14.340075"></trkpt>
      <trkpt lat="51.75852" lon="14.340449"></trkpt>
      <trkpt lat="51.758533" lon="14.340502"></trkpt>
      <trkpt lat="51.758689" lon="14.341082"></trkpt>
      <trkpt lat="51.758699" lon="14.341119"></trkpt>
      <trkpt lat="51.758757" lon="14.341337"></trkpt>
      <trkpt lat="51.7588" lon="14.341507"></trkpt>
      <trkpt lat="51.758827" lon="14.341611"></trkpt>
      <trkpt lat="51.75898" lon="14.342246"></trkpt>
      <trkpt lat="51.758995" lon="14.342308"></trkpt>
      <trkpt lat="51.759019" lon="14.342402"></trkpt>
      <trkpt lat="51.759171" lon="14.342976"></trkpt>
      <trkpt lat="51.759255" lon="14.343271"></trkpt>
      <trkpt lat="51.759347" lon="14.343595"></trkpt>
      <trkpt lat="51.759534" lon="14.344271"></trkpt>
      <trkpt lat="51.759552" lon="14.344333"></trkpt>
      <trkpt lat="51.759639" lon="14.344601"></trkpt>
      <trkpt lat="51.759485" lon="14.344702"></trkpt>
      <trkpt lat="51.759445" lon="14.344727"></trkpt>
      <trkpt lat="51.759115" lon="14.344929"></trkpt>
      <trkpt lat="51.758671" lon="14.345196"></trkpt>
      <trkpt lat="51.758592" lon="14.345243"></trkpt>
      <trkpt lat="51.758174" lon="14.34549"></trkpt>
      <trkpt lat="51.75765" lon="14.345801"></trkpt>
      <trkpt lat="51.757493" lon="14.345898"></trkpt>
      <trkpt lat="51.757205" lon="14.346074"></trkpt>
      <trkpt lat="51.757141" lon="14.346113"></trkpt>
      <trkpt lat="51.757085" lon="14.346148"></trkpt>
      <trkpt lat="51.757064" lon="14.346161"></trkpt>
      <trkpt lat="51.75706" lon="14.346164"></trkpt>
      <trkpt lat="51.756947" lon="14.346234"></trkpt>
      <trkpt lat="51.756834" lon="14.346304"></trkpt>
      <trkpt lat="51.756697" lon="14.346387"></trkpt>
      <trkpt lat="51.756605" lon="14.346444"></trkpt>
      <trkpt lat="51.756274" lon="14.346648"></trkpt>
      <trkpt lat="51.75623" lon="14.346675"></trkpt>
      <trkpt lat="51.756054" lon="14.346793"></trkpt>
      <trkpt lat="51.755928" lon="14.346893"></trkpt>
      <trkpt lat="51.755896" lon="14.346919"></trkpt>
      <trkpt lat="51.755418" lon="14.3473"></trkpt>
      <trkpt lat="51.755255" lon="14.34743"></trkpt>
      <trkpt lat="51.75481" lon="14.347898"></trkpt>
      <trkpt lat="51.75433" lon="14.348462"></trkpt>
      <trkpt lat="51.75381" lon="14.349191"></trkpt>
      <trkpt lat="51.75335" lon="14.35"></trkpt>
      <trkpt lat="51.752875" lon="14.350839"></trkpt>
      <trkpt lat="51.752549" lon="14.35141"></trkpt>
      <trkpt lat="51.752472" lon="14.351565"></trkpt>
      <trkpt lat="51.752369" lon="14.351374"></trkpt>
      <trkpt lat="51.752136" lon="14.350903"></trkpt>
      <trkpt lat="51.752022" lon="14.350653"></trkpt>
      <trkpt lat="51.751787" lon="14.350106"></trkpt>
      <trkpt lat="51.75159" lon="14.349595"></trkpt>
      <trkpt lat="51.751375" lon="14.348999"></trkpt>
      <trkpt lat="51.751218" lon="14.348505"></trkpt>
      <trkpt lat="51.751066" lon="14.347988"></trkpt>
      <trkpt lat="51.750868" lon="14.34722"></trkpt>
      <trkpt lat="51.750787" lon="14.34688"></trkpt>
      <trkpt lat="51.750708" lon="14.34654"></trkpt>
      <trkpt lat="51.750519" lon="14.345654"></trkpt>
      <trkpt lat="51.750239" lon="14.344242"></trkpt>
      <trkpt lat="51.750132" lon="14.343681"></trkpt>
      <trkpt lat="51.749945" lon="14.342697"></trkpt>
      <trkpt lat="51.749894" lon="14.342432"></trkpt>
      <trkpt lat="51.749857" lon="14.342241"></trkpt>
      <trkpt lat="51.749567" lon="14.340895"></trkpt>
      <trkpt lat="51.749363" lon="14.339852"></trkpt>
      <trkpt lat="51.749222" lon="14.339088"></trkpt>
      <trkpt lat="51.749124" lon="14.338455"></trkpt>
      <trkpt lat="51.74901" lon="14.33747"></trkpt>
      <trkpt lat="51.74899" lon="14.33724"></trkpt>
      <trkpt lat="51.748947" lon="14.336716"></trkpt>
      <trkpt lat="51.748903" lon="14.335786"></trkpt>
      <trkpt lat="51.748904" lon="14.334921"></trkpt>
      <trkpt lat="51.748916" lon="14.334452"></trkpt>
      <trkpt lat="51.748965" lon="14.333788"></trkpt>
      <trkpt lat="51.749027" lon="14.333059"></trkpt>
      <trkpt lat="51.749034" lon="14.332995"></trkpt>
      <trkpt lat="51.749087" lon="14.332712"></trkpt>
      <trkpt lat="51.7491" lon="14.332582"></trkpt>
      <trkpt lat="51.749106" lon="14.332522"></trkpt>
      <trkpt lat="51.74911" lon="14.332489"></trkpt>
      <trkpt lat="51.749119" lon="14.332408"></trkpt>
      <trkpt lat="51.749121" lon="14.332373"></trkpt>
      <trkpt lat="51.749098" lon="14.332365"></trkpt>
      <trkpt lat="51.749042" lon="14.332345"></trkpt>
      <trkpt lat="51.748876" lon="14.332292"></trkpt>
      <trkpt lat="51.748828" lon="14.332276"></trkpt>
      <trkpt lat="51.748802" lon="14.332269"></trkpt>
      <trkpt lat="51.748737" lon="14.332246"></trkpt>
      <trkpt lat="51.748441" lon="14.332145"></trkpt>
      <trkpt lat="51.748217" lon="14.332064"></trkpt>
      <trkpt lat="51.747583" lon="14.331836"></trkpt>
      <trkpt lat="51.747531" lon="14.331817"></trkpt>
      <trkpt lat="51.746847" lon="14.331575"></trkpt>
      <trkpt lat="51.746635" lon="14.3315"></trkpt>
      <trkpt lat="51.746401" lon="14.331411"></trkpt>
      <trkpt lat="51.746341" lon="14.331391"></trkpt>
      <trkpt lat="51.746246" lon="14.33136"></trkpt>
      <trkpt lat="51.746201" lon="14.331345"></trkpt>
      <trkpt lat="51.745894" lon="14.331246"></trkpt>
      <trkpt lat="51.745878" lon="14.33124"></trkpt>
      <trkpt lat="51.7458" lon="14.331225"></trkpt>
      <trkpt lat="51.745608" lon="14.331198"></trkpt>
      <trkpt lat="51.745559" lon="14.331191"></trkpt>
      <trkpt lat="51.745436" lon="14.331187"></trkpt>
      <trkpt lat="51.745284" lon="14.331194"></trkpt>
      <trkpt lat="51.745196" lon="14.331222"></trkpt>
      <trkpt lat="51.745026" lon="14.331276"></trkpt>
      <trkpt lat="51.744856" lon="14.331342"></trkpt>
      <trkpt lat="51.744681" lon="14.331409"></trkpt>
      <trkpt lat="51.744652" lon="14.331423"></trkpt>
      <trkpt lat="51.744604" lon="14.33147"></trkpt>
      <trkpt lat="51.744559" lon="14.331547"></trkpt>
      <trkpt lat="51.744544" lon="14.331603"></trkpt>
      <trkpt lat="51.744535" lon="14.331641"></trkpt>
      <trkpt lat="51.744472" lon="14.331679"></trkpt>
      <trkpt lat="51.74439" lon="14.331723"></trkpt>
      <trkpt lat="51.744147" lon="14.331915"></trkpt>
      <trkpt lat="51.743847" lon="14.332091"></trkpt>
      <trkpt lat="51.74377" lon="14.332136"></trkpt>
      <trkpt lat="51.743653" lon="14.332205"></trkpt>
      <trkpt lat="51.743126" lon="14.33252"></trkpt>
      <trkpt lat="51.742793" lon="14.33272"></trkpt>
      <trkpt lat="51.742627" lon="14.332819"></trkpt>
      <trkpt lat="51.742325" lon="14.332999"></trkpt>
      <trkpt lat="51.741726" lon="14.333349"></trkpt>
      <trkpt lat="51.741405" lon="14.333533"></trkpt>
      <trkpt lat="51.741278" lon="14.333606"></trkpt>
      <trkpt lat="51.741141" lon="14.333688"></trkpt>
      <trkpt lat="51.740947" lon="14.333805"></trkpt>
      <trkpt lat="51.740766" lon="14.333916"></trkpt>
      <trkpt lat="51.740702" lon="14.333954"></trkpt>
      <trkpt lat="51.740411" lon="14.334133"></trkpt>
      <trkpt lat="51.740302" lon="14.334201"></trkpt>
      <trkpt lat="51.740269" lon="14.334221"></trkpt>
      <trkpt lat="51.739475" lon="14.334695"></trkpt>
      <trkpt lat="51.739299" lon="14.334796"></trkpt>
      <trkpt lat="51.739157" lon="14.334875"></trkpt>
      <trkpt lat="51.738977" lon="14.334973"></trkpt>
      <trkpt lat="51.738673" lon="14.335152"></trkpt>
      <trkpt lat="51.738609" lon="14.335189"></trkpt>
      <trkpt lat="51.737911" lon="14.33558"></trkpt>
      <trkpt lat="51.737815" lon="14.335636"></trkpt>
      <trkpt lat="51.737639" lon="14.335735"></trkpt>
      <trkpt lat="51.737593" lon="14.335761"></trkpt>
      <trkpt lat="51.7375" lon="14.335811"></trkpt>
      <trkpt lat="51.737148" lon="14.336016"></trkpt>
      <trkpt lat="51.736985" lon="14.33611"></trkpt>
      <trkpt lat="51.736949" lon="14.336136"></trkpt>
      <trkpt lat="51.736768" lon="14.33625"></trkpt>
      <trkpt lat="51.736731" lon="14.336272"></trkpt>
      <trkpt lat="51.736705" lon="14.336287"></trkpt>
      <trkpt lat="51.736109" lon="14.336654"></trkpt>
      <trkpt lat="51.735163" lon="14.337221"></trkpt>
      <trkpt lat="51.734763" lon="14.337435"></trkpt>
      <trkpt lat="51.7346" lon="14.337532"></trkpt>
      <trkpt lat="51.734427" lon="14.337642"></trkpt>
      <trkpt lat="51.733799" lon="14.338035"></trkpt>
      <trkpt lat="51.733761" lon="14.338058"></trkpt>
      <trkpt lat="51.733451" lon="14.338249"></trkpt>
      <trkpt lat="51.733202" lon="14.3384"></trkpt>
      <trkpt lat="51.733099" lon="14.338463"></trkpt>
      <trkpt lat="51.732544" lon="14.338781"></trkpt>
      <trkpt lat="51.732317" lon="14.338918"></trkpt>
      <trkpt lat="51.732213" lon="14.33898"></trkpt>
      <trkpt lat="51.732091" lon="14.33905"></trkpt>
      <trkpt lat="51.731996" lon="14.339105"></trkpt>
      <trkpt lat="51.731764" lon="14.339243"></trkpt>
      <trkpt lat="51.731665" lon="14.339303"></trkpt>
      <trkpt lat="51.731574" lon="14.339358"></trkpt>
      <trkpt lat="51.73144" lon="14.339442"></trkpt>
      <trkpt lat="51.731041" lon="14.339681"></trkpt>
      <trkpt lat="51.729798" lon="14.340415"></trkpt>
      <trkpt lat="51.729422" lon="14.340621"></trkpt>
      <trkpt lat="51.72928" lon="14.340699"></trkpt>
      <trkpt lat="51.729098" lon="14.340807"></trkpt>
      <trkpt lat="51.728714" lon="14.341026"></trkpt>
      <trkpt lat="51.728367" lon="14.341222"></trkpt>
      <trkpt lat="51.72817" lon="14.341341"></trkpt>
      <trkpt lat="51.727996" lon="14.341466"></trkpt>
      <trkpt lat="51.727819" lon="14.341579"></trkpt>
      <trkpt lat="51.727703" lon="14.341648"></trkpt>
      <trkpt lat="51.727057" lon="14.342039"></trkpt>
      <trkpt lat="51.726391" lon="14.342434"></trkpt>
      <trkpt lat="51.7258" lon="14.342751"></trkpt>
      <trkpt lat="51.725754" lon="14.342778"></trkpt>
      <trkpt lat="51.725663" lon="14.342831"></trkpt>
      <trkpt lat="51.725566" lon="14.342886"></trkpt>
      <trkpt lat="51.725335" lon="14.343019"></trkpt>
      <trkpt lat="51.725242" lon="14.343073"></trkpt>
      <trkpt lat="51.725205" lon="14.342865"></trkpt>
      <trkpt lat="51.725289" lon="14.342104"></trkpt>
      <trkpt lat="51.725342" lon="14.34149"></trkpt>
      <trkpt lat="51.725459" lon="14.34055"></trkpt>
      <trkpt lat="51.725498" lon="14.340236"></trkpt>
      <trkpt lat="51.725512" lon="14.340127"></trkpt>
      <trkpt lat="51.725685" lon="14.339145"></trkpt>
      <trkpt lat="51.725719" lon="14.338942"></trkpt>
      <trkpt lat="51.726052" lon="14.337464"></trkpt>
      <trkpt lat="51.725955" lon="14.337373"></trkpt>
      <trkpt lat="51.725628" lon="14.338791"></trkpt>
      <trkpt lat="51.725559" lon="14.339088"></trkpt>
      <trkpt lat="51.725483" lon="14.33907"></trkpt>
      <trkpt lat="51.725375" lon="14.339035"></trkpt>
      <trkpt lat="51.725215" lon="14.338983"></trkpt>
      <trkpt lat="51.724665" lon="14.338804"></trkpt>
      <trkpt lat="51.724582" lon="14.338777"></trkpt>
      <trkpt lat="51.72416" lon="14.33864"></trkpt>
      <trkpt lat="51.724144" lon="14.338633"></trkpt>
      <trkpt lat="51.724047" lon="14.338604"></trkpt>
      <trkpt lat="51.723759" lon="14.33851"></trkpt>
      <trkpt lat="51.723731" lon="14.338501"></trkpt>
      <trkpt lat="51.723654" lon="14.339127"></trkpt>
      <trkpt lat="51.723628" lon="14.339347"></trkpt>
      <trkpt lat="51.723549" lon="14.339326"></trkpt>
      <trkpt lat="51.723207" lon="14.33922"></trkpt>
      <trkpt lat="51.722822" lon="14.339095"></trkpt>
      <trkpt lat="51.721992" lon="14.338822"></trkpt>
      <trkpt lat="51.721045" lon="14.338658"></trkpt>
      <trkpt lat="51.721056" lon="14.338428"></trkpt>
      <trkpt lat="51.721087" lon="14.337635"></trkpt>
      <trkpt lat="51.721087" lon="14.337522"></trkpt>
      <trkpt lat="51.721091" lon="14.335941"></trkpt>
      <trkpt lat="51.721092" lon="14.335564"></trkpt>
      <trkpt lat="51.721093" lon="14.335313"></trkpt>
      <trkpt lat="51.721126" lon="14.334632"></trkpt>
      <trkpt lat="51.721128" lon="14.334519"></trkpt>
      <trkpt lat="51.721133" lon="14.334373"></trkpt>
      <trkpt lat="51.721154" lon="14.333866"></trkpt>
      <trkpt lat="51.721151" lon="14.333189"></trkpt>
      <trkpt lat="51.721209" lon="14.331629"></trkpt>
      <trkpt lat="51.721282" lon="14.330116"></trkpt>
      <trkpt lat="51.721298" lon="14.329779"></trkpt>
      <trkpt lat="51.721322" lon="14.329247"></trkpt>
      <trkpt lat="51.721493" lon="14.326855"></trkpt>
      <trkpt lat="51.721511" lon="14.326602"></trkpt>
      <trkpt lat="51.721548" lon="14.326058"></trkpt>
      <trkpt lat="51.721553" lon="14.32598"></trkpt>
      <trkpt lat="51.721557" lon="14.32592"></trkpt>
      <trkpt lat="51.721565" lon="14.325796"></trkpt>
      <trkpt lat="51.721703" lon="14.325817"></trkpt>
      <trkpt lat="51.722268" lon="14.325916"></trkpt>
      <trkpt lat="51.722279" lon="14.325917"></trkpt>
      <trkpt lat="51.722268" lon="14.325916"></trkpt>
      <trkpt lat="51.721703" lon="14.325817"></trkpt>
      <trkpt lat="51.721565" lon="14.325796"></trkpt>
      <trkpt lat="51.721557" lon="14.32592"></trkpt>
      <trkpt lat="51.721553" lon="14.32598"></trkpt>
      <trkpt lat="51.721548" lon="14.326058"></trkpt>
      <trkpt lat="51.721512" lon="14.326582"></trkpt>
    </trkseg>
  </trk>
</gpx>