<?xml version="1.0" encoding="UTF-8"?>
<gpx version="1.1" creator="Lehrfahrer Linieneditor" xmlns="http://www.topografix.com/GPX/1/1">
  <metadata>
    <name>4N - 01 - Neu Schmellwitz Zuschka – Lausitz Park</name>
    <desc>Export aus dem Lehrfahrer Linieneditor | Farbe: #d32f2f</desc>
  </metadata>
  <wpt lat="51.785374" lon="14.343936">
    <name>Neu Schmellwitz Zuschka</name>
    <cmt>SollMinute:0;Stop:1</cmt>
    <desc>Stopp 1 | SollMinute: 0</desc>
  </wpt>
  <wpt lat="51.78652" lon="14.342826">
    <name>Am Fließ</name>
    <cmt>SollMinute:0;Stop:2</cmt>
    <desc>Stopp 2 | SollMinute: 0</desc>
  </wpt>
  <wpt lat="51.785892" lon="14.338845">
    <name>Am Lug</name>
    <cmt>SollMinute:0;Stop:3</cmt>
    <desc>Stopp 3 | SollMinute: 0</desc>
  </wpt>
  <wpt lat="51.782547" lon="14.336505">
    <name>Schmellwitz Anger (Ausstieg)</name>
    <cmt>SollMinute:0;Stop:4</cmt>
    <desc>Stopp 4 | SollMinute: 0</desc>
  </wpt>
  <wpt lat="51.778385" lon="14.33529">
    <name>Am Nordrand</name>
    <cmt>SollMinute:0;Stop:5</cmt>
    <desc>Stopp 5 | SollMinute: 0</desc>
  </wpt>
  <wpt lat="51.773865" lon="14.335103">
    <name>Nordfriedhof</name>
    <cmt>SollMinute:0;Stop:6</cmt>
    <desc>Stopp 6 | SollMinute: 0</desc>
  </wpt>
  <wpt lat="51.77102" lon="14.334957">
    <name>Beuchstraße</name>
    <cmt>SollMinute:0;Stop:7</cmt>
    <desc>Stopp 7 | SollMinute: 0</desc>
  </wpt>
  <wpt lat="51.767525" lon="14.334433">
    <name>Bonnaskenplatz</name>
    <cmt>SollMinute:0;Stop:8</cmt>
    <desc>Stopp 8 | SollMinute: 0</desc>
  </wpt>
  <wpt lat="51.765446" lon="14.332924">
    <name>Zimmerstraße</name>
    <cmt>SollMinute:0;Stop:9</cmt>
    <desc>Stopp 9 | SollMinute: 0</desc>
  </wpt>
  <wpt lat="51.761566" lon="14.330943">
    <name>Stadthalle Puschkinpromenade</name>
    <cmt>SollMinute:0;Stop:10</cmt>
    <desc>Stopp 10 | SollMinute: 0</desc>
  </wpt>
  <wpt lat="51.757874" lon="14.332332">
    <name>Stadtpromenade</name>
    <cmt>SollMinute:0;Stop:11</cmt>
    <desc>Stopp 11 | SollMinute: 0</desc>
  </wpt>
  <wpt lat="51.75358" lon="14.333271">
    <name>Marienstraße/Glad House</name>
    <cmt>SollMinute:0;Stop:12</cmt>
    <desc>Stopp 12 | SollMinute: 0</desc>
  </wpt>
  <wpt lat="51.74943" lon="14.33261">
    <name>Görlitzer Straße</name>
    <cmt>SollMinute:0;Stop:13</cmt>
    <desc>Stopp 13 | SollMinute: 0</desc>
  </wpt>
  <wpt lat="51.75019602899775" lon="14.326402544975283">
    <name>Freie Haltestelle 23</name>
    <cmt>SollMinute:0;Stop:14</cmt>
    <desc>Stopp 14 | SollMinute: 0</desc>
  </wpt>
  <wpt lat="51.75010220883299" lon="14.327734261751177">
    <name>Freie Haltestelle 24</name>
    <cmt>SollMinute:0;Stop:15</cmt>
    <desc>Stopp 15 | SollMinute: 0</desc>
  </wpt>
  <wpt lat="51.7499" lon="14.326651">
    <name>Hauptbahnhof</name>
    <cmt>SollMinute:0;Stop:16</cmt>
    <desc>Stopp 16 | SollMinute: 0</desc>
  </wpt>
  <wpt lat="51.74392" lon="14.326532">
    <name>Thiemstraße/Klinikum</name>
    <cmt>SollMinute:0;Stop:17</cmt>
    <desc>Stopp 17 | SollMinute: 0</desc>
  </wpt>
  <wpt lat="51.74104" lon="14.324416">
    <name>Hufelandstraße</name>
    <cmt>SollMinute:0;Stop:18</cmt>
    <desc>Stopp 18 | SollMinute: 0</desc>
  </wpt>
  <wpt lat="51.736355" lon="14.324465">
    <name>Saarbrücker Straße</name>
    <cmt>SollMinute:0;Stop:19</cmt>
    <desc>Stopp 19 | SollMinute: 0</desc>
  </wpt>
  <wpt lat="51.732285" lon="14.325105">
    <name>Neuhausener Straße</name>
    <cmt>SollMinute:0;Stop:20</cmt>
    <desc>Stopp 20 | SollMinute: 0</desc>
  </wpt>
  <wpt lat="51.729134" lon="14.323309">
    <name>Lauchhammerstraße</name>
    <cmt>SollMinute:0;Stop:21</cmt>
    <desc>Stopp 21 | SollMinute: 0</desc>
  </wpt>
  <wpt lat="51.727432" lon="14.325328">
    <name>Gelsenkirchener Allee</name>
    <cmt>SollMinute:0;Stop:22</cmt>
    <desc>Stopp 22 | SollMinute: 0</desc>
  </wpt>
  <wpt lat="51.722282" lon="14.325813">
    <name>Zielona-Gora-Straße</name>
    <cmt>SollMinute:0;Stop:23</cmt>
    <desc>Stopp 23 | SollMinute: 0</desc>
  </wpt>
  <wpt lat="51.71699" lon="14.320604">
    <name>Lausitz Park</name>
    <cmt>SollMinute:0;Stop:24</cmt>
    <desc>Stopp 24 | SollMinute: 0</desc>
  </wpt>
  <trk>
    <name>4N - 01 - Neu Schmellwitz Zuschka – Lausitz Park</name>
    <desc>Route für Maps.me Offline-Nutzung</desc>
    <trkseg>
      <trkpt lat="51.785365" lon="14.343859"></trkpt>
      <trkpt lat="51.785958" lon="14.343678"></trkpt>
      <trkpt lat="51.786477" lon="14.34352"></trkpt>
      <trkpt lat="51.78655" lon="14.343498"></trkpt>
      <trkpt lat="51.786589" lon="14.343483"></trkpt>
      <trkpt lat="51.786515" lon="14.342999"></trkpt>
      <trkpt lat="51.786487" lon="14.342822"></trkpt>
      <trkpt lat="51.786431" lon="14.342459"></trkpt>
      <trkpt lat="51.786277" lon="14.341469"></trkpt>
      <trkpt lat="51.786253" lon="14.341312"></trkpt>
      <trkpt lat="51.786074" lon="14.340177"></trkpt>
      <trkpt lat="51.785985" lon="14.339614"></trkpt>
      <trkpt lat="51.785914" lon="14.339161"></trkpt>
      <trkpt lat="51.785878" lon="14.338931"></trkpt>
      <trkpt lat="51.785866" lon="14.338856"></trkpt>
      <trkpt lat="51.785841" lon="14.338704"></trkpt>
      <trkpt lat="51.785786" lon="14.338363"></trkpt>
      <trkpt lat="51.785694" lon="14.337788"></trkpt>
      <trkpt lat="51.78567" lon="14.337593"></trkpt>
      <trkpt lat="51.785567" lon="14.337609"></trkpt>
      <trkpt lat="51.785168" lon="14.337671"></trkpt>
      <trkpt lat="51.784349" lon="14.337799"></trkpt>
      <trkpt lat="51.784067" lon="14.337849"></trkpt>
      <trkpt lat="51.783862" lon="14.337866"></trkpt>
      <trkpt lat="51.783698" lon="14.337867"></trkpt>
      <trkpt lat="51.783533" lon="14.337863"></trkpt>
      <trkpt lat="51.783404" lon="14.337843"></trkpt>
      <trkpt lat="51.782513" lon="14.337521"></trkpt>
      <trkpt lat="51.782233" lon="14.337419"></trkpt>
      <trkpt lat="51.781657" lon="14.3372"></trkpt>
      <trkpt lat="51.781557" lon="14.337207"></trkpt>
      <trkpt lat="51.78154" lon="14.337077"></trkpt>
      <trkpt lat="51.781358" lon="14.335647"></trkpt>
      <trkpt lat="51.781355" lon="14.335625"></trkpt>
      <trkpt lat="51.781348" lon="14.335535"></trkpt>
      <trkpt lat="51.781347" lon="14.335523"></trkpt>
      <trkpt lat="51.781507" lon="14.335542"></trkpt>
      <trkpt lat="51.78161" lon="14.335554"></trkpt>
      <trkpt lat="51.781739" lon="14.335575"></trkpt>
      <trkpt lat="51.781875" lon="14.335605"></trkpt>
      <trkpt lat="51.782015" lon="14.335637"></trkpt>
      <trkpt lat="51.782028" lon="14.335639"></trkpt>
      <trkpt lat="51.782026" lon="14.335652"></trkpt>
      <trkpt lat="51.782015" lon="14.335743"></trkpt>
      <trkpt lat="51.782009" lon="14.335788"></trkpt>
      <trkpt lat="51.782018" lon="14.33587"></trkpt>
      <trkpt lat="51.782157" lon="14.336228"></trkpt>
      <trkpt lat="51.782192" lon="14.336593"></trkpt>
      <trkpt lat="51.782529" lon="14.336475"></trkpt>
      <trkpt lat="51.782497" lon="14.336168"></trkpt>
      <trkpt lat="51.782477" lon="14.336054"></trkpt>
      <trkpt lat="51.782448" lon="14.335954"></trkpt>
      <trkpt lat="51.782401" lon="14.335865"></trkpt>
      <trkpt lat="51.782391" lon="14.335846"></trkpt>
      <trkpt lat="51.782337" lon="14.335767"></trkpt>
      <trkpt lat="51.78226" lon="14.335703"></trkpt>
      <trkpt lat="51.782134" lon="14.335659"></trkpt>
      <trkpt lat="51.782028" lon="14.335639"></trkpt>
      <trkpt lat="51.782015" lon="14.335637"></trkpt>
      <trkpt lat="51.781875" lon="14.335605"></trkpt>
      <trkpt lat="51.781739" lon="14.335575"></trkpt>
      <trkpt lat="51.78161" lon="14.335554"></trkpt>
      <trkpt lat="51.781507" lon="14.335542"></trkpt>
      <trkpt lat="51.781347" lon="14.335523"></trkpt>
      <trkpt lat="51.781278" lon="14.33552"></trkpt>
      <trkpt lat="51.781256" lon="14.335519"></trkpt>
      <trkpt lat="51.781145" lon="14.33551"></trkpt>
      <trkpt lat="51.779263" lon="14.335421"></trkpt>
      <trkpt lat="51.779232" lon="14.33542"></trkpt>
      <trkpt lat="51.779161" lon="14.335417"></trkpt>
      <trkpt lat="51.778384" lon="14.335385"></trkpt>
      <trkpt lat="51.778378" lon="14.335385"></trkpt>
      <trkpt lat="51.778205" lon="14.335377"></trkpt>
      <trkpt lat="51.778177" lon="14.335376"></trkpt>
      <trkpt lat="51.778045" lon="14.335375"></trkpt>
      <trkpt lat="51.77799" lon="14.335369"></trkpt>
      <trkpt lat="51.77786" lon="14.335367"></trkpt>
      <trkpt lat="51.777212" lon="14.335332"></trkpt>
      <trkpt lat="51.777142" lon="14.335328"></trkpt>
      <trkpt lat="51.777126" lon="14.335335"></trkpt>
      <trkpt lat="51.776186" lon="14.33528"></trkpt>
      <trkpt lat="51.776056" lon="14.335276"></trkpt>
      <trkpt lat="51.775712" lon="14.335257"></trkpt>
      <trkpt lat="51.775672" lon="14.335255"></trkpt>
      <trkpt lat="51.775218" lon="14.335232"></trkpt>
      <trkpt lat="51.775135" lon="14.335229"></trkpt>
      <trkpt lat="51.774434" lon="14.335203"></trkpt>
      <trkpt lat="51.774374" lon="14.3352"></trkpt>
      <trkpt lat="51.774287" lon="14.335195"></trkpt>
      <trkpt lat="51.774244" lon="14.335193"></trkpt>
      <trkpt lat="51.77419" lon="14.33519"></trkpt>
      <trkpt lat="51.773975" lon="14.335178"></trkpt>
      <trkpt lat="51.773928" lon="14.335175"></trkpt>
      <trkpt lat="51.773864" lon="14.335172"></trkpt>
      <trkpt lat="51.773741" lon="14.335165"></trkpt>
      <trkpt lat="51.773658" lon="14.33516"></trkpt>
      <trkpt lat="51.773322" lon="14.335141"></trkpt>
      <trkpt lat="51.77328" lon="14.335139"></trkpt>
      <trkpt lat="51.773241" lon="14.335137"></trkpt>
      <trkpt lat="51.772896" lon="14.335117"></trkpt>
      <trkpt lat="51.772345" lon="14.335086"></trkpt>
      <trkpt lat="51.7723" lon="14.335083"></trkpt>
      <trkpt lat="51.772103" lon="14.335072"></trkpt>
      <trkpt lat="51.771886" lon="14.335061"></trkpt>
      <trkpt lat="51.77176" lon="14.335053"></trkpt>
      <trkpt lat="51.771657" lon="14.335047"></trkpt>
      <trkpt lat="51.771518" lon="14.335038"></trkpt>
      <trkpt lat="51.771376" lon="14.335036"></trkpt>
      <trkpt lat="51.771269" lon="14.335029"></trkpt>
      <trkpt lat="51.771021" lon="14.335013"></trkpt>
      <trkpt lat="51.771019" lon="14.335013"></trkpt>
      <trkpt lat="51.7705" lon="14.334981"></trkpt>
      <trkpt lat="51.77024" lon="14.334963"></trkpt>
      <trkpt lat="51.768824" lon="14.33488"></trkpt>
      <trkpt lat="51.768531" lon="14.334862"></trkpt>
      <trkpt lat="51.768249" lon="14.334845"></trkpt>
      <trkpt lat="51.768173" lon="14.334841"></trkpt>
      <trkpt lat="51.768092" lon="14.334837"></trkpt>
      <trkpt lat="51.767981" lon="14.334815"></trkpt>
      <trkpt lat="51.767939" lon="14.334789"></trkpt>
      <trkpt lat="51.767819" lon="14.33471"></trkpt>
      <trkpt lat="51.767798" lon="14.334697"></trkpt>
      <trkpt lat="51.76763" lon="14.334589"></trkpt>
      <trkpt lat="51.767506" lon="14.334502"></trkpt>
      <trkpt lat="51.76745" lon="14.334463"></trkpt>
      <trkpt lat="51.767215" lon="14.334297"></trkpt>
      <trkpt lat="51.766724" lon="14.333953"></trkpt>
      <trkpt lat="51.766183" lon="14.333569"></trkpt>
      <trkpt lat="51.765691" lon="14.333174"></trkpt>
      <trkpt lat="51.765548" lon="14.333057"></trkpt>
      <trkpt lat="51.765434" lon="14.332963"></trkpt>
      <trkpt lat="51.765419" lon="14.332951"></trkpt>
      <trkpt lat="51.765412" lon="14.332945"></trkpt>
      <trkpt lat="51.765409" lon="14.332942"></trkpt>
      <trkpt lat="51.76537" lon="14.33291"></trkpt>
      <trkpt lat="51.765211" lon="14.33277"></trkpt>
      <trkpt lat="51.765211" lon="14.332736"></trkpt>
      <trkpt lat="51.765222" lon="14.33249"></trkpt>
      <trkpt lat="51.765224" lon="14.332461"></trkpt>
      <trkpt lat="51.76523" lon="14.332385"></trkpt>
      <trkpt lat="51.765252" lon="14.332109"></trkpt>
      <trkpt lat="51.76526" lon="14.332032"></trkpt>
      <trkpt lat="51.765281" lon="14.331803"></trkpt>
      <trkpt lat="51.765286" lon="14.331752"></trkpt>
      <trkpt lat="51.765308" lon="14.331547"></trkpt>
      <trkpt lat="51.765324" lon="14.331387"></trkpt>
      <trkpt lat="51.765331" lon="14.331312"></trkpt>
      <trkpt lat="51.765351" lon="14.331159"></trkpt>
      <trkpt lat="51.765378" lon="14.330943"></trkpt>
      <trkpt lat="51.765392" lon="14.330825"></trkpt>
      <trkpt lat="51.765425" lon="14.330552"></trkpt>
      <trkpt lat="51.765427" lon="14.330541"></trkpt>
      <trkpt lat="51.765447" lon="14.330391"></trkpt>
      <trkpt lat="51.765498" lon="14.329969"></trkpt>
      <trkpt lat="51.765505" lon="14.329913"></trkpt>
      <trkpt lat="51.76551" lon="14.329874"></trkpt>
      <trkpt lat="51.76552" lon="14.32979"></trkpt>
      <trkpt lat="51.765532" lon="14.329697"></trkpt>
      <trkpt lat="51.765573" lon="14.329362"></trkpt>
      <trkpt lat="51.765592" lon="14.329208"></trkpt>
      <trkpt lat="51.765616" lon="14.329005"></trkpt>
      <trkpt lat="51.765619" lon="14.328986"></trkpt>
      <trkpt lat="51.765635" lon="14.328852"></trkpt>
      <trkpt lat="51.765637" lon="14.328834"></trkpt>
      <trkpt lat="51.765655" lon="14.328686"></trkpt>
      <trkpt lat="51.765681" lon="14.328464"></trkpt>
      <trkpt lat="51.765695" lon="14.328342"></trkpt>
      <trkpt lat="51.765697" lon="14.328324"></trkpt>
      <trkpt lat="51.765712" lon="14.328201"></trkpt>
      <trkpt lat="51.765726" lon="14.328093"></trkpt>
      <trkpt lat="51.765538" lon="14.328031"></trkpt>
      <trkpt lat="51.765421" lon="14.32799"></trkpt>
      <trkpt lat="51.765275" lon="14.327943"></trkpt>
      <trkpt lat="51.765087" lon="14.327882"></trkpt>
      <trkpt lat="51.764736" lon="14.327768"></trkpt>
      <trkpt lat="51.764571" lon="14.327711"></trkpt>
      <trkpt lat="51.764511" lon="14.327692"></trkpt>
      <trkpt lat="51.764459" lon="14.327678"></trkpt>
      <trkpt lat="51.763914" lon="14.327497"></trkpt>
      <trkpt lat="51.763824" lon="14.327471"></trkpt>
      <trkpt lat="51.763314" lon="14.327379"></trkpt>
      <trkpt lat="51.763207" lon="14.32737"></trkpt>
      <trkpt lat="51.762859" lon="14.327391"></trkpt>
      <trkpt lat="51.762794" lon="14.327395"></trkpt>
      <trkpt lat="51.762697" lon="14.327405"></trkpt>
      <trkpt lat="51.762581" lon="14.327415"></trkpt>
      <trkpt lat="51.762205" lon="14.327436"></trkpt>
      <trkpt lat="51.76202" lon="14.327446"></trkpt>
      <trkpt lat="51.761512" lon="14.327473"></trkpt>
      <trkpt lat="51.761468" lon="14.327476"></trkpt>
      <trkpt lat="51.76136" lon="14.327483"></trkpt>
      <trkpt lat="51.761338" lon="14.327485"></trkpt>
      <trkpt lat="51.761321" lon="14.327487"></trkpt>
      <trkpt lat="51.76132" lon="14.327614"></trkpt>
      <trkpt lat="51.761319" lon="14.327796"></trkpt>
      <trkpt lat="51.761318" lon="14.327887"></trkpt>
      <trkpt lat="51.761316" lon="14.328026"></trkpt>
      <trkpt lat="51.761311" lon="14.328164"></trkpt>
      <trkpt lat="51.761287" lon="14.328768"></trkpt>
      <trkpt lat="51.761278" lon="14.328967"></trkpt>
      <trkpt lat="51.76126" lon="14.329167"></trkpt>
      <trkpt lat="51.761204" lon="14.329733"></trkpt>
      <trkpt lat="51.761135" lon="14.330412"></trkpt>
      <trkpt lat="51.761121" lon="14.330543"></trkpt>
      <trkpt lat="51.761111" lon="14.330637"></trkpt>
      <trkpt lat="51.761099" lon="14.330746"></trkpt>
      <trkpt lat="51.761062" lon="14.330917"></trkpt>
      <trkpt lat="51.761056" lon="14.330945"></trkpt>
      <trkpt lat="51.761104" lon="14.330947"></trkpt>
      <trkpt lat="51.761112" lon="14.330948"></trkpt>
      <trkpt lat="51.761139" lon="14.330951"></trkpt>
      <trkpt lat="51.761293" lon="14.330968"></trkpt>
      <trkpt lat="51.76148" lon="14.33099"></trkpt>
      <trkpt lat="51.761564" lon="14.330999"></trkpt>
      <trkpt lat="51.76148" lon="14.33099"></trkpt>
      <trkpt lat="51.761293" lon="14.330968"></trkpt>
      <trkpt lat="51.761139" lon="14.330951"></trkpt>
      <trkpt lat="51.761112" lon="14.330948"></trkpt>
      <trkpt lat="51.761104" lon="14.330947"></trkpt>
      <trkpt lat="51.761056" lon="14.330945"></trkpt>
      <trkpt lat="51.761021" lon="14.330939"></trkpt>
      <trkpt lat="51.760971" lon="14.330931"></trkpt>
      <trkpt lat="51.760846" lon="14.330919"></trkpt>
      <trkpt lat="51.760695" lon="14.330905"></trkpt>
      <trkpt lat="51.760343" lon="14.330876"></trkpt>
      <trkpt lat="51.760217" lon="14.330886"></trkpt>
      <trkpt lat="51.760064" lon="14.330912"></trkpt>
      <trkpt lat="51.75991" lon="14.330957"></trkpt>
      <trkpt lat="51.759781" lon="14.331002"></trkpt>
      <trkpt lat="51.759627" lon="14.331084"></trkpt>
      <trkpt lat="51.759008" lon="14.331523"></trkpt>
      <trkpt lat="51.758498" lon="14.331892"></trkpt>
      <trkpt lat="51.75822" lon="14.332107"></trkpt>
      <trkpt lat="51.75788" lon="14.332355"></trkpt>
      <trkpt lat="51.757816" lon="14.332402"></trkpt>
      <trkpt lat="51.75773" lon="14.332463"></trkpt>
      <trkpt lat="51.757662" lon="14.332531"></trkpt>
      <trkpt lat="51.757606" lon="14.332599"></trkpt>
      <trkpt lat="51.757417" lon="14.332936"></trkpt>
      <trkpt lat="51.757356" lon="14.333035"></trkpt>
      <trkpt lat="51.757288" lon="14.333142"></trkpt>
      <trkpt lat="51.757237" lon="14.333194"></trkpt>
      <trkpt lat="51.757237" lon="14.333222"></trkpt>
      <trkpt lat="51.757237" lon="14.333335"></trkpt>
      <trkpt lat="51.757174" lon="14.333315"></trkpt>
      <trkpt lat="51.757141" lon="14.333304"></trkpt>
      <trkpt lat="51.756772" lon="14.333287"></trkpt>
      <trkpt lat="51.756674" lon="14.33326"></trkpt>
      <trkpt lat="51.756555" lon="14.333205"></trkpt>
      <trkpt lat="51.756347" lon="14.333087"></trkpt>
      <trkpt lat="51.756154" lon="14.333008"></trkpt>
      <trkpt lat="51.756114" lon="14.332992"></trkpt>
      <trkpt lat="51.756087" lon="14.332981"></trkpt>
      <trkpt lat="51.756013" lon="14.33299"></trkpt>
      <trkpt lat="51.755816" lon="14.332993"></trkpt>
      <trkpt lat="51.755679" lon="14.332989"></trkpt>
      <trkpt lat="51.75556" lon="14.332984"></trkpt>
      <trkpt lat="51.755335" lon="14.333001"></trkpt>
      <trkpt lat="51.755294" lon="14.333014"></trkpt>
      <trkpt lat="51.754568" lon="14.333247"></trkpt>
      <trkpt lat="51.754501" lon="14.333268"></trkpt>
      <trkpt lat="51.75441" lon="14.333289"></trkpt>
      <trkpt lat="51.754367" lon="14.333298"></trkpt>
      <trkpt lat="51.754046" lon="14.333347"></trkpt>
      <trkpt lat="51.7539" lon="14.333349"></trkpt>
      <trkpt lat="51.753728" lon="14.333351"></trkpt>
      <trkpt lat="51.75358" lon="14.333352"></trkpt>
      <trkpt lat="51.753488" lon="14.333353"></trkpt>
      <trkpt lat="51.753325" lon="14.333351"></trkpt>
      <trkpt lat="51.75314" lon="14.333353"></trkpt>
      <trkpt lat="51.752807" lon="14.333316"></trkpt>
      <trkpt lat="51.751603" lon="14.333172"></trkpt>
      <trkpt lat="51.751587" lon="14.33317"></trkpt>
      <trkpt lat="51.751513" lon="14.333161"></trkpt>
      <trkpt lat="51.75106" lon="14.333105"></trkpt>
      <trkpt lat="51.750623" lon="14.33302"></trkpt>
      <trkpt lat="51.750556" lon="14.332982"></trkpt>
      <trkpt lat="51.750433" lon="14.332962"></trkpt>
      <trkpt lat="51.750284" lon="14.332921"></trkpt>
      <trkpt lat="51.750249" lon="14.332909"></trkpt>
      <trkpt lat="51.749777" lon="14.332759"></trkpt>
      <trkpt lat="51.749717" lon="14.332737"></trkpt>
      <trkpt lat="51.749683" lon="14.332725"></trkpt>
      <trkpt lat="51.749426" lon="14.332637"></trkpt>
      <trkpt lat="51.749406" lon="14.33263"></trkpt>
      <trkpt lat="51.749273" lon="14.332584"></trkpt>
      <trkpt lat="51.749189" lon="14.332506"></trkpt>
      <trkpt lat="51.74915" lon="14.332458"></trkpt>
      <trkpt lat="51.749119" lon="14.332408"></trkpt>
      <trkpt lat="51.749121" lon="14.332373"></trkpt>
      <trkpt lat="51.749158" lon="14.331994"></trkpt>
      <trkpt lat="51.749261" lon="14.330959"></trkpt>
      <trkpt lat="51.749303" lon="14.330375"></trkpt>
      <trkpt lat="51.749403" lon="14.329321"></trkpt>
      <trkpt lat="51.749419" lon="14.329179"></trkpt>
      <trkpt lat="51.749434" lon="14.328873"></trkpt>
      <trkpt lat="51.749446" lon="14.32866"></trkpt>
      <trkpt lat="51.749452" lon="14.328569"></trkpt>
      <trkpt lat="51.749456" lon="14.328513"></trkpt>
      <trkpt lat="51.74946" lon="14.328452"></trkpt>
      <trkpt lat="51.749466" lon="14.328372"></trkpt>
      <trkpt lat="51.749469" lon="14.328325"></trkpt>
      <trkpt lat="51.749482" lon="14.328112"></trkpt>
      <trkpt lat="51.749487" lon="14.328041"></trkpt>
      <trkpt lat="51.749494" lon="14.327969"></trkpt>
      <trkpt lat="51.749543" lon="14.32741"></trkpt>
      <trkpt lat="51.749571" lon="14.327014"></trkpt>
      <trkpt lat="51.749594" lon="14.326754"></trkpt>
      <trkpt lat="51.749607" lon="14.326596"></trkpt>
      <trkpt lat="51.749612" lon="14.326538"></trkpt>
      <trkpt lat="51.74963" lon="14.326336"></trkpt>
      <trkpt lat="51.7497" lon="14.32634"></trkpt>
      <trkpt lat="51.749786" lon="14.326333"></trkpt>
      <trkpt lat="51.749902" lon="14.326325"></trkpt>
      <trkpt lat="51.749969" lon="14.326321"></trkpt>
      <trkpt lat="51.750005" lon="14.326316"></trkpt>
      <trkpt lat="51.750036" lon="14.326313"></trkpt>
      <trkpt lat="51.750071" lon="14.326309"></trkpt>
      <trkpt lat="51.750087" lon="14.326308"></trkpt>
      <trkpt lat="51.750194" lon="14.3263"></trkpt>
      <trkpt lat="51.750199" lon="14.326433"></trkpt>
      <trkpt lat="51.750201" lon="14.326487"></trkpt>
      <trkpt lat="51.750211" lon="14.326754"></trkpt>
      <trkpt lat="51.750218" lon="14.326949"></trkpt>
      <trkpt lat="51.750224" lon="14.327101"></trkpt>
      <trkpt lat="51.750231" lon="14.327296"></trkpt>
      <trkpt lat="51.750237" lon="14.327464"></trkpt>
      <trkpt lat="51.750239" lon="14.327518"></trkpt>
      <trkpt lat="51.750242" lon="14.327626"></trkpt>
      <trkpt lat="51.75021" lon="14.327703"></trkpt>
      <trkpt lat="51.750143" lon="14.327727"></trkpt>
      <trkpt lat="51.750092" lon="14.327731"></trkpt>
      <trkpt lat="51.750065" lon="14.327734"></trkpt>
      <trkpt lat="51.75003" lon="14.327736"></trkpt>
      <trkpt lat="51.749982" lon="14.327733"></trkpt>
      <trkpt lat="51.74994" lon="14.327695"></trkpt>
      <trkpt lat="51.74993" lon="14.32733"></trkpt>
      <trkpt lat="51.74992" lon="14.327004"></trkpt>
      <trkpt lat="51.74991" lon="14.32665"></trkpt>
      <trkpt lat="51.749907" lon="14.326537"></trkpt>
      <trkpt lat="51.749904" lon="14.326456"></trkpt>
      <trkpt lat="51.749902" lon="14.326325"></trkpt>
      <trkpt lat="51.749786" lon="14.326333"></trkpt>
      <trkpt lat="51.7497" lon="14.32634"></trkpt>
      <trkpt lat="51.74963" lon="14.326336"></trkpt>
      <trkpt lat="51.749546" lon="14.326316"></trkpt>
      <trkpt lat="51.749514" lon="14.326307"></trkpt>
      <trkpt lat="51.74944" lon="14.326289"></trkpt>
      <trkpt lat="51.749413" lon="14.326491"></trkpt>
      <trkpt lat="51.749406" lon="14.326542"></trkpt>
      <trkpt lat="51.749402" lon="14.32657"></trkpt>
      <trkpt lat="51.749381" lon="14.326736"></trkpt>
      <trkpt lat="51.749329" lon="14.327144"></trkpt>
      <trkpt lat="51.749285" lon="14.327578"></trkpt>
      <trkpt lat="51.749261" lon="14.32782"></trkpt>
      <trkpt lat="51.749244" lon="14.327989"></trkpt>
      <trkpt lat="51.749233" lon="14.328121"></trkpt>
      <trkpt lat="51.749221" lon="14.328266"></trkpt>
      <trkpt lat="51.749217" lon="14.32833"></trkpt>
      <trkpt lat="51.749177" lon="14.328324"></trkpt>
      <trkpt lat="51.749118" lon="14.328316"></trkpt>
      <trkpt lat="51.748893" lon="14.328295"></trkpt>
      <trkpt lat="51.74875" lon="14.328288"></trkpt>
      <trkpt lat="51.748462" lon="14.328268"></trkpt>
      <trkpt lat="51.748081" lon="14.32826"></trkpt>
      <trkpt lat="51.74803" lon="14.328264"></trkpt>
      <trkpt lat="51.747971" lon="14.328268"></trkpt>
      <trkpt lat="51.747902" lon="14.328283"></trkpt>
      <trkpt lat="51.747798" lon="14.328304"></trkpt>
      <trkpt lat="51.747635" lon="14.328287"></trkpt>
      <trkpt lat="51.747545" lon="14.328273"></trkpt>
      <trkpt lat="51.74737" lon="14.328246"></trkpt>
      <trkpt lat="51.746739" lon="14.328132"></trkpt>
      <trkpt lat="51.746522" lon="14.328076"></trkpt>
      <trkpt lat="51.746373" lon="14.328026"></trkpt>
      <trkpt lat="51.746188" lon="14.327955"></trkpt>
      <trkpt lat="51.746" lon="14.327867"></trkpt>
      <trkpt lat="51.745481" lon="14.327566"></trkpt>
      <trkpt lat="51.745455" lon="14.327551"></trkpt>
      <trkpt lat="51.745183" lon="14.327391"></trkpt>
      <trkpt lat="51.744636" lon="14.32706"></trkpt>
      <trkpt lat="51.744608" lon="14.327043"></trkpt>
      <trkpt lat="51.744494" lon="14.326973"></trkpt>
      <trkpt lat="51.7444" lon="14.326892"></trkpt>
      <trkpt lat="51.744203" lon="14.326808"></trkpt>
      <trkpt lat="51.74391" lon="14.326562"></trkpt>
      <trkpt lat="51.743819" lon="14.326485"></trkpt>
      <trkpt lat="51.743794" lon="14.326463"></trkpt>
      <trkpt lat="51.743619" lon="14.326317"></trkpt>
      <trkpt lat="51.743563" lon="14.326231"></trkpt>
      <trkpt lat="51.743385" lon="14.326082"></trkpt>
      <trkpt lat="51.74313" lon="14.325865"></trkpt>
      <trkpt lat="51.742368" lon="14.325219"></trkpt>
      <trkpt lat="51.742226" lon="14.325097"></trkpt>
      <trkpt lat="51.742154" lon="14.325036"></trkpt>
      <trkpt lat="51.742092" lon="14.324998"></trkpt>
      <trkpt lat="51.741956" lon="14.324913"></trkpt>
      <trkpt lat="51.74149" lon="14.324697"></trkpt>
      <trkpt lat="51.741233" lon="14.324576"></trkpt>
      <trkpt lat="51.741047" lon="14.32449"></trkpt>
      <trkpt lat="51.741028" lon="14.324481"></trkpt>
      <trkpt lat="51.740657" lon="14.324304"></trkpt>
      <trkpt lat="51.740623" lon="14.324288"></trkpt>
      <trkpt lat="51.740485" lon="14.32422"></trkpt>
      <trkpt lat="51.740325" lon="14.324149"></trkpt>
      <trkpt lat="51.739992" lon="14.323985"></trkpt>
      <trkpt lat="51.739924" lon="14.323957"></trkpt>
      <trkpt lat="51.739532" lon="14.323791"></trkpt>
      <trkpt lat="51.739399" lon="14.323735"></trkpt>
      <trkpt lat="51.739033" lon="14.323601"></trkpt>
      <trkpt lat="51.738742" lon="14.323511"></trkpt>
      <trkpt lat="51.738464" lon="14.32347"></trkpt>
      <trkpt lat="51.73819" lon="14.323463"></trkpt>
      <trkpt lat="51.738116" lon="14.323469"></trkpt>
      <trkpt lat="51.737913" lon="14.323508"></trkpt>
      <trkpt lat="51.737723" lon="14.323564"></trkpt>
      <trkpt lat="51.737537" lon="14.32363"></trkpt>
      <trkpt lat="51.737207" lon="14.323786"></trkpt>
      <trkpt lat="51.737157" lon="14.323809"></trkpt>
      <trkpt lat="51.736851" lon="14.324008"></trkpt>
      <trkpt lat="51.736899" lon="14.324129"></trkpt>
      <trkpt lat="51.736754" lon="14.324216"></trkpt>
      <trkpt lat="51.73636" lon="14.324463"></trkpt>
      <trkpt lat="51.736355" lon="14.324466"></trkpt>
      <trkpt lat="51.736202" lon="14.324564"></trkpt>
      <trkpt lat="51.736157" lon="14.324593"></trkpt>
      <trkpt lat="51.735918" lon="14.324607"></trkpt>
      <trkpt lat="51.735154" lon="14.325096"></trkpt>
      <trkpt lat="51.735086" lon="14.32514"></trkpt>
      <trkpt lat="51.734898" lon="14.325267"></trkpt>
      <trkpt lat="51.734615" lon="14.325413"></trkpt>
      <trkpt lat="51.734263" lon="14.32553"></trkpt>
      <trkpt lat="51.734169" lon="14.325544"></trkpt>
      <trkpt lat="51.733765" lon="14.325557"></trkpt>
      <trkpt lat="51.733564" lon="14.325554"></trkpt>
      <trkpt lat="51.733363" lon="14.325515"></trkpt>
      <trkpt lat="51.732914" lon="14.325385"></trkpt>
      <trkpt lat="51.732737" lon="14.325335"></trkpt>
      <trkpt lat="51.73257" lon="14.325287"></trkpt>
      <trkpt lat="51.732275" lon="14.325216"></trkpt>
      <trkpt lat="51.732272" lon="14.325215"></trkpt>
      <trkpt lat="51.731778" lon="14.325076"></trkpt>
      <trkpt lat="51.731353" lon="14.324959"></trkpt>
      <trkpt lat="51.730997" lon="14.324862"></trkpt>
      <trkpt lat="51.730739" lon="14.32479"></trkpt>
      <trkpt lat="51.730438" lon="14.324671"></trkpt>
      <trkpt lat="51.730178" lon="14.32452"></trkpt>
      <trkpt lat="51.730146" lon="14.324501"></trkpt>
      <trkpt lat="51.729973" lon="14.324365"></trkpt>
      <trkpt lat="51.729831" lon="14.324239"></trkpt>
      <trkpt lat="51.729574" lon="14.324"></trkpt>
      <trkpt lat="51.729121" lon="14.323451"></trkpt>
      <trkpt lat="51.729088" lon="14.323413"></trkpt>
      <trkpt lat="51.728813" lon="14.323099"></trkpt>
      <trkpt lat="51.728587" lon="14.322828"></trkpt>
      <trkpt lat="51.728156" lon="14.32242"></trkpt>
      <trkpt lat="51.728109" lon="14.322376"></trkpt>
      <trkpt lat="51.727972" lon="14.322256"></trkpt>
      <trkpt lat="51.727881" lon="14.322187"></trkpt>
      <trkpt lat="51.727845" lon="14.322386"></trkpt>
      <trkpt lat="51.727794" lon="14.322675"></trkpt>
      <trkpt lat="51.727685" lon="14.32331"></trkpt>
      <trkpt lat="51.727617" lon="14.323816"></trkpt>
      <trkpt lat="51.727565" lon="14.324332"></trkpt>
      <trkpt lat="51.727533" lon="14.324683"></trkpt>
      <trkpt lat="51.727484" lon="14.325298"></trkpt>
      <trkpt lat="51.727482" lon="14.325336"></trkpt>
      <trkpt lat="51.727434" lon="14.326128"></trkpt>
      <trkpt lat="51.727421" lon="14.326325"></trkpt>
      <trkpt lat="51.727281" lon="14.326304"></trkpt>
      <trkpt lat="51.727064" lon="14.326265"></trkpt>
      <trkpt lat="51.725462" lon="14.325974"></trkpt>
      <trkpt lat="51.724935" lon="14.325882"></trkpt>
      <trkpt lat="51.724591" lon="14.325835"></trkpt>
      <trkpt lat="51.724503" lon="14.32583"></trkpt>
      <trkpt lat="51.724417" lon="14.325834"></trkpt>
      <trkpt lat="51.723723" lon="14.325871"></trkpt>
      <trkpt lat="51.722535" lon="14.325924"></trkpt>
      <trkpt lat="51.722367" lon="14.325923"></trkpt>
      <trkpt lat="51.722279" lon="14.325917"></trkpt>
      <trkpt lat="51.722268" lon="14.325916"></trkpt>
      <trkpt lat="51.721703" lon="14.325817"></trkpt>
      <trkpt lat="51.721565" lon="14.325796"></trkpt>
      <trkpt lat="51.721461" lon="14.325779"></trkpt>
      <trkpt lat="51.72123" lon="14.325751"></trkpt>
      <trkpt lat="51.721038" lon="14.325757"></trkpt>
      <trkpt lat="51.720685" lon="14.325821"></trkpt>
      <trkpt lat="51.720642" lon="14.325824"></trkpt>
      <trkpt lat="51.720211" lon="14.325859"></trkpt>
      <trkpt lat="51.720124" lon="14.325862"></trkpt>
      <trkpt lat="51.719997" lon="14.325841"></trkpt>
      <trkpt lat="51.719509" lon="14.325744"></trkpt>
      <trkpt lat="51.718884" lon="14.325626"></trkpt>
      <trkpt lat="51.718381" lon="14.325531"></trkpt>
      <trkpt lat="51.717011" lon="14.325304"></trkpt>
      <trkpt lat="51.716989" lon="14.3253"></trkpt>
      <trkpt lat="51.716926" lon="14.325287"></trkpt>
      <trkpt lat="51.716943" lon="14.325024"></trkpt>
      <trkpt lat="51.716944" lon="14.32473"></trkpt>
      <trkpt lat="51.71693" lon="14.324198"></trkpt>
      <trkpt lat="51.716909" lon="14.323813"></trkpt>
      <trkpt lat="51.716847" lon="14.323309"></trkpt>
      <trkpt lat="51.7168" lon="14.323046"></trkpt>
      <trkpt lat="51.716736" lon="14.322739"></trkpt>
      <trkpt lat="51.71666" lon="14.322434"></trkpt>
      <trkpt lat="51.716567" lon="14.322079"></trkpt>
      <trkpt lat="51.716546" lon="14.322015"></trkpt>
      <trkpt lat="51.716521" lon="14.321929"></trkpt>
      <trkpt lat="51.716345" lon="14.321453"></trkpt>
      <trkpt lat="51.716404" lon="14.321402"></trkpt>
      <trkpt lat="51.716431" lon="14.321376"></trkpt>
      <trkpt lat="51.716575" lon="14.321238"></trkpt>
      <trkpt lat="51.716651" lon="14.321201"></trkpt>
      <trkpt lat="51.71664" lon="14.321176"></trkpt>
      <trkpt lat="51.71659" lon="14.321016"></trkpt>
      <trkpt lat="51.716451" lon="14.320647"></trkpt>
      <trkpt lat="51.716511" lon="14.320573"></trkpt>
      <trkpt lat="51.716544" lon="14.320541"></trkpt>
      <trkpt lat="51.716635" lon="14.320453"></trkpt>
      <trkpt lat="51.716769" lon="14.320317"></trkpt>
      <trkpt lat="51.716892" lon="14.320164"></trkpt>
      <trkpt lat="51.717002" lon="14.320438"></trkpt>
      <trkpt lat="51.717042" lon="14.320559"></trkpt>
    </trkseg>
  </trk>
</gpx>