<?xml version="1.0" encoding="UTF-8"?>
<gpx version="1.1" creator="Lehrfahrer Linieneditor" xmlns="http://www.topografix.com/GPX/1/1">
  <metadata>
    <name>19 - 01 - Neu Schmwllwitz, Zuschka - Schlichow</name>
    <desc>Export aus dem Lehrfahrer Linieneditor | Farbe: #d32f2f</desc>
  </metadata>
  <wpt lat="51.785143" lon="14.343923">
    <name>Freie Haltestelle 1</name>
    <cmt>SollMinute:0;Stop:1</cmt>
    <desc>Stopp 1 | SollMinute: 0</desc>
  </wpt>
  <wpt lat="51.786525" lon="14.342989">
    <name>Am Fließ</name>
    <cmt>SollMinute:1.5;Stop:2</cmt>
    <desc>Stopp 2 | SollMinute: 1.5</desc>
  </wpt>
  <wpt lat="51.785883" lon="14.338911">
    <name>Am Lug</name>
    <cmt>SollMinute:2.5;Stop:3</cmt>
    <desc>Stopp 3 | SollMinute: 2.5</desc>
  </wpt>
  <wpt lat="51.78759" lon="14.334378">
    <name>Schmellwitzer Straße</name>
    <cmt>SollMinute:4.5;Stop:4</cmt>
    <desc>Stopp 4 | SollMinute: 4.5</desc>
  </wpt>
  <wpt lat="51.78691" lon="14.330077">
    <name>Freie Haltestelle 5</name>
    <cmt>SollMinute:6;Stop:5</cmt>
    <desc>Stopp 5 | SollMinute: 6</desc>
  </wpt>
  <wpt lat="51.786414" lon="14.32718">
    <name>Nordparkstraße</name>
    <cmt>SollMinute:7.5;Stop:6</cmt>
    <desc>Stopp 6 | SollMinute: 7.5</desc>
  </wpt>
  <wpt lat="51.784879" lon="14.318528">
    <name>Guhrower Straße/Cottbus Center</name>
    <cmt>SollMinute:10;Stop:7</cmt>
    <desc>Stopp 7 | SollMinute: 10</desc>
  </wpt>
  <wpt lat="51.783643" lon="14.318458">
    <name>Freie Haltestelle 8</name>
    <cmt>SollMinute:11;Stop:8</cmt>
    <desc>Stopp 8 | SollMinute: 11</desc>
  </wpt>
  <wpt lat="51.782484" lon="14.319783">
    <name>Freie Haltestelle 9</name>
    <cmt>SollMinute:12;Stop:9</cmt>
    <desc>Stopp 9 | SollMinute: 12</desc>
  </wpt>
  <wpt lat="51.783607" lon="14.326013">
    <name>Byhlener Straße</name>
    <cmt>SollMinute:13.5;Stop:10</cmt>
    <desc>Stopp 10 | SollMinute: 13.5</desc>
  </wpt>
  <wpt lat="51.782168" lon="14.328571">
    <name>Albrecht-Dürer-Straße</name>
    <cmt>SollMinute:15;Stop:11</cmt>
    <desc>Stopp 11 | SollMinute: 15</desc>
  </wpt>
  <wpt lat="51.777126" lon="14.329062">
    <name>Eigene Scholle</name>
    <cmt>SollMinute:17.5;Stop:12</cmt>
    <desc>Stopp 12 | SollMinute: 17.5</desc>
  </wpt>
  <wpt lat="51.77653" lon="14.325105">
    <name>Straupitzer Straße</name>
    <cmt>SollMinute:19;Stop:13</cmt>
    <desc>Stopp 13 | SollMinute: 19</desc>
  </wpt>
  <wpt lat="51.775577" lon="14.319663">
    <name>Meisenweg</name>
    <cmt>SollMinute:20.5;Stop:14</cmt>
    <desc>Stopp 14 | SollMinute: 20.5</desc>
  </wpt>
  <wpt lat="51.773429" lon="14.313389">
    <name>Amselweg</name>
    <cmt>SollMinute:23;Stop:15</cmt>
    <desc>Stopp 15 | SollMinute: 23</desc>
  </wpt>
  <wpt lat="51.772809" lon="14.310808">
    <name>Freie Haltestelle 16</name>
    <cmt>SollMinute:24;Stop:16</cmt>
    <desc>Stopp 16 | SollMinute: 24</desc>
  </wpt>
  <wpt lat="51.771681" lon="14.313689">
    <name>Freie Haltestelle 17</name>
    <cmt>SollMinute:25;Stop:17</cmt>
    <desc>Stopp 17 | SollMinute: 25</desc>
  </wpt>
  <wpt lat="51.773324" lon="14.317127">
    <name>Freie Haltestelle 18</name>
    <cmt>SollMinute:26.5;Stop:18</cmt>
    <desc>Stopp 18 | SollMinute: 26.5</desc>
  </wpt>
  <wpt lat="51.77409" lon="14.325149">
    <name>Goyatzer Straße</name>
    <cmt>SollMinute:29;Stop:19</cmt>
    <desc>Stopp 19 | SollMinute: 29</desc>
  </wpt>
  <wpt lat="51.771396" lon="14.328193">
    <name>Freizeitbad Lagune</name>
    <cmt>SollMinute:30.5;Stop:20</cmt>
    <desc>Stopp 20 | SollMinute: 30.5</desc>
  </wpt>
  <wpt lat="51.766468" lon="14.328291">
    <name>Cottbus, BTU/Bibliothek</name>
    <cmt>SollMinute:33;Stop:21</cmt>
    <desc>Stopp 21 | SollMinute: 33</desc>
  </wpt>
  <wpt lat="51.76323" lon="14.327353">
    <name>Cottbus, Stadtverwaltung</name>
    <cmt>SollMinute:34.5;Stop:22</cmt>
    <desc>Stopp 22 | SollMinute: 34.5</desc>
  </wpt>
  <wpt lat="51.758319" lon="14.327821">
    <name>August-Bebel-Straße</name>
    <cmt>SollMinute:37;Stop:23</cmt>
    <desc>Stopp 23 | SollMinute: 37</desc>
  </wpt>
  <wpt lat="51.757172" lon="14.332138">
    <name>Cottbus, Stadtpromenade</name>
    <cmt>SollMinute:38.5;Stop:24</cmt>
    <desc>Stopp 24 | SollMinute: 38.5</desc>
  </wpt>
  <wpt lat="51.757639" lon="14.336939">
    <name>Cottbus, Freiheitsstraße</name>
    <cmt>SollMinute:40;Stop:25</cmt>
    <desc>Stopp 25 | SollMinute: 40</desc>
  </wpt>
  <wpt lat="51.759192" lon="14.342987">
    <name>Cottbus, Carl-Blechen-Park</name>
    <cmt>SollMinute:41.5;Stop:26</cmt>
    <desc>Stopp 26 | SollMinute: 41.5</desc>
  </wpt>
  <wpt lat="51.760223" lon="14.346458">
    <name>Cottbus, Warmbad</name>
    <cmt>SollMinute:43;Stop:27</cmt>
    <desc>Stopp 27 | SollMinute: 43</desc>
  </wpt>
  <wpt lat="51.762353" lon="14.352351">
    <name>Cottbus, Hans-Beimler-Straße</name>
    <cmt>SollMinute:44.5;Stop:28</cmt>
    <desc>Stopp 28 | SollMinute: 44.5</desc>
  </wpt>
  <wpt lat="51.762271" lon="14.357247">
    <name>Cottbus, Dissenchener Straße</name>
    <cmt>SollMinute:47;Stop:29</cmt>
    <desc>Stopp 29 | SollMinute: 47</desc>
  </wpt>
  <wpt lat="51.76233" lon="14.360456">
    <name>An der Pastoa</name>
    <cmt>SollMinute:48;Stop:30</cmt>
    <desc>Stopp 30 | SollMinute: 48</desc>
  </wpt>
  <wpt lat="51.762346" lon="14.367935">
    <name>Heizkraftwerk</name>
    <cmt>SollMinute:50;Stop:31</cmt>
    <desc>Stopp 31 | SollMinute: 50</desc>
  </wpt>
  <wpt lat="51.763617" lon="14.373987">
    <name>Heidesiedlung</name>
    <cmt>SollMinute:51.5;Stop:32</cmt>
    <desc>Stopp 32 | SollMinute: 51.5</desc>
  </wpt>
  <wpt lat="51.763794" lon="14.381823">
    <name>Dissenchen Birkenstraße</name>
    <cmt>SollMinute:54;Stop:33</cmt>
    <desc>Stopp 33 | SollMinute: 54</desc>
  </wpt>
  <wpt lat="51.763666" lon="14.391144">
    <name>Dissenchen Turnstraße</name>
    <cmt>SollMinute:56.5;Stop:34</cmt>
    <desc>Stopp 34 | SollMinute: 56.5</desc>
  </wpt>
  <wpt lat="51.763599" lon="14.39807">
    <name>Dissenchen Haasower Straße</name>
    <cmt>SollMinute:58;Stop:35</cmt>
    <desc>Stopp 35 | SollMinute: 58</desc>
  </wpt>
  <wpt lat="51.762905" lon="14.411326">
    <name>Cottbus, Schlichower Höhe</name>
    <cmt>SollMinute:61.5;Stop:36</cmt>
    <desc>Stopp 36 | SollMinute: 61.5</desc>
  </wpt>
  <wpt lat="51.762111" lon="14.415535">
    <name>Cottbus, Schlichower Dorfstraße</name>
    <cmt>SollMinute:63;Stop:37</cmt>
    <desc>Stopp 37 | SollMinute: 63</desc>
  </wpt>
  <wpt lat="51.763043" lon="14.418086">
    <name>Freie Haltestelle 38</name>
    <cmt>SollMinute:64.5;Stop:38</cmt>
    <desc>Stopp 38 | SollMinute: 64.5</desc>
  </wpt>
  <wpt lat="51.763557" lon="14.419867">
    <name>Freie Haltestelle 39</name>
    <cmt>SollMinute:65.5;Stop:39</cmt>
    <desc>Stopp 39 | SollMinute: 65.5</desc>
  </wpt>
  <wpt lat="51.763488" lon="14.418856">
    <name>Cottbus, Ostseedorf Schlichow</name>
    <cmt>SollMinute:66.5;Stop:40</cmt>
    <desc>Stopp 40 | SollMinute: 66.5</desc>
  </wpt>
  <trk>
    <name>19 - 01 - Neu Schmwllwitz, Zuschka - Schlichow</name>
    <desc>Route für Maps.me Offline-Nutzung</desc>
    <trkseg>
      <trkpt lat="51.785143" lon="14.343926"></trkpt>
      <trkpt lat="51.785321" lon="14.343872"></trkpt>
      <trkpt lat="51.785958" lon="14.343678"></trkpt>
      <trkpt lat="51.786477" lon="14.34352"></trkpt>
      <trkpt lat="51.78655" lon="14.343498"></trkpt>
      <trkpt lat="51.78659" lon="14.343483"></trkpt>
      <trkpt lat="51.786515" lon="14.342999"></trkpt>
      <trkpt lat="51.786514" lon="14.342993"></trkpt>
      <trkpt lat="51.786487" lon="14.342822"></trkpt>
      <trkpt lat="51.786431" lon="14.342459"></trkpt>
      <trkpt lat="51.786277" lon="14.341469"></trkpt>
      <trkpt lat="51.786253" lon="14.341312"></trkpt>
      <trkpt lat="51.786074" lon="14.340177"></trkpt>
      <trkpt lat="51.785985" lon="14.339614"></trkpt>
      <trkpt lat="51.785914" lon="14.339161"></trkpt>
      <trkpt lat="51.785878" lon="14.338931"></trkpt>
      <trkpt lat="51.785875" lon="14.338914"></trkpt>
      <trkpt lat="51.785841" lon="14.338704"></trkpt>
      <trkpt lat="51.785786" lon="14.338364"></trkpt>
      <trkpt lat="51.785694" lon="14.337788"></trkpt>
      <trkpt lat="51.78567" lon="14.337593"></trkpt>
      <trkpt lat="51.78577" lon="14.337578"></trkpt>
      <trkpt lat="51.787838" lon="14.337216"></trkpt>
      <trkpt lat="51.787963" lon="14.337194"></trkpt>
      <trkpt lat="51.78793" lon="14.336966"></trkpt>
      <trkpt lat="51.787679" lon="14.335202"></trkpt>
      <trkpt lat="51.787615" lon="14.334754"></trkpt>
      <trkpt lat="51.787585" lon="14.334551"></trkpt>
      <trkpt lat="51.787561" lon="14.33439"></trkpt>
      <trkpt lat="51.787561" lon="14.33439"></trkpt>
      <trkpt lat="51.787402" lon="14.333306"></trkpt>
      <trkpt lat="51.787378" lon="14.333145"></trkpt>
      <trkpt lat="51.787348" lon="14.332948"></trkpt>
      <trkpt lat="51.787081" lon="14.331221"></trkpt>
      <trkpt lat="51.786991" lon="14.330642"></trkpt>
      <trkpt lat="51.786959" lon="14.330442"></trkpt>
      <trkpt lat="51.786923" lon="14.330208"></trkpt>
      <trkpt lat="51.786903" lon="14.33008"></trkpt>
      <trkpt lat="51.786903" lon="14.33008"></trkpt>
      <trkpt lat="51.78687" lon="14.329867"></trkpt>
      <trkpt lat="51.786745" lon="14.329065"></trkpt>
      <trkpt lat="51.78672" lon="14.328925"></trkpt>
      <trkpt lat="51.786406" lon="14.327184"></trkpt>
      <trkpt lat="51.786402" lon="14.327159"></trkpt>
      <trkpt lat="51.786318" lon="14.326696"></trkpt>
      <trkpt lat="51.786289" lon="14.326542"></trkpt>
      <trkpt lat="51.786164" lon="14.325806"></trkpt>
      <trkpt lat="51.786124" lon="14.325572"></trkpt>
      <trkpt lat="51.786087" lon="14.325358"></trkpt>
      <trkpt lat="51.786076" lon="14.325294"></trkpt>
      <trkpt lat="51.785906" lon="14.324293"></trkpt>
      <trkpt lat="51.785781" lon="14.323568"></trkpt>
      <trkpt lat="51.785592" lon="14.322472"></trkpt>
      <trkpt lat="51.785119" lon="14.319729"></trkpt>
      <trkpt lat="51.784862" lon="14.318539"></trkpt>
      <trkpt lat="51.784862" lon="14.318538"></trkpt>
      <trkpt lat="51.784737" lon="14.317944"></trkpt>
      <trkpt lat="51.784555" lon="14.318026"></trkpt>
      <trkpt lat="51.784041" lon="14.31826"></trkpt>
      <trkpt lat="51.783641" lon="14.318447"></trkpt>
      <trkpt lat="51.783156" lon="14.318674"></trkpt>
      <trkpt lat="51.782325" lon="14.319049"></trkpt>
      <trkpt lat="51.782276" lon="14.319071"></trkpt>
      <trkpt lat="51.78249" lon="14.319779"></trkpt>
      <trkpt lat="51.78257" lon="14.320045"></trkpt>
      <trkpt lat="51.782626" lon="14.320315"></trkpt>
      <trkpt lat="51.782815" lon="14.321369"></trkpt>
      <trkpt lat="51.783098" lon="14.322941"></trkpt>
      <trkpt lat="51.783143" lon="14.3232"></trkpt>
      <trkpt lat="51.783174" lon="14.32338"></trkpt>
      <trkpt lat="51.78327" lon="14.323955"></trkpt>
      <trkpt lat="51.783312" lon="14.324219"></trkpt>
      <trkpt lat="51.783364" lon="14.324541"></trkpt>
      <trkpt lat="51.783447" lon="14.325028"></trkpt>
      <trkpt lat="51.783563" lon="14.325703"></trkpt>
      <trkpt lat="51.783616" lon="14.326003"></trkpt>
      <trkpt lat="51.783617" lon="14.326008"></trkpt>
      <trkpt lat="51.783638" lon="14.32613"></trkpt>
      <trkpt lat="51.783908" lon="14.327713"></trkpt>
      <trkpt lat="51.783811" lon="14.327765"></trkpt>
      <trkpt lat="51.78379" lon="14.327776"></trkpt>
      <trkpt lat="51.783026" lon="14.328147"></trkpt>
      <trkpt lat="51.782233" lon="14.328533"></trkpt>
      <trkpt lat="51.78218" lon="14.328559"></trkpt>
      <trkpt lat="51.782167" lon="14.328565"></trkpt>
      <trkpt lat="51.781845" lon="14.328722"></trkpt>
      <trkpt lat="51.781173" lon="14.329048"></trkpt>
      <trkpt lat="51.780527" lon="14.329358"></trkpt>
      <trkpt lat="51.780039" lon="14.329586"></trkpt>
      <trkpt lat="51.779765" lon="14.329702"></trkpt>
      <trkpt lat="51.779438" lon="14.329867"></trkpt>
      <trkpt lat="51.778425" lon="14.330378"></trkpt>
      <trkpt lat="51.777677" lon="14.330748"></trkpt>
      <trkpt lat="51.77741" lon="14.330881"></trkpt>
      <trkpt lat="51.777374" lon="14.330898"></trkpt>
      <trkpt lat="51.777228" lon="14.329916"></trkpt>
      <trkpt lat="51.777178" lon="14.329554"></trkpt>
      <trkpt lat="51.777171" lon="14.329503"></trkpt>
      <trkpt lat="51.777106" lon="14.329072"></trkpt>
      <trkpt lat="51.777106" lon="14.329072"></trkpt>
      <trkpt lat="51.777028" lon="14.328544"></trkpt>
      <trkpt lat="51.776867" lon="14.327438"></trkpt>
      <trkpt lat="51.776659" lon="14.326005"></trkpt>
      <trkpt lat="51.776649" lon="14.325935"></trkpt>
      <trkpt lat="51.77662" lon="14.325752"></trkpt>
      <trkpt lat="51.776558" lon="14.325316"></trkpt>
      <trkpt lat="51.776525" lon="14.325107"></trkpt>
      <trkpt lat="51.776505" lon="14.324978"></trkpt>
      <trkpt lat="51.776278" lon="14.323531"></trkpt>
      <trkpt lat="51.776221" lon="14.323283"></trkpt>
      <trkpt lat="51.776194" lon="14.323119"></trkpt>
      <trkpt lat="51.775995" lon="14.321863"></trkpt>
      <trkpt lat="51.775901" lon="14.321301"></trkpt>
      <trkpt lat="51.775736" lon="14.320436"></trkpt>
      <trkpt lat="51.775591" lon="14.319772"></trkpt>
      <trkpt lat="51.775571" lon="14.31969"></trkpt>
      <trkpt lat="51.775566" lon="14.319669"></trkpt>
      <trkpt lat="51.775552" lon="14.319606"></trkpt>
      <trkpt lat="51.775498" lon="14.319381"></trkpt>
      <trkpt lat="51.775156" lon="14.318049"></trkpt>
      <trkpt lat="51.774921" lon="14.317221"></trkpt>
      <trkpt lat="51.774429" lon="14.31579"></trkpt>
      <trkpt lat="51.774016" lon="14.314756"></trkpt>
      <trkpt lat="51.773574" lon="14.313745"></trkpt>
      <trkpt lat="51.773443" lon="14.313402"></trkpt>
      <trkpt lat="51.773439" lon="14.313383"></trkpt>
      <trkpt lat="51.773404" lon="14.313233"></trkpt>
      <trkpt lat="51.773364" lon="14.313059"></trkpt>
      <trkpt lat="51.773348" lon="14.312936"></trkpt>
      <trkpt lat="51.773337" lon="14.312736"></trkpt>
      <trkpt lat="51.773325" lon="14.31171"></trkpt>
      <trkpt lat="51.773311" lon="14.310483"></trkpt>
      <trkpt lat="51.773015" lon="14.310666"></trkpt>
      <trkpt lat="51.772806" lon="14.310798"></trkpt>
      <trkpt lat="51.772156" lon="14.311208"></trkpt>
      <trkpt lat="51.77207" lon="14.311258"></trkpt>
      <trkpt lat="51.771626" lon="14.311534"></trkpt>
      <trkpt lat="51.771507" lon="14.311583"></trkpt>
      <trkpt lat="51.771603" lon="14.313246"></trkpt>
      <trkpt lat="51.771659" lon="14.313562"></trkpt>
      <trkpt lat="51.771691" lon="14.313682"></trkpt>
      <trkpt lat="51.771698" lon="14.313706"></trkpt>
      <trkpt lat="51.771769" lon="14.313939"></trkpt>
      <trkpt lat="51.772191" lon="14.314715"></trkpt>
      <trkpt lat="51.772452" lon="14.315197"></trkpt>
      <trkpt lat="51.773051" lon="14.316422"></trkpt>
      <trkpt lat="51.773244" lon="14.316842"></trkpt>
      <trkpt lat="51.773307" lon="14.316981"></trkpt>
      <trkpt lat="51.773355" lon="14.317091"></trkpt>
      <trkpt lat="51.773359" lon="14.3171"></trkpt>
      <trkpt lat="51.773673" lon="14.31783"></trkpt>
      <trkpt lat="51.774059" lon="14.318896"></trkpt>
      <trkpt lat="51.774224" lon="14.319499"></trkpt>
      <trkpt lat="51.774368" lon="14.320097"></trkpt>
      <trkpt lat="51.774465" lon="14.320588"></trkpt>
      <trkpt lat="51.774534" lon="14.321005"></trkpt>
      <trkpt lat="51.774584" lon="14.321357"></trkpt>
      <trkpt lat="51.774628" lon="14.321669"></trkpt>
      <trkpt lat="51.774658" lon="14.321996"></trkpt>
      <trkpt lat="51.774687" lon="14.322325"></trkpt>
      <trkpt lat="51.774701" lon="14.322474"></trkpt>
      <trkpt lat="51.774705" lon="14.322619"></trkpt>
      <trkpt lat="51.774715" lon="14.322961"></trkpt>
      <trkpt lat="51.774723" lon="14.323271"></trkpt>
      <trkpt lat="51.774703" lon="14.324001"></trkpt>
      <trkpt lat="51.774689" lon="14.324248"></trkpt>
      <trkpt lat="51.774672" lon="14.32447"></trkpt>
      <trkpt lat="51.774612" lon="14.32453"></trkpt>
      <trkpt lat="51.774157" lon="14.325081"></trkpt>
      <trkpt lat="51.774096" lon="14.325161"></trkpt>
      <trkpt lat="51.773944" lon="14.325359"></trkpt>
      <trkpt lat="51.773902" lon="14.325413"></trkpt>
      <trkpt lat="51.773691" lon="14.325665"></trkpt>
      <trkpt lat="51.77329" lon="14.326144"></trkpt>
      <trkpt lat="51.77279" lon="14.32674"></trkpt>
      <trkpt lat="51.77261" lon="14.326943"></trkpt>
      <trkpt lat="51.772443" lon="14.327131"></trkpt>
      <trkpt lat="51.772217" lon="14.327381"></trkpt>
      <trkpt lat="51.772039" lon="14.327602"></trkpt>
      <trkpt lat="51.771987" lon="14.327653"></trkpt>
      <trkpt lat="51.771898" lon="14.327737"></trkpt>
      <trkpt lat="51.771857" lon="14.327778"></trkpt>
      <trkpt lat="51.771817" lon="14.327817"></trkpt>
      <trkpt lat="51.771742" lon="14.327891"></trkpt>
      <trkpt lat="51.771682" lon="14.327951"></trkpt>
      <trkpt lat="51.771476" lon="14.328186"></trkpt>
      <trkpt lat="51.771419" lon="14.328248"></trkpt>
      <trkpt lat="51.771399" lon="14.328269"></trkpt>
      <trkpt lat="51.771338" lon="14.328333"></trkpt>
      <trkpt lat="51.771261" lon="14.328413"></trkpt>
      <trkpt lat="51.771058" lon="14.328616"></trkpt>
      <trkpt lat="51.770761" lon="14.328861"></trkpt>
      <trkpt lat="51.770672" lon="14.328926"></trkpt>
      <trkpt lat="51.770581" lon="14.328993"></trkpt>
      <trkpt lat="51.77034" lon="14.329192"></trkpt>
      <trkpt lat="51.770253" lon="14.329237"></trkpt>
      <trkpt lat="51.770239" lon="14.329244"></trkpt>
      <trkpt lat="51.770149" lon="14.329275"></trkpt>
      <trkpt lat="51.770045" lon="14.32929"></trkpt>
      <trkpt lat="51.770008" lon="14.329287"></trkpt>
      <trkpt lat="51.769596" lon="14.329252"></trkpt>
      <trkpt lat="51.769412" lon="14.329224"></trkpt>
      <trkpt lat="51.769165" lon="14.329182"></trkpt>
      <trkpt lat="51.76911" lon="14.329172"></trkpt>
      <trkpt lat="51.769029" lon="14.329158"></trkpt>
      <trkpt lat="51.768745" lon="14.329087"></trkpt>
      <trkpt lat="51.768646" lon="14.329057"></trkpt>
      <trkpt lat="51.768565" lon="14.329033"></trkpt>
      <trkpt lat="51.767729" lon="14.328785"></trkpt>
      <trkpt lat="51.767373" lon="14.328668"></trkpt>
      <trkpt lat="51.767321" lon="14.328651"></trkpt>
      <trkpt lat="51.767062" lon="14.328447"></trkpt>
      <trkpt lat="51.766944" lon="14.328379"></trkpt>
      <trkpt lat="51.766831" lon="14.328337"></trkpt>
      <trkpt lat="51.766745" lon="14.328327"></trkpt>
      <trkpt lat="51.766546" lon="14.328331"></trkpt>
      <trkpt lat="51.766466" lon="14.328309"></trkpt>
      <trkpt lat="51.766466" lon="14.328309"></trkpt>
      <trkpt lat="51.76639" lon="14.328286"></trkpt>
      <trkpt lat="51.766244" lon="14.32828"></trkpt>
      <trkpt lat="51.765993" lon="14.328194"></trkpt>
      <trkpt lat="51.765905" lon="14.328163"></trkpt>
      <trkpt lat="51.765726" lon="14.328093"></trkpt>
      <trkpt lat="51.765538" lon="14.328031"></trkpt>
      <trkpt lat="51.765421" lon="14.327991"></trkpt>
      <trkpt lat="51.765275" lon="14.327943"></trkpt>
      <trkpt lat="51.765087" lon="14.327882"></trkpt>
      <trkpt lat="51.764736" lon="14.327768"></trkpt>
      <trkpt lat="51.764571" lon="14.327711"></trkpt>
      <trkpt lat="51.764511" lon="14.327693"></trkpt>
      <trkpt lat="51.764459" lon="14.327678"></trkpt>
      <trkpt lat="51.763914" lon="14.327497"></trkpt>
      <trkpt lat="51.763824" lon="14.327471"></trkpt>
      <trkpt lat="51.763314" lon="14.327379"></trkpt>
      <trkpt lat="51.763229" lon="14.327372"></trkpt>
      <trkpt lat="51.763207" lon="14.32737"></trkpt>
      <trkpt lat="51.762859" lon="14.327391"></trkpt>
      <trkpt lat="51.762794" lon="14.327395"></trkpt>
      <trkpt lat="51.762697" lon="14.327405"></trkpt>
      <trkpt lat="51.762581" lon="14.327415"></trkpt>
      <trkpt lat="51.762205" lon="14.327436"></trkpt>
      <trkpt lat="51.76202" lon="14.327446"></trkpt>
      <trkpt lat="51.761512" lon="14.327473"></trkpt>
      <trkpt lat="51.761468" lon="14.327476"></trkpt>
      <trkpt lat="51.76136" lon="14.327483"></trkpt>
      <trkpt lat="51.761338" lon="14.327486"></trkpt>
      <trkpt lat="51.761321" lon="14.327487"></trkpt>
      <trkpt lat="51.761304" lon="14.327487"></trkpt>
      <trkpt lat="51.761287" lon="14.327489"></trkpt>
      <trkpt lat="51.761255" lon="14.327489"></trkpt>
      <trkpt lat="51.761187" lon="14.327489"></trkpt>
      <trkpt lat="51.761131" lon="14.327492"></trkpt>
      <trkpt lat="51.761088" lon="14.327494"></trkpt>
      <trkpt lat="51.761052" lon="14.327498"></trkpt>
      <trkpt lat="51.760768" lon="14.327531"></trkpt>
      <trkpt lat="51.76056" lon="14.327552"></trkpt>
      <trkpt lat="51.760423" lon="14.327566"></trkpt>
      <trkpt lat="51.760381" lon="14.32757"></trkpt>
      <trkpt lat="51.760256" lon="14.327583"></trkpt>
      <trkpt lat="51.760056" lon="14.327605"></trkpt>
      <trkpt lat="51.759985" lon="14.327612"></trkpt>
      <trkpt lat="51.759842" lon="14.327628"></trkpt>
      <trkpt lat="51.759684" lon="14.327644"></trkpt>
      <trkpt lat="51.759612" lon="14.327652"></trkpt>
      <trkpt lat="51.759447" lon="14.327672"></trkpt>
      <trkpt lat="51.759337" lon="14.327685"></trkpt>
      <trkpt lat="51.759235" lon="14.327698"></trkpt>
      <trkpt lat="51.759116" lon="14.327712"></trkpt>
      <trkpt lat="51.758964" lon="14.327731"></trkpt>
      <trkpt lat="51.758856" lon="14.327744"></trkpt>
      <trkpt lat="51.758738" lon="14.327757"></trkpt>
      <trkpt lat="51.758392" lon="14.327794"></trkpt>
      <trkpt lat="51.758318" lon="14.327803"></trkpt>
      <trkpt lat="51.758246" lon="14.327811"></trkpt>
      <trkpt lat="51.758124" lon="14.327826"></trkpt>
      <trkpt lat="51.758025" lon="14.327837"></trkpt>
      <trkpt lat="51.758005" lon="14.32784"></trkpt>
      <trkpt lat="51.757695" lon="14.327877"></trkpt>
      <trkpt lat="51.757632" lon="14.327884"></trkpt>
      <trkpt lat="51.757514" lon="14.3279"></trkpt>
      <trkpt lat="51.757442" lon="14.32791"></trkpt>
      <trkpt lat="51.757176" lon="14.327937"></trkpt>
      <trkpt lat="51.757137" lon="14.327941"></trkpt>
      <trkpt lat="51.757015" lon="14.327957"></trkpt>
      <trkpt lat="51.757017" lon="14.327981"></trkpt>
      <trkpt lat="51.757021" lon="14.328071"></trkpt>
      <trkpt lat="51.757022" lon="14.328092"></trkpt>
      <trkpt lat="51.757028" lon="14.328245"></trkpt>
      <trkpt lat="51.75707" lon="14.329032"></trkpt>
      <trkpt lat="51.757104" lon="14.329644"></trkpt>
      <trkpt lat="51.75711" lon="14.330014"></trkpt>
      <trkpt lat="51.75712" lon="14.33028"></trkpt>
      <trkpt lat="51.757126" lon="14.330413"></trkpt>
      <trkpt lat="51.757151" lon="14.330942"></trkpt>
      <trkpt lat="51.757159" lon="14.331165"></trkpt>
      <trkpt lat="51.757169" lon="14.331415"></trkpt>
      <trkpt lat="51.757186" lon="14.331827"></trkpt>
      <trkpt lat="51.7572" lon="14.332135"></trkpt>
      <trkpt lat="51.757204" lon="14.33223"></trkpt>
      <trkpt lat="51.757207" lon="14.332292"></trkpt>
      <trkpt lat="51.757214" lon="14.332448"></trkpt>
      <trkpt lat="51.757217" lon="14.332527"></trkpt>
      <trkpt lat="51.757236" lon="14.332967"></trkpt>
      <trkpt lat="51.757238" lon="14.333156"></trkpt>
      <trkpt lat="51.757237" lon="14.333194"></trkpt>
      <trkpt lat="51.757237" lon="14.333222"></trkpt>
      <trkpt lat="51.757237" lon="14.333335"></trkpt>
      <trkpt lat="51.757237" lon="14.33345"></trkpt>
      <trkpt lat="51.757236" lon="14.33361"></trkpt>
      <trkpt lat="51.75724" lon="14.333773"></trkpt>
      <trkpt lat="51.75725" lon="14.334152"></trkpt>
      <trkpt lat="51.757257" lon="14.334432"></trkpt>
      <trkpt lat="51.757262" lon="14.334625"></trkpt>
      <trkpt lat="51.757293" lon="14.335052"></trkpt>
      <trkpt lat="51.757342" lon="14.335465"></trkpt>
      <trkpt lat="51.757391" lon="14.335739"></trkpt>
      <trkpt lat="51.757443" lon="14.335996"></trkpt>
      <trkpt lat="51.757504" lon="14.336228"></trkpt>
      <trkpt lat="51.757574" lon="14.336472"></trkpt>
      <trkpt lat="51.757619" lon="14.336688"></trkpt>
      <trkpt lat="51.75766" lon="14.33693"></trkpt>
      <trkpt lat="51.757673" lon="14.337005"></trkpt>
      <trkpt lat="51.757683" lon="14.337082"></trkpt>
      <trkpt lat="51.757692" lon="14.337159"></trkpt>
      <trkpt lat="51.757712" lon="14.337407"></trkpt>
      <trkpt lat="51.757732" lon="14.337671"></trkpt>
      <trkpt lat="51.757754" lon="14.337898"></trkpt>
      <trkpt lat="51.757793" lon="14.33808"></trkpt>
      <trkpt lat="51.757927" lon="14.338457"></trkpt>
      <trkpt lat="51.758046" lon="14.338789"></trkpt>
      <trkpt lat="51.75807" lon="14.338856"></trkpt>
      <trkpt lat="51.75816" lon="14.33903"></trkpt>
      <trkpt lat="51.758182" lon="14.339099"></trkpt>
      <trkpt lat="51.7582" lon="14.339152"></trkpt>
      <trkpt lat="51.758234" lon="14.339257"></trkpt>
      <trkpt lat="51.758261" lon="14.339355"></trkpt>
      <trkpt lat="51.758273" lon="14.339399"></trkpt>
      <trkpt lat="51.758357" lon="14.339708"></trkpt>
      <trkpt lat="51.758374" lon="14.339787"></trkpt>
      <trkpt lat="51.75843" lon="14.340075"></trkpt>
      <trkpt lat="51.75852" lon="14.340449"></trkpt>
      <trkpt lat="51.758533" lon="14.340502"></trkpt>
      <trkpt lat="51.758689" lon="14.341082"></trkpt>
      <trkpt lat="51.758699" lon="14.341119"></trkpt>
      <trkpt lat="51.758757" lon="14.341337"></trkpt>
      <trkpt lat="51.7588" lon="14.341507"></trkpt>
      <trkpt lat="51.758827" lon="14.341611"></trkpt>
      <trkpt lat="51.75898" lon="14.342247"></trkpt>
      <trkpt lat="51.758995" lon="14.342308"></trkpt>
      <trkpt lat="51.759019" lon="14.342402"></trkpt>
      <trkpt lat="51.759171" lon="14.342976"></trkpt>
      <trkpt lat="51.759177" lon="14.342998"></trkpt>
      <trkpt lat="51.759255" lon="14.343271"></trkpt>
      <trkpt lat="51.759347" lon="14.343595"></trkpt>
      <trkpt lat="51.759534" lon="14.344272"></trkpt>
      <trkpt lat="51.759552" lon="14.344333"></trkpt>
      <trkpt lat="51.759639" lon="14.344601"></trkpt>
      <trkpt lat="51.759699" lon="14.34478"></trkpt>
      <trkpt lat="51.759721" lon="14.344842"></trkpt>
      <trkpt lat="51.759982" lon="14.345601"></trkpt>
      <trkpt lat="51.760094" lon="14.345928"></trkpt>
      <trkpt lat="51.760261" lon="14.346425"></trkpt>
      <trkpt lat="51.760271" lon="14.346454"></trkpt>
      <trkpt lat="51.76035" lon="14.346652"></trkpt>
      <trkpt lat="51.760432" lon="14.346853"></trkpt>
      <trkpt lat="51.760577" lon="14.347163"></trkpt>
      <trkpt lat="51.760647" lon="14.347304"></trkpt>
      <trkpt lat="51.760686" lon="14.34738"></trkpt>
      <trkpt lat="51.760886" lon="14.347751"></trkpt>
      <trkpt lat="51.760995" lon="14.347943"></trkpt>
      <trkpt lat="51.761018" lon="14.347982"></trkpt>
      <trkpt lat="51.761094" lon="14.348104"></trkpt>
      <trkpt lat="51.761207" lon="14.348296"></trkpt>
      <trkpt lat="51.761213" lon="14.348305"></trkpt>
      <trkpt lat="51.761555" lon="14.348888"></trkpt>
      <trkpt lat="51.761623" lon="14.348986"></trkpt>
      <trkpt lat="51.761642" lon="14.349012"></trkpt>
      <trkpt lat="51.761695" lon="14.349086"></trkpt>
      <trkpt lat="51.761795" lon="14.349239"></trkpt>
      <trkpt lat="51.76186" lon="14.349398"></trkpt>
      <trkpt lat="51.7619" lon="14.349506"></trkpt>
      <trkpt lat="51.761987" lon="14.349763"></trkpt>
      <trkpt lat="51.762052" lon="14.349998"></trkpt>
      <trkpt lat="51.762126" lon="14.350295"></trkpt>
      <trkpt lat="51.762213" lon="14.350689"></trkpt>
      <trkpt lat="51.762265" lon="14.350985"></trkpt>
      <trkpt lat="51.762302" lon="14.351267"></trkpt>
      <trkpt lat="51.762315" lon="14.351378"></trkpt>
      <trkpt lat="51.762331" lon="14.351506"></trkpt>
      <trkpt lat="51.762331" lon="14.351511"></trkpt>
      <trkpt lat="51.76235" lon="14.351767"></trkpt>
      <trkpt lat="51.762357" lon="14.352351"></trkpt>
      <trkpt lat="51.762357" lon="14.352391"></trkpt>
      <trkpt lat="51.762357" lon="14.35287"></trkpt>
      <trkpt lat="51.762358" lon="14.353061"></trkpt>
      <trkpt lat="51.762357" lon="14.353476"></trkpt>
      <trkpt lat="51.762357" lon="14.353498"></trkpt>
      <trkpt lat="51.762357" lon="14.353545"></trkpt>
      <trkpt lat="51.762355" lon="14.354329"></trkpt>
      <trkpt lat="51.762358" lon="14.356041"></trkpt>
      <trkpt lat="51.762307" lon="14.356599"></trkpt>
      <trkpt lat="51.762276" lon="14.356831"></trkpt>
      <trkpt lat="51.762251" lon="14.357016"></trkpt>
      <trkpt lat="51.76224" lon="14.35723"></trkpt>
      <trkpt lat="51.76224" lon="14.357245"></trkpt>
      <trkpt lat="51.762234" lon="14.357438"></trkpt>
      <trkpt lat="51.762233" lon="14.35784"></trkpt>
      <trkpt lat="51.76224" lon="14.358327"></trkpt>
      <trkpt lat="51.76224" lon="14.358349"></trkpt>
      <trkpt lat="51.762248" lon="14.358608"></trkpt>
      <trkpt lat="51.762262" lon="14.358967"></trkpt>
      <trkpt lat="51.762265" lon="14.359053"></trkpt>
      <trkpt lat="51.762268" lon="14.359169"></trkpt>
      <trkpt lat="51.762277" lon="14.359786"></trkpt>
      <trkpt lat="51.762279" lon="14.360115"></trkpt>
      <trkpt lat="51.762289" lon="14.360273"></trkpt>
      <trkpt lat="51.762308" lon="14.360462"></trkpt>
      <trkpt lat="51.762309" lon="14.360475"></trkpt>
      <trkpt lat="51.762345" lon="14.360812"></trkpt>
      <trkpt lat="51.762406" lon="14.361236"></trkpt>
      <trkpt lat="51.762433" lon="14.362525"></trkpt>
      <trkpt lat="51.762444" lon="14.363057"></trkpt>
      <trkpt lat="51.762432" lon="14.363684"></trkpt>
      <trkpt lat="51.762409" lon="14.364051"></trkpt>
      <trkpt lat="51.762402" lon="14.36416"></trkpt>
      <trkpt lat="51.762385" lon="14.364356"></trkpt>
      <trkpt lat="51.762379" lon="14.364413"></trkpt>
      <trkpt lat="51.762342" lon="14.364667"></trkpt>
      <trkpt lat="51.762235" lon="14.365482"></trkpt>
      <trkpt lat="51.762221" lon="14.365597"></trkpt>
      <trkpt lat="51.762152" lon="14.366178"></trkpt>
      <trkpt lat="51.76213" lon="14.366563"></trkpt>
      <trkpt lat="51.762122" lon="14.366897"></trkpt>
      <trkpt lat="51.762144" lon="14.367136"></trkpt>
      <trkpt lat="51.762177" lon="14.36735"></trkpt>
      <trkpt lat="51.762222" lon="14.367576"></trkpt>
      <trkpt lat="51.762274" lon="14.367773"></trkpt>
      <trkpt lat="51.762336" lon="14.367944"></trkpt>
      <trkpt lat="51.762338" lon="14.36795"></trkpt>
      <trkpt lat="51.762425" lon="14.368145"></trkpt>
      <trkpt lat="51.762561" lon="14.368405"></trkpt>
      <trkpt lat="51.762785" lon="14.368738"></trkpt>
      <trkpt lat="51.762973" lon="14.369065"></trkpt>
      <trkpt lat="51.76311" lon="14.369385"></trkpt>
      <trkpt lat="51.763194" lon="14.369656"></trkpt>
      <trkpt lat="51.763246" lon="14.36989"></trkpt>
      <trkpt lat="51.763289" lon="14.370146"></trkpt>
      <trkpt lat="51.763345" lon="14.370632"></trkpt>
      <trkpt lat="51.763367" lon="14.37083"></trkpt>
      <trkpt lat="51.7634" lon="14.371188"></trkpt>
      <trkpt lat="51.763439" lon="14.371618"></trkpt>
      <trkpt lat="51.763468" lon="14.371973"></trkpt>
      <trkpt lat="51.763545" lon="14.37296"></trkpt>
      <trkpt lat="51.763567" lon="14.373223"></trkpt>
      <trkpt lat="51.763587" lon="14.373414"></trkpt>
      <trkpt lat="51.76359" lon="14.373454"></trkpt>
      <trkpt lat="51.763634" lon="14.373983"></trkpt>
      <trkpt lat="51.763635" lon="14.373999"></trkpt>
      <trkpt lat="51.763813" lon="14.376195"></trkpt>
      <trkpt lat="51.763829" lon="14.376413"></trkpt>
      <trkpt lat="51.763848" lon="14.376711"></trkpt>
      <trkpt lat="51.763853" lon="14.377267"></trkpt>
      <trkpt lat="51.763854" lon="14.377403"></trkpt>
      <trkpt lat="51.763856" lon="14.377733"></trkpt>
      <trkpt lat="51.763827" lon="14.380283"></trkpt>
      <trkpt lat="51.763824" lon="14.380501"></trkpt>
      <trkpt lat="51.763821" lon="14.380758"></trkpt>
      <trkpt lat="51.763819" lon="14.38089"></trkpt>
      <trkpt lat="51.763816" lon="14.381199"></trkpt>
      <trkpt lat="51.763807" lon="14.381823"></trkpt>
      <trkpt lat="51.763807" lon="14.381833"></trkpt>
      <trkpt lat="51.763794" lon="14.382746"></trkpt>
      <trkpt lat="51.763789" lon="14.383125"></trkpt>
      <trkpt lat="51.76375" lon="14.385898"></trkpt>
      <trkpt lat="51.763749" lon="14.385937"></trkpt>
      <trkpt lat="51.763701" lon="14.389355"></trkpt>
      <trkpt lat="51.763689" lon="14.390175"></trkpt>
      <trkpt lat="51.763686" lon="14.390628"></trkpt>
      <trkpt lat="51.76368" lon="14.391144"></trkpt>
      <trkpt lat="51.76368" lon="14.391144"></trkpt>
      <trkpt lat="51.763664" lon="14.392529"></trkpt>
      <trkpt lat="51.76366" lon="14.393062"></trkpt>
      <trkpt lat="51.763659" lon="14.393492"></trkpt>
      <trkpt lat="51.763659" lon="14.39389"></trkpt>
      <trkpt lat="51.763615" lon="14.397295"></trkpt>
      <trkpt lat="51.763615" lon="14.397351"></trkpt>
      <trkpt lat="51.763607" lon="14.39794"></trkpt>
      <trkpt lat="51.763607" lon="14.397971"></trkpt>
      <trkpt lat="51.763605" lon="14.39807"></trkpt>
      <trkpt lat="51.763605" lon="14.398099"></trkpt>
      <trkpt lat="51.763603" lon="14.398227"></trkpt>
      <trkpt lat="51.763597" lon="14.398706"></trkpt>
      <trkpt lat="51.763596" lon="14.39877"></trkpt>
      <trkpt lat="51.763594" lon="14.398935"></trkpt>
      <trkpt lat="51.763594" lon="14.39898"></trkpt>
      <trkpt lat="51.763591" lon="14.399316"></trkpt>
      <trkpt lat="51.763573" lon="14.400574"></trkpt>
      <trkpt lat="51.763536" lon="14.403499"></trkpt>
      <trkpt lat="51.763532" lon="14.404049"></trkpt>
      <trkpt lat="51.763527" lon="14.404523"></trkpt>
      <trkpt lat="51.763529" lon="14.404862"></trkpt>
      <trkpt lat="51.763521" lon="14.405642"></trkpt>
      <trkpt lat="51.763519" lon="14.405885"></trkpt>
      <trkpt lat="51.763491" lon="14.406607"></trkpt>
      <trkpt lat="51.763482" lon="14.407246"></trkpt>
      <trkpt lat="51.763464" lon="14.408499"></trkpt>
      <trkpt lat="51.763448" lon="14.409602"></trkpt>
      <trkpt lat="51.76342" lon="14.409898"></trkpt>
      <trkpt lat="51.763378" lon="14.410196"></trkpt>
      <trkpt lat="51.763305" lon="14.410486"></trkpt>
      <trkpt lat="51.763212" lon="14.41075"></trkpt>
      <trkpt lat="51.763037" lon="14.411114"></trkpt>
      <trkpt lat="51.762949" lon="14.411258"></trkpt>
      <trkpt lat="51.762904" lon="14.411325"></trkpt>
      <trkpt lat="51.762318" lon="14.412196"></trkpt>
      <trkpt lat="51.761989" lon="14.412707"></trkpt>
      <trkpt lat="51.761815" lon="14.413"></trkpt>
      <trkpt lat="51.761659" lon="14.41332"></trkpt>
      <trkpt lat="51.761622" lon="14.413422"></trkpt>
      <trkpt lat="51.761595" lon="14.413544"></trkpt>
      <trkpt lat="51.761565" lon="14.413796"></trkpt>
      <trkpt lat="51.761583" lon="14.414106"></trkpt>
      <trkpt lat="51.761621" lon="14.414405"></trkpt>
      <trkpt lat="51.761783" lon="14.414791"></trkpt>
      <trkpt lat="51.762092" lon="14.415555"></trkpt>
      <trkpt lat="51.762095" lon="14.415561"></trkpt>
      <trkpt lat="51.762771" lon="14.417232"></trkpt>
      <trkpt lat="51.76289" lon="14.417609"></trkpt>
      <trkpt lat="51.762934" lon="14.417747"></trkpt>
      <trkpt lat="51.763061" lon="14.418068"></trkpt>
      <trkpt lat="51.763181" lon="14.418372"></trkpt>
      <trkpt lat="51.763149" lon="14.41843"></trkpt>
      <trkpt lat="51.763101" lon="14.418596"></trkpt>
      <trkpt lat="51.763125" lon="14.418724"></trkpt>
      <trkpt lat="51.763378" lon="14.4198"></trkpt>
      <trkpt lat="51.763403" lon="14.419831"></trkpt>
      <trkpt lat="51.763438" lon="14.419849"></trkpt>
      <trkpt lat="51.76349" lon="14.419866"></trkpt>
      <trkpt lat="51.763526" lon="14.419857"></trkpt>
      <trkpt lat="51.763549" lon="14.419839"></trkpt>
      <trkpt lat="51.763555" lon="14.419834"></trkpt>
      <trkpt lat="51.763582" lon="14.419789"></trkpt>
      <trkpt lat="51.763613" lon="14.419689"></trkpt>
      <trkpt lat="51.763699" lon="14.419416"></trkpt>
      <trkpt lat="51.763715" lon="14.419351"></trkpt>
      <trkpt lat="51.76368" lon="14.419268"></trkpt>
      <trkpt lat="51.763478" lon="14.41887"></trkpt>
    </trkseg>
  </trk>
</gpx>