<?xml version="1.0" encoding="UTF-8"?>
<gpx version="1.1" creator="Lehrfahrer Linieneditor" xmlns="http://www.topografix.com/GPX/1/1">
  <metadata>
    <name>Linie 42 - Route 01 - Peitz, Busbahnhof - Jänschwalde, Schule</name>
    <desc>Export aus dem Lehrfahrer Linieneditor | Farbe: #d32f2f</desc>
  </metadata>
  <wpt lat="51.854622" lon="14.425301">
    <name>Peitz, Busbahnhof</name>
    <cmt>SollMinute:0;Stop:1</cmt>
    <desc>Stopp 1 | SollMinute: 0</desc>
  </wpt>
  <wpt lat="51.855849" lon="14.422743">
    <name>Peitz, Richard-Wagner-Straße</name>
    <cmt>SollMinute:0;Stop:2</cmt>
    <desc>Stopp 2 | SollMinute: 0</desc>
  </wpt>
  <wpt lat="51.856169" lon="14.411828">
    <name>Peitz, Dammzollstraße</name>
    <cmt>SollMinute:0;Stop:3</cmt>
    <desc>Stopp 3 | SollMinute: 0</desc>
  </wpt>
  <wpt lat="51.856686" lon="14.410903">
    <name>Peitz, Markt</name>
    <cmt>SollMinute:0;Stop:4</cmt>
    <desc>Stopp 4 | SollMinute: 0</desc>
  </wpt>
  <wpt lat="51.860004" lon="14.404484">
    <name>Peitz, August-Bebel-Straße</name>
    <cmt>SollMinute:0;Stop:5</cmt>
    <desc>Stopp 5 | SollMinute: 0</desc>
  </wpt>
  <wpt lat="51.862891" lon="14.396853">
    <name>Peitz, Martinstraße</name>
    <cmt>SollMinute:0;Stop:6</cmt>
    <desc>Stopp 6 | SollMinute: 0</desc>
  </wpt>
  <wpt lat="51.871487" lon="14.384923">
    <name>Turnow, Kirche</name>
    <cmt>SollMinute:0;Stop:7</cmt>
    <desc>Stopp 7 | SollMinute: 0</desc>
  </wpt>
  <wpt lat="51.872394" lon="14.390717">
    <name>Turnow, Eiche</name>
    <cmt>SollMinute:0;Stop:8</cmt>
    <desc>Stopp 8 | SollMinute: 0</desc>
  </wpt>
  <wpt lat="51.874053" lon="14.393377">
    <name>Turnow, Feuerwehr</name>
    <cmt>SollMinute:0;Stop:9</cmt>
    <desc>Stopp 9 | SollMinute: 0</desc>
  </wpt>
  <wpt lat="51.883994" lon="14.415842">
    <name>Preilack, Dorf</name>
    <cmt>SollMinute:0;Stop:10</cmt>
    <desc>Stopp 10 | SollMinute: 0</desc>
  </wpt>
  <wpt lat="51.886887" lon="14.418435">
    <name>Freie Haltestelle 14</name>
    <cmt>SollMinute:0;Stop:11</cmt>
    <desc>Stopp 11 | SollMinute: 0</desc>
  </wpt>
  <wpt lat="51.885506" lon="14.418528">
    <name>Freie Haltestelle 15</name>
    <cmt>SollMinute:0;Stop:12</cmt>
    <desc>Stopp 12 | SollMinute: 0</desc>
  </wpt>
  <wpt lat="51.882306" lon="14.419931">
    <name>Freie Haltestelle 16</name>
    <cmt>SollMinute:0;Stop:13</cmt>
    <desc>Stopp 13 | SollMinute: 0</desc>
  </wpt>
  <wpt lat="51.882835" lon="14.420868">
    <name>Preilack, Am Eichengrund</name>
    <cmt>SollMinute:0;Stop:14</cmt>
    <desc>Stopp 14 | SollMinute: 0</desc>
  </wpt>
  <wpt lat="51.892856" lon="14.443123">
    <name>Tauer, West</name>
    <cmt>SollMinute:0;Stop:15</cmt>
    <desc>Stopp 15 | SollMinute: 0</desc>
  </wpt>
  <wpt lat="51.896137" lon="14.45381">
    <name>Tauer, Mitte</name>
    <cmt>SollMinute:0;Stop:16</cmt>
    <desc>Stopp 16 | SollMinute: 0</desc>
  </wpt>
  <wpt lat="51.89915" lon="14.466875">
    <name>Tauer, Ost</name>
    <cmt>SollMinute:0;Stop:17</cmt>
    <desc>Stopp 17 | SollMinute: 0</desc>
  </wpt>
  <wpt lat="51.894688" lon="14.486482">
    <name>Tauer, Ausbau</name>
    <cmt>SollMinute:0;Stop:18</cmt>
    <desc>Stopp 18 | SollMinute: 0</desc>
  </wpt>
  <wpt lat="51.894212" lon="14.501245">
    <name>Freie Haltestelle 21</name>
    <cmt>SollMinute:0;Stop:19</cmt>
    <desc>Stopp 19 | SollMinute: 0</desc>
  </wpt>
  <wpt lat="51.89588" lon="14.507908">
    <name>Drewitz, Gasse</name>
    <cmt>SollMinute:0;Stop:20</cmt>
    <desc>Stopp 20 | SollMinute: 0</desc>
  </wpt>
  <wpt lat="51.897112" lon="14.514034">
    <name>Freie Haltestelle 23</name>
    <cmt>SollMinute:0;Stop:21</cmt>
    <desc>Stopp 21 | SollMinute: 0</desc>
  </wpt>
  <wpt lat="51.89848" lon="14.514449">
    <name>Drewitz, Kirche</name>
    <cmt>SollMinute:0;Stop:22</cmt>
    <desc>Stopp 22 | SollMinute: 0</desc>
  </wpt>
  <wpt lat="51.898032" lon="14.514828">
    <name>Freie Haltestelle 25</name>
    <cmt>SollMinute:0;Stop:23</cmt>
    <desc>Stopp 23 | SollMinute: 0</desc>
  </wpt>
  <wpt lat="51.887902" lon="14.497737">
    <name>Freie Haltestelle 26</name>
    <cmt>SollMinute:0;Stop:24</cmt>
    <desc>Stopp 24 | SollMinute: 0</desc>
  </wpt>
  <wpt lat="51.876597" lon="14.511437">
    <name>Freie Haltestelle 27</name>
    <cmt>SollMinute:0;Stop:25</cmt>
    <desc>Stopp 25 | SollMinute: 0</desc>
  </wpt>
  <wpt lat="51.880412" lon="14.537573">
    <name>Freie Haltestelle 28</name>
    <cmt>SollMinute:0;Stop:26</cmt>
    <desc>Stopp 26 | SollMinute: 0</desc>
  </wpt>
  <wpt lat="51.875166" lon="14.544131">
    <name>Jänschwalde, Ost</name>
    <cmt>SollMinute:0;Stop:27</cmt>
    <desc>Stopp 27 | SollMinute: 0</desc>
  </wpt>
  <wpt lat="51.873509" lon="14.540263">
    <name>Jänschwalde, Schule</name>
    <cmt>SollMinute:0;Stop:28</cmt>
    <desc>Stopp 28 | SollMinute: 0</desc>
  </wpt>
  <trk>
    <name>Linie 42 - Route 01 - Peitz, Busbahnhof - Jänschwalde, Schule</name>
    <desc>Route für Maps.me Offline-Nutzung</desc>
    <trkseg>
      <trkpt lat="51.854619" lon="14.42531"></trkpt>
      <trkpt lat="51.854402" lon="14.425088"></trkpt>
      <trkpt lat="51.854508" lon="14.424796"></trkpt>
      <trkpt lat="51.854559" lon="14.424656"></trkpt>
      <trkpt lat="51.855118" lon="14.425234"></trkpt>
      <trkpt lat="51.85518" lon="14.425299"></trkpt>
      <trkpt lat="51.85532" lon="14.425443"></trkpt>
      <trkpt lat="51.855379" lon="14.425194"></trkpt>
      <trkpt lat="51.855604" lon="14.424035"></trkpt>
      <trkpt lat="51.855837" lon="14.422737"></trkpt>
      <trkpt lat="51.855878" lon="14.422509"></trkpt>
      <trkpt lat="51.856026" lon="14.421679"></trkpt>
      <trkpt lat="51.856225" lon="14.420527"></trkpt>
      <trkpt lat="51.856383" lon="14.419643"></trkpt>
      <trkpt lat="51.856482" lon="14.4191"></trkpt>
      <trkpt lat="51.856527" lon="14.418847"></trkpt>
      <trkpt lat="51.856319" lon="14.418713"></trkpt>
      <trkpt lat="51.855892" lon="14.418437"></trkpt>
      <trkpt lat="51.854889" lon="14.417789"></trkpt>
      <trkpt lat="51.855022" lon="14.417198"></trkpt>
      <trkpt lat="51.855435" lon="14.415404"></trkpt>
      <trkpt lat="51.855672" lon="14.414356"></trkpt>
      <trkpt lat="51.855752" lon="14.413977"></trkpt>
      <trkpt lat="51.855969" lon="14.412921"></trkpt>
      <trkpt lat="51.855992" lon="14.412789"></trkpt>
      <trkpt lat="51.856092" lon="14.412215"></trkpt>
      <trkpt lat="51.856174" lon="14.411802"></trkpt>
      <trkpt lat="51.856221" lon="14.411562"></trkpt>
      <trkpt lat="51.856304" lon="14.411214"></trkpt>
      <trkpt lat="51.856377" lon="14.410956"></trkpt>
      <trkpt lat="51.856432" lon="14.410829"></trkpt>
      <trkpt lat="51.856569" lon="14.410869"></trkpt>
      <trkpt lat="51.856697" lon="14.410906"></trkpt>
      <trkpt lat="51.856908" lon="14.410975"></trkpt>
      <trkpt lat="51.857087" lon="14.411008"></trkpt>
      <trkpt lat="51.857143" lon="14.411022"></trkpt>
      <trkpt lat="51.857585" lon="14.411166"></trkpt>
      <trkpt lat="51.857784" lon="14.411236"></trkpt>
      <trkpt lat="51.857976" lon="14.411333"></trkpt>
      <trkpt lat="51.858183" lon="14.411439"></trkpt>
      <trkpt lat="51.858336" lon="14.411548"></trkpt>
      <trkpt lat="51.858473" lon="14.411678"></trkpt>
      <trkpt lat="51.858571" lon="14.411354"></trkpt>
      <trkpt lat="51.85868" lon="14.410995"></trkpt>
      <trkpt lat="51.858823" lon="14.410703"></trkpt>
      <trkpt lat="51.859018" lon="14.410345"></trkpt>
      <trkpt lat="51.859208" lon="14.409994"></trkpt>
      <trkpt lat="51.859298" lon="14.40975"></trkpt>
      <trkpt lat="51.859375" lon="14.409499"></trkpt>
      <trkpt lat="51.859416" lon="14.409351"></trkpt>
      <trkpt lat="51.859451" lon="14.409133"></trkpt>
      <trkpt lat="51.85946" lon="14.408807"></trkpt>
      <trkpt lat="51.859439" lon="14.408635"></trkpt>
      <trkpt lat="51.859373" lon="14.408298"></trkpt>
      <trkpt lat="51.859361" lon="14.408143"></trkpt>
      <trkpt lat="51.859374" lon="14.407856"></trkpt>
      <trkpt lat="51.859402" lon="14.407362"></trkpt>
      <trkpt lat="51.859431" lon="14.406959"></trkpt>
      <trkpt lat="51.859471" lon="14.406736"></trkpt>
      <trkpt lat="51.859513" lon="14.406564"></trkpt>
      <trkpt lat="51.859734" lon="14.405644"></trkpt>
      <trkpt lat="51.86003" lon="14.404362"></trkpt>
      <trkpt lat="51.860259" lon="14.40338"></trkpt>
      <trkpt lat="51.860364" lon="14.402942"></trkpt>
      <trkpt lat="51.860439" lon="14.402691"></trkpt>
      <trkpt lat="51.860548" lon="14.402404"></trkpt>
      <trkpt lat="51.861038" lon="14.401233"></trkpt>
      <trkpt lat="51.862025" lon="14.398894"></trkpt>
      <trkpt lat="51.862262" lon="14.398339"></trkpt>
      <trkpt lat="51.862622" lon="14.397484"></trkpt>
      <trkpt lat="51.862769" lon="14.397134"></trkpt>
      <trkpt lat="51.862891" lon="14.396845"></trkpt>
      <trkpt lat="51.863036" lon="14.396494"></trkpt>
      <trkpt lat="51.863081" lon="14.396388"></trkpt>
      <trkpt lat="51.863269" lon="14.395915"></trkpt>
      <trkpt lat="51.863414" lon="14.395579"></trkpt>
      <trkpt lat="51.863808" lon="14.394664"></trkpt>
      <trkpt lat="51.863896" lon="14.394453"></trkpt>
      <trkpt lat="51.864192" lon="14.393751"></trkpt>
      <trkpt lat="51.865553" lon="14.390515"></trkpt>
      <trkpt lat="51.867033" lon="14.387036"></trkpt>
      <trkpt lat="51.867101" lon="14.386877"></trkpt>
      <trkpt lat="51.867202" lon="14.38662"></trkpt>
      <trkpt lat="51.867693" lon="14.385438"></trkpt>
      <trkpt lat="51.868217" lon="14.384255"></trkpt>
      <trkpt lat="51.868518" lon="14.38352"></trkpt>
      <trkpt lat="51.868658" lon="14.383176"></trkpt>
      <trkpt lat="51.868757" lon="14.382949"></trkpt>
      <trkpt lat="51.869143" lon="14.382061"></trkpt>
      <trkpt lat="51.869851" lon="14.381229"></trkpt>
      <trkpt lat="51.869883" lon="14.3813"></trkpt>
      <trkpt lat="51.870068" lon="14.381714"></trkpt>
      <trkpt lat="51.8713" lon="14.384479"></trkpt>
      <trkpt lat="51.871359" lon="14.384615"></trkpt>
      <trkpt lat="51.871489" lon="14.384931"></trkpt>
      <trkpt lat="51.871574" lon="14.385137"></trkpt>
      <trkpt lat="51.871611" lon="14.385287"></trkpt>
      <trkpt lat="51.871716" lon="14.385931"></trkpt>
      <trkpt lat="51.871791" lon="14.386459"></trkpt>
      <trkpt lat="51.871803" lon="14.386639"></trkpt>
      <trkpt lat="51.871825" lon="14.387301"></trkpt>
      <trkpt lat="51.871872" lon="14.387918"></trkpt>
      <trkpt lat="51.871919" lon="14.388288"></trkpt>
      <trkpt lat="51.871971" lon="14.388611"></trkpt>
      <trkpt lat="51.872325" lon="14.39037"></trkpt>
      <trkpt lat="51.872395" lon="14.390719"></trkpt>
      <trkpt lat="51.872519" lon="14.39131"></trkpt>
      <trkpt lat="51.872739" lon="14.392187"></trkpt>
      <trkpt lat="51.873022" lon="14.39232"></trkpt>
      <trkpt lat="51.873326" lon="14.392442"></trkpt>
      <trkpt lat="51.873518" lon="14.392547"></trkpt>
      <trkpt lat="51.874013" lon="14.393071"></trkpt>
      <trkpt lat="51.874077" lon="14.393302"></trkpt>
      <trkpt lat="51.874212" lon="14.393554"></trkpt>
      <trkpt lat="51.874285" lon="14.393367"></trkpt>
      <trkpt lat="51.874467" lon="14.393399"></trkpt>
      <trkpt lat="51.874746" lon="14.393292"></trkpt>
      <trkpt lat="51.874912" lon="14.394509"></trkpt>
      <trkpt lat="51.874975" lon="14.39475"></trkpt>
      <trkpt lat="51.875355" lon="14.395636"></trkpt>
      <trkpt lat="51.875722" lon="14.396387"></trkpt>
      <trkpt lat="51.875813" lon="14.396524"></trkpt>
      <trkpt lat="51.876201" lon="14.39694"></trkpt>
      <trkpt lat="51.876316" lon="14.397035"></trkpt>
      <trkpt lat="51.876651" lon="14.397164"></trkpt>
      <trkpt lat="51.880103" lon="14.398307"></trkpt>
      <trkpt lat="51.880508" lon="14.39872"></trkpt>
      <trkpt lat="51.881091" lon="14.399313"></trkpt>
      <trkpt lat="51.882705" lon="14.400125"></trkpt>
      <trkpt lat="51.883441" lon="14.400847"></trkpt>
      <trkpt lat="51.885393" lon="14.401977"></trkpt>
      <trkpt lat="51.883182" lon="14.409322"></trkpt>
      <trkpt lat="51.88309" lon="14.409669"></trkpt>
      <trkpt lat="51.883033" lon="14.409959"></trkpt>
      <trkpt lat="51.883036" lon="14.410176"></trkpt>
      <trkpt lat="51.883062" lon="14.410409"></trkpt>
      <trkpt lat="51.883201" lon="14.411745"></trkpt>
      <trkpt lat="51.883401" lon="14.413839"></trkpt>
      <trkpt lat="51.88343" lon="14.414182"></trkpt>
      <trkpt lat="51.883458" lon="14.414504"></trkpt>
      <trkpt lat="51.883568" lon="14.415797"></trkpt>
      <trkpt lat="51.883685" lon="14.415836"></trkpt>
      <trkpt lat="51.883805" lon="14.415808"></trkpt>
      <trkpt lat="51.883916" lon="14.416001"></trkpt>
      <trkpt lat="51.883991" lon="14.415839"></trkpt>
      <trkpt lat="51.88406" lon="14.41569"></trkpt>
      <trkpt lat="51.884268" lon="14.415512"></trkpt>
      <trkpt lat="51.88446" lon="14.415474"></trkpt>
      <trkpt lat="51.884621" lon="14.415573"></trkpt>
      <trkpt lat="51.885907" lon="14.416999"></trkpt>
      <trkpt lat="51.886686" lon="14.417916"></trkpt>
      <trkpt lat="51.886884" lon="14.418433"></trkpt>
      <trkpt lat="51.886837" lon="14.418627"></trkpt>
      <trkpt lat="51.88649" lon="14.418471"></trkpt>
      <trkpt lat="51.886339" lon="14.418447"></trkpt>
      <trkpt lat="51.885506" lon="14.418521"></trkpt>
      <trkpt lat="51.885223" lon="14.418546"></trkpt>
      <trkpt lat="51.884466" lon="14.418614"></trkpt>
      <trkpt lat="51.882682" lon="14.418773"></trkpt>
      <trkpt lat="51.882235" lon="14.419736"></trkpt>
      <trkpt lat="51.882194" lon="14.419825"></trkpt>
      <trkpt lat="51.882304" lon="14.419935"></trkpt>
      <trkpt lat="51.882418" lon="14.420049"></trkpt>
      <trkpt lat="51.88266" lon="14.420406"></trkpt>
      <trkpt lat="51.882769" lon="14.420613"></trkpt>
      <trkpt lat="51.88281" lon="14.4209"></trkpt>
      <trkpt lat="51.882943" lon="14.421144"></trkpt>
      <trkpt lat="51.883111" lon="14.421283"></trkpt>
      <trkpt lat="51.88343" lon="14.421896"></trkpt>
      <trkpt lat="51.883568" lon="14.422169"></trkpt>
      <trkpt lat="51.883842" lon="14.422695"></trkpt>
      <trkpt lat="51.884151" lon="14.423323"></trkpt>
      <trkpt lat="51.886378" lon="14.427672"></trkpt>
      <trkpt lat="51.88661" lon="14.428125"></trkpt>
      <trkpt lat="51.886994" lon="14.428874"></trkpt>
      <trkpt lat="51.88822" lon="14.43127"></trkpt>
      <trkpt lat="51.889119" lon="14.433042"></trkpt>
      <trkpt lat="51.889405" lon="14.433684"></trkpt>
      <trkpt lat="51.890228" lon="14.435702"></trkpt>
      <trkpt lat="51.890439" lon="14.436232"></trkpt>
      <trkpt lat="51.890607" lon="14.43665"></trkpt>
      <trkpt lat="51.891692" lon="14.4393"></trkpt>
      <trkpt lat="51.891764" lon="14.439489"></trkpt>
      <trkpt lat="51.891891" lon="14.439874"></trkpt>
      <trkpt lat="51.892174" lon="14.440793"></trkpt>
      <trkpt lat="51.892291" lon="14.441178"></trkpt>
      <trkpt lat="51.892491" lon="14.441875"></trkpt>
      <trkpt lat="51.892873" lon="14.443125"></trkpt>
      <trkpt lat="51.893612" lon="14.445599"></trkpt>
      <trkpt lat="51.893972" lon="14.44682"></trkpt>
      <trkpt lat="51.894039" lon="14.447048"></trkpt>
      <trkpt lat="51.894142" lon="14.447398"></trkpt>
      <trkpt lat="51.894384" lon="14.448222"></trkpt>
      <trkpt lat="51.894455" lon="14.448485"></trkpt>
      <trkpt lat="51.894659" lon="14.449137"></trkpt>
      <trkpt lat="51.895053" lon="14.450496"></trkpt>
      <trkpt lat="51.895118" lon="14.450723"></trkpt>
      <trkpt lat="51.895282" lon="14.451308"></trkpt>
      <trkpt lat="51.895394" lon="14.451727"></trkpt>
      <trkpt lat="51.895516" lon="14.452122"></trkpt>
      <trkpt lat="51.895678" lon="14.452595"></trkpt>
      <trkpt lat="51.89573" lon="14.452738"></trkpt>
      <trkpt lat="51.895849" lon="14.453048"></trkpt>
      <trkpt lat="51.895977" lon="14.453357"></trkpt>
      <trkpt lat="51.89616" lon="14.453821"></trkpt>
      <trkpt lat="51.896413" lon="14.454433"></trkpt>
      <trkpt lat="51.896789" lon="14.455305"></trkpt>
      <trkpt lat="51.896878" lon="14.4555"></trkpt>
      <trkpt lat="51.897006" lon="14.455781"></trkpt>
      <trkpt lat="51.897219" lon="14.456202"></trkpt>
      <trkpt lat="51.897426" lon="14.456623"></trkpt>
      <trkpt lat="51.897531" lon="14.456915"></trkpt>
      <trkpt lat="51.897565" lon="14.45709"></trkpt>
      <trkpt lat="51.897594" lon="14.457375"></trkpt>
      <trkpt lat="51.897633" lon="14.457679"></trkpt>
      <trkpt lat="51.897735" lon="14.458238"></trkpt>
      <trkpt lat="51.898123" lon="14.460152"></trkpt>
      <trkpt lat="51.898358" lon="14.461343"></trkpt>
      <trkpt lat="51.898391" lon="14.461504"></trkpt>
      <trkpt lat="51.898926" lon="14.464196"></trkpt>
      <trkpt lat="51.899243" lon="14.465726"></trkpt>
      <trkpt lat="51.899315" lon="14.466121"></trkpt>
      <trkpt lat="51.89924" lon="14.466355"></trkpt>
      <trkpt lat="51.899167" lon="14.466768"></trkpt>
      <trkpt lat="51.899069" lon="14.467277"></trkpt>
      <trkpt lat="51.898826" lon="14.468564"></trkpt>
      <trkpt lat="51.898758" lon="14.468887"></trkpt>
      <trkpt lat="51.898251" lon="14.471589"></trkpt>
      <trkpt lat="51.897886" lon="14.473534"></trkpt>
      <trkpt lat="51.897626" lon="14.474963"></trkpt>
      <trkpt lat="51.897093" lon="14.477876"></trkpt>
      <trkpt lat="51.89701" lon="14.47831"></trkpt>
      <trkpt lat="51.896324" lon="14.481082"></trkpt>
      <trkpt lat="51.895468" lon="14.484551"></trkpt>
      <trkpt lat="51.895398" lon="14.484808"></trkpt>
      <trkpt lat="51.895358" lon="14.48492"></trkpt>
      <trkpt lat="51.895263" lon="14.485184"></trkpt>
      <trkpt lat="51.89512" lon="14.485548"></trkpt>
      <trkpt lat="51.894687" lon="14.486519"></trkpt>
      <trkpt lat="51.893246" lon="14.48971"></trkpt>
      <trkpt lat="51.891869" lon="14.492388"></trkpt>
      <trkpt lat="51.892525" lon="14.493153"></trkpt>
      <trkpt lat="51.892678" lon="14.493519"></trkpt>
      <trkpt lat="51.892757" lon="14.493705"></trkpt>
      <trkpt lat="51.892872" lon="14.494194"></trkpt>
      <trkpt lat="51.893801" lon="14.499392"></trkpt>
      <trkpt lat="51.893838" lon="14.499609"></trkpt>
      <trkpt lat="51.894002" lon="14.5004"></trkpt>
      <trkpt lat="51.894192" lon="14.501257"></trkpt>
      <trkpt lat="51.894226" lon="14.501412"></trkpt>
      <trkpt lat="51.894325" lon="14.502375"></trkpt>
      <trkpt lat="51.894396" lon="14.503095"></trkpt>
      <trkpt lat="51.894419" lon="14.503296"></trkpt>
      <trkpt lat="51.894642" lon="14.505643"></trkpt>
      <trkpt lat="51.89534" lon="14.506733"></trkpt>
      <trkpt lat="51.895826" lon="14.507493"></trkpt>
      <trkpt lat="51.895879" lon="14.507641"></trkpt>
      <trkpt lat="51.895877" lon="14.507908"></trkpt>
      <trkpt lat="51.895873" lon="14.508642"></trkpt>
      <trkpt lat="51.895866" lon="14.509886"></trkpt>
      <trkpt lat="51.895828" lon="14.511522"></trkpt>
      <trkpt lat="51.895818" lon="14.511689"></trkpt>
      <trkpt lat="51.89568" lon="14.512612"></trkpt>
      <trkpt lat="51.89572" lon="14.512774"></trkpt>
      <trkpt lat="51.895845" lon="14.51314"></trkpt>
      <trkpt lat="51.896308" lon="14.513476"></trkpt>
      <trkpt lat="51.897106" lon="14.514056"></trkpt>
      <trkpt lat="51.897208" lon="14.51413"></trkpt>
      <trkpt lat="51.897704" lon="14.514473"></trkpt>
      <trkpt lat="51.898018" lon="14.514211"></trkpt>
      <trkpt lat="51.89821" lon="14.514201"></trkpt>
      <trkpt lat="51.898314" lon="14.514285"></trkpt>
      <trkpt lat="51.898487" lon="14.514423"></trkpt>
      <trkpt lat="51.898576" lon="14.514767"></trkpt>
      <trkpt lat="51.898386" lon="14.514853"></trkpt>
      <trkpt lat="51.898259" lon="14.514852"></trkpt>
      <trkpt lat="51.898034" lon="14.514731"></trkpt>
      <trkpt lat="51.897884" lon="14.514625"></trkpt>
      <trkpt lat="51.897687" lon="14.514487"></trkpt>
      <trkpt lat="51.897208" lon="14.51413"></trkpt>
      <trkpt lat="51.896308" lon="14.513476"></trkpt>
      <trkpt lat="51.895845" lon="14.51314"></trkpt>
      <trkpt lat="51.89561" lon="14.512964"></trkpt>
      <trkpt lat="51.895171" lon="14.512688"></trkpt>
      <trkpt lat="51.893862" lon="14.512418"></trkpt>
      <trkpt lat="51.8936" lon="14.512233"></trkpt>
      <trkpt lat="51.893197" lon="14.511866"></trkpt>
      <trkpt lat="51.892929" lon="14.511522"></trkpt>
      <trkpt lat="51.892155" lon="14.51022"></trkpt>
      <trkpt lat="51.891812" lon="14.509628"></trkpt>
      <trkpt lat="51.891045" lon="14.508305"></trkpt>
      <trkpt lat="51.890926" lon="14.508032"></trkpt>
      <trkpt lat="51.890838" lon="14.507832"></trkpt>
      <trkpt lat="51.890486" lon="14.506796"></trkpt>
      <trkpt lat="51.889561" lon="14.503946"></trkpt>
      <trkpt lat="51.889112" lon="14.502522"></trkpt>
      <trkpt lat="51.888791" lon="14.501538"></trkpt>
      <trkpt lat="51.888467" lon="14.500327"></trkpt>
      <trkpt lat="51.888202" lon="14.499082"></trkpt>
      <trkpt lat="51.887921" lon="14.497727"></trkpt>
      <trkpt lat="51.887681" lon="14.496573"></trkpt>
      <trkpt lat="51.887503" lon="14.496659"></trkpt>
      <trkpt lat="51.887183" lon="14.496812"></trkpt>
      <trkpt lat="51.886668" lon="14.497087"></trkpt>
      <trkpt lat="51.885471" lon="14.497746"></trkpt>
      <trkpt lat="51.883242" lon="14.49896"></trkpt>
      <trkpt lat="51.877419" lon="14.502097"></trkpt>
      <trkpt lat="51.876339" lon="14.502673"></trkpt>
      <trkpt lat="51.875275" lon="14.503249"></trkpt>
      <trkpt lat="51.875081" lon="14.503296"></trkpt>
      <trkpt lat="51.875087" lon="14.503555"></trkpt>
      <trkpt lat="51.875192" lon="14.508014"></trkpt>
      <trkpt lat="51.875289" lon="14.50871"></trkpt>
      <trkpt lat="51.875552" lon="14.50942"></trkpt>
      <trkpt lat="51.876553" lon="14.511493"></trkpt>
      <trkpt lat="51.877236" lon="14.512907"></trkpt>
      <trkpt lat="51.879637" lon="14.520603"></trkpt>
      <trkpt lat="51.879907" lon="14.52172"></trkpt>
      <trkpt lat="51.879959" lon="14.521939"></trkpt>
      <trkpt lat="51.880551" lon="14.524945"></trkpt>
      <trkpt lat="51.882468" lon="14.532979"></trkpt>
      <trkpt lat="51.882675" lon="14.533851"></trkpt>
      <trkpt lat="51.883157" lon="14.535887"></trkpt>
      <trkpt lat="51.881862" lon="14.536657"></trkpt>
      <trkpt lat="51.880401" lon="14.537525"></trkpt>
      <trkpt lat="51.87947" lon="14.538079"></trkpt>
      <trkpt lat="51.878731" lon="14.539322"></trkpt>
      <trkpt lat="51.878571" lon="14.539592"></trkpt>
      <trkpt lat="51.87837" lon="14.539917"></trkpt>
      <trkpt lat="51.878128" lon="14.54031"></trkpt>
      <trkpt lat="51.877776" lon="14.540888"></trkpt>
      <trkpt lat="51.87762" lon="14.541145"></trkpt>
      <trkpt lat="51.877479" lon="14.541377"></trkpt>
      <trkpt lat="51.877358" lon="14.541578"></trkpt>
      <trkpt lat="51.876549" lon="14.542869"></trkpt>
      <trkpt lat="51.876226" lon="14.543386"></trkpt>
      <trkpt lat="51.87562" lon="14.544386"></trkpt>
      <trkpt lat="51.875463" lon="14.544635"></trkpt>
      <trkpt lat="51.875154" lon="14.544146"></trkpt>
      <trkpt lat="51.87504" lon="14.543966"></trkpt>
      <trkpt lat="51.874895" lon="14.543736"></trkpt>
      <trkpt lat="51.874714" lon="14.543449"></trkpt>
      <trkpt lat="51.874511" lon="14.543122"></trkpt>
      <trkpt lat="51.874677" lon="14.542859"></trkpt>
      <trkpt lat="51.874132" lon="14.541811"></trkpt>
      <trkpt lat="51.874023" lon="14.54158"></trkpt>
      <trkpt lat="51.87376" lon="14.541025"></trkpt>
      <trkpt lat="51.873577" lon="14.540498"></trkpt>
      <trkpt lat="51.873496" lon="14.540276"></trkpt>
    </trkseg>
  </trk>
</gpx>