<?xml version="1.0" encoding="UTF-8"?>
<gpx version="1.1" creator="Lehrfahrer Linieneditor" xmlns="http://www.topografix.com/GPX/1/1">
  <metadata>
    <name>800 - 01 - Hauptbahnhof – Hoyerswerda, Bahnhof6</name>
    <desc>Export aus dem Lehrfahrer Linieneditor | Farbe: #d32f2f</desc>
  </metadata>
  <wpt lat="51.74992" lon="14.327379">
    <name>Hauptbahnhof</name>
    <cmt>SollMinute:0;Stop:1</cmt>
    <desc>Stopp 1 | SollMinute: 0</desc>
  </wpt>
  <wpt lat="51.74392" lon="14.326532">
    <name>Thiemstraße/Klinikum</name>
    <cmt>SollMinute:0;Stop:2</cmt>
    <desc>Stopp 2 | SollMinute: 0</desc>
  </wpt>
  <wpt lat="51.73712" lon="14.335941">
    <name>Südfriedhof</name>
    <cmt>SollMinute:0;Stop:3</cmt>
    <desc>Stopp 3 | SollMinute: 0</desc>
  </wpt>
  <wpt lat="51.7199" lon="14.347195">
    <name>Cottbus, Madlow Gaglower Landstr.6</name>
    <cmt>SollMinute:0;Stop:4</cmt>
    <desc>Stopp 4 | SollMinute: 0</desc>
  </wpt>
  <wpt lat="51.713993" lon="14.352493">
    <name>Cottbus, Gallinchen Spreewiesen6</name>
    <cmt>SollMinute:0;Stop:5</cmt>
    <desc>Stopp 5 | SollMinute: 0</desc>
  </wpt>
  <wpt lat="51.709602" lon="14.356656">
    <name>Cottbus, Gallinchen Friedensplatz6</name>
    <cmt>SollMinute:0;Stop:6</cmt>
    <desc>Stopp 6 | SollMinute: 0</desc>
  </wpt>
  <wpt lat="51.705208" lon="14.360603">
    <name>Cottbus, Gallinchen Spremberger Ring6</name>
    <cmt>SollMinute:0;Stop:7</cmt>
    <desc>Stopp 7 | SollMinute: 0</desc>
  </wpt>
  <wpt lat="51.684036" lon="14.35866">
    <name>Neuhausen/Spree, OT Groß Oßnig, Siedlung</name>
    <cmt>SollMinute:0;Stop:8</cmt>
    <desc>Stopp 8 | SollMinute: 0</desc>
  </wpt>
  <wpt lat="51.678116" lon="14.356878">
    <name>Neuhausen/Spree, OT Groß Oßnig, Dorfstr. 6</name>
    <cmt>SollMinute:0;Stop:9</cmt>
    <desc>Stopp 9 | SollMinute: 0</desc>
  </wpt>
  <wpt lat="51.66017" lon="14.359516">
    <name>Neuhausen/Spree, OT Klein Döbbern, B97 6</name>
    <cmt>SollMinute:0;Stop:10</cmt>
    <desc>Stopp 10 | SollMinute: 0</desc>
  </wpt>
  <wpt lat="51.650696" lon="14.361237">
    <name>Neuhausen/Spree, OT Klein Döbbern, Schäferberg</name>
    <cmt>SollMinute:0;Stop:11</cmt>
    <desc>Stopp 11 | SollMinute: 0</desc>
  </wpt>
  <wpt lat="51.610268" lon="14.363246">
    <name>Spremberg, OT Sellessen, Bühlow, B 97 Abzweig Bühlow6</name>
    <cmt>SollMinute:0;Stop:12</cmt>
    <desc>Stopp 12 | SollMinute: 0</desc>
  </wpt>
  <wpt lat="51.585007" lon="14.359948">
    <name>Spremberg, Cantdorf Gärtnerei1</name>
    <cmt>SollMinute:0;Stop:13</cmt>
    <desc>Stopp 13 | SollMinute: 0</desc>
  </wpt>
  <wpt lat="51.571003" lon="14.367552">
    <name>Spremberg, Schwimmhalle6</name>
    <cmt>SollMinute:0;Stop:14</cmt>
    <desc>Stopp 14 | SollMinute: 0</desc>
  </wpt>
  <wpt lat="51.56862" lon="14.375008">
    <name>Spremberg, Busbahnhof 2A</name>
    <cmt>SollMinute:0;Stop:15</cmt>
    <desc>Stopp 15 | SollMinute: 0</desc>
  </wpt>
  <wpt lat="51.5752" lon="14.396791">
    <name>Spremberg Bahnhof</name>
    <cmt>SollMinute:0;Stop:16</cmt>
    <desc>Stopp 16 | SollMinute: 0</desc>
  </wpt>
  <wpt lat="51.56875" lon="14.374837">
    <name>Spremberg, Busbahnhof 2B</name>
    <cmt>SollMinute:0;Stop:17</cmt>
    <desc>Stopp 17 | SollMinute: 0</desc>
  </wpt>
  <wpt lat="51.56452" lon="14.363013">
    <name>Spremberg, Hoyerswerdaer Str.6</name>
    <cmt>SollMinute:0;Stop:18</cmt>
    <desc>Stopp 18 | SollMinute: 0</desc>
  </wpt>
  <wpt lat="51.558834" lon="14.355019">
    <name>Spremberg, Südwest6</name>
    <cmt>SollMinute:0;Stop:19</cmt>
    <desc>Stopp 19 | SollMinute: 0</desc>
  </wpt>
  <wpt lat="51.55544" lon="14.351103">
    <name>Spremberg, OT Schwarze Pumpe, Märzschäfereiweg 6</name>
    <cmt>SollMinute:0;Stop:20</cmt>
    <desc>Stopp 20 | SollMinute: 0</desc>
  </wpt>
  <wpt lat="51.54736" lon="14.344616">
    <name>Spremberg, OT Schwarze Pumpe, Kinderdomizil 6</name>
    <cmt>SollMinute:0;Stop:21</cmt>
    <desc>Stopp 21 | SollMinute: 0</desc>
  </wpt>
  <wpt lat="51.53561" lon="14.341374">
    <name>Spremberg, OT Schwarze Pumpe, Nord6</name>
    <cmt>SollMinute:0;Stop:22</cmt>
    <desc>Stopp 22 | SollMinute: 0</desc>
  </wpt>
  <wpt lat="51.528076" lon="14.336995">
    <name>Spremberg, OT Schwarze Pumpe, Gasthaus6</name>
    <cmt>SollMinute:0;Stop:23</cmt>
    <desc>Stopp 23 | SollMinute: 0</desc>
  </wpt>
  <wpt lat="51.52455" lon="14.334753">
    <name>Spremberg, OT Schwarze Pumpe, Mitte6</name>
    <cmt>SollMinute:0;Stop:24</cmt>
    <desc>Stopp 24 | SollMinute: 0</desc>
  </wpt>
  <wpt lat="51.520195" lon="14.338147">
    <name>Spremberg, OT Schwarze Pumpe, Busbahnhof</name>
    <cmt>SollMinute:0;Stop:25</cmt>
    <desc>Stopp 25 | SollMinute: 0</desc>
  </wpt>
  <wpt lat="51.51913" lon="14.331652">
    <name>Spremberg, OT Schwarze Pumpe, Süd6</name>
    <cmt>SollMinute:0;Stop:26</cmt>
    <desc>Stopp 26 | SollMinute: 0</desc>
  </wpt>
  <wpt lat="51.511032" lon="14.326374">
    <name>Spreetal, Wohnlager II6</name>
    <cmt>SollMinute:0;Stop:27</cmt>
    <desc>Stopp 27 | SollMinute: 0</desc>
  </wpt>
  <wpt lat="51.500134" lon="14.338531">
    <name>Spreetal, Werk6</name>
    <cmt>SollMinute:0;Stop:28</cmt>
    <desc>Stopp 28 | SollMinute: 0</desc>
  </wpt>
  <wpt lat="51.45296" lon="14.268175">
    <name>Hoyerswerda, Cottbuser Tor6</name>
    <cmt>SollMinute:0;Stop:29</cmt>
    <desc>Stopp 29 | SollMinute: 0</desc>
  </wpt>
  <wpt lat="51.44288" lon="14.271706">
    <name>Hoyerswerda, Klinikum1</name>
    <cmt>SollMinute:0;Stop:30</cmt>
    <desc>Stopp 30 | SollMinute: 0</desc>
  </wpt>
  <wpt lat="51.43874" lon="14.263055">
    <name>Hoyerswerda, Lausitzer Platz6</name>
    <cmt>SollMinute:0;Stop:31</cmt>
    <desc>Stopp 31 | SollMinute: 0</desc>
  </wpt>
  <wpt lat="51.43517" lon="14.245978">
    <name>Hoyerswerda, Behördenpark1</name>
    <cmt>SollMinute:0;Stop:32</cmt>
    <desc>Stopp 32 | SollMinute: 0</desc>
  </wpt>
  <wpt lat="51.433025" lon="14.231129">
    <name>Hoyerswerda, Bahnhof6</name>
    <cmt>SollMinute:0;Stop:33</cmt>
    <desc>Stopp 33 | SollMinute: 0</desc>
  </wpt>
  <trk>
    <name>800 - 01 - Hauptbahnhof – Hoyerswerda, Bahnhof6</name>
    <desc>Route für Maps.me Offline-Nutzung</desc>
    <trkseg>
      <trkpt lat="51.74993" lon="14.327331"></trkpt>
      <trkpt lat="51.74992" lon="14.327004"></trkpt>
      <trkpt lat="51.749907" lon="14.326537"></trkpt>
      <trkpt lat="51.749904" lon="14.326456"></trkpt>
      <trkpt lat="51.749902" lon="14.326325"></trkpt>
      <trkpt lat="51.749786" lon="14.326333"></trkpt>
      <trkpt lat="51.7497" lon="14.32634"></trkpt>
      <trkpt lat="51.74963" lon="14.326336"></trkpt>
      <trkpt lat="51.749546" lon="14.326316"></trkpt>
      <trkpt lat="51.749514" lon="14.326307"></trkpt>
      <trkpt lat="51.74944" lon="14.326289"></trkpt>
      <trkpt lat="51.749413" lon="14.326491"></trkpt>
      <trkpt lat="51.749406" lon="14.326542"></trkpt>
      <trkpt lat="51.749402" lon="14.32657"></trkpt>
      <trkpt lat="51.749381" lon="14.326736"></trkpt>
      <trkpt lat="51.749329" lon="14.327144"></trkpt>
      <trkpt lat="51.749285" lon="14.327578"></trkpt>
      <trkpt lat="51.749261" lon="14.32782"></trkpt>
      <trkpt lat="51.749244" lon="14.327989"></trkpt>
      <trkpt lat="51.749233" lon="14.328121"></trkpt>
      <trkpt lat="51.749221" lon="14.328266"></trkpt>
      <trkpt lat="51.749217" lon="14.32833"></trkpt>
      <trkpt lat="51.749177" lon="14.328324"></trkpt>
      <trkpt lat="51.749118" lon="14.328316"></trkpt>
      <trkpt lat="51.748893" lon="14.328295"></trkpt>
      <trkpt lat="51.74875" lon="14.328288"></trkpt>
      <trkpt lat="51.748462" lon="14.328268"></trkpt>
      <trkpt lat="51.748081" lon="14.32826"></trkpt>
      <trkpt lat="51.74803" lon="14.328264"></trkpt>
      <trkpt lat="51.747971" lon="14.328268"></trkpt>
      <trkpt lat="51.747902" lon="14.328283"></trkpt>
      <trkpt lat="51.747798" lon="14.328304"></trkpt>
      <trkpt lat="51.747635" lon="14.328287"></trkpt>
      <trkpt lat="51.747545" lon="14.328273"></trkpt>
      <trkpt lat="51.74737" lon="14.328246"></trkpt>
      <trkpt lat="51.746739" lon="14.328132"></trkpt>
      <trkpt lat="51.746522" lon="14.328076"></trkpt>
      <trkpt lat="51.746373" lon="14.328026"></trkpt>
      <trkpt lat="51.746188" lon="14.327955"></trkpt>
      <trkpt lat="51.746" lon="14.327867"></trkpt>
      <trkpt lat="51.745481" lon="14.327566"></trkpt>
      <trkpt lat="51.745455" lon="14.327551"></trkpt>
      <trkpt lat="51.745183" lon="14.327391"></trkpt>
      <trkpt lat="51.744636" lon="14.32706"></trkpt>
      <trkpt lat="51.744608" lon="14.327043"></trkpt>
      <trkpt lat="51.744494" lon="14.326973"></trkpt>
      <trkpt lat="51.7444" lon="14.326892"></trkpt>
      <trkpt lat="51.744203" lon="14.326808"></trkpt>
      <trkpt lat="51.74391" lon="14.326562"></trkpt>
      <trkpt lat="51.744203" lon="14.326808"></trkpt>
      <trkpt lat="51.7444" lon="14.326892"></trkpt>
      <trkpt lat="51.7444" lon="14.326949"></trkpt>
      <trkpt lat="51.744401" lon="14.326997"></trkpt>
      <trkpt lat="51.744401" lon="14.327064"></trkpt>
      <trkpt lat="51.744403" lon="14.327286"></trkpt>
      <trkpt lat="51.744403" lon="14.327339"></trkpt>
      <trkpt lat="51.744404" lon="14.327627"></trkpt>
      <trkpt lat="51.744405" lon="14.328152"></trkpt>
      <trkpt lat="51.744405" lon="14.32951"></trkpt>
      <trkpt lat="51.744405" lon="14.329587"></trkpt>
      <trkpt lat="51.744405" lon="14.329969"></trkpt>
      <trkpt lat="51.744405" lon="14.330363"></trkpt>
      <trkpt lat="51.744405" lon="14.330555"></trkpt>
      <trkpt lat="51.744405" lon="14.330886"></trkpt>
      <trkpt lat="51.744405" lon="14.331008"></trkpt>
      <trkpt lat="51.744405" lon="14.331089"></trkpt>
      <trkpt lat="51.744442" lon="14.331198"></trkpt>
      <trkpt lat="51.744491" lon="14.331435"></trkpt>
      <trkpt lat="51.74453" lon="14.331618"></trkpt>
      <trkpt lat="51.744535" lon="14.331641"></trkpt>
      <trkpt lat="51.744472" lon="14.331679"></trkpt>
      <trkpt lat="51.74439" lon="14.331723"></trkpt>
      <trkpt lat="51.744147" lon="14.331915"></trkpt>
      <trkpt lat="51.743847" lon="14.332091"></trkpt>
      <trkpt lat="51.74377" lon="14.332136"></trkpt>
      <trkpt lat="51.743653" lon="14.332205"></trkpt>
      <trkpt lat="51.743126" lon="14.33252"></trkpt>
      <trkpt lat="51.742793" lon="14.33272"></trkpt>
      <trkpt lat="51.742627" lon="14.332819"></trkpt>
      <trkpt lat="51.742325" lon="14.332999"></trkpt>
      <trkpt lat="51.741726" lon="14.333349"></trkpt>
      <trkpt lat="51.741405" lon="14.333533"></trkpt>
      <trkpt lat="51.741278" lon="14.333606"></trkpt>
      <trkpt lat="51.741141" lon="14.333688"></trkpt>
      <trkpt lat="51.740947" lon="14.333805"></trkpt>
      <trkpt lat="51.740766" lon="14.333916"></trkpt>
      <trkpt lat="51.740702" lon="14.333954"></trkpt>
      <trkpt lat="51.740411" lon="14.334133"></trkpt>
      <trkpt lat="51.740302" lon="14.334201"></trkpt>
      <trkpt lat="51.740269" lon="14.334221"></trkpt>
      <trkpt lat="51.739475" lon="14.334695"></trkpt>
      <trkpt lat="51.739299" lon="14.334796"></trkpt>
      <trkpt lat="51.739157" lon="14.334875"></trkpt>
      <trkpt lat="51.738977" lon="14.334973"></trkpt>
      <trkpt lat="51.738673" lon="14.335152"></trkpt>
      <trkpt lat="51.738609" lon="14.335189"></trkpt>
      <trkpt lat="51.737911" lon="14.33558"></trkpt>
      <trkpt lat="51.737815" lon="14.335636"></trkpt>
      <trkpt lat="51.737639" lon="14.335735"></trkpt>
      <trkpt lat="51.737593" lon="14.335761"></trkpt>
      <trkpt lat="51.7375" lon="14.335811"></trkpt>
      <trkpt lat="51.737148" lon="14.336016"></trkpt>
      <trkpt lat="51.737138" lon="14.336022"></trkpt>
      <trkpt lat="51.736985" lon="14.33611"></trkpt>
      <trkpt lat="51.736949" lon="14.336136"></trkpt>
      <trkpt lat="51.736768" lon="14.33625"></trkpt>
      <trkpt lat="51.736731" lon="14.336272"></trkpt>
      <trkpt lat="51.736705" lon="14.336287"></trkpt>
      <trkpt lat="51.736109" lon="14.336654"></trkpt>
      <trkpt lat="51.735163" lon="14.337221"></trkpt>
      <trkpt lat="51.734763" lon="14.337435"></trkpt>
      <trkpt lat="51.7346" lon="14.337532"></trkpt>
      <trkpt lat="51.734427" lon="14.337642"></trkpt>
      <trkpt lat="51.733799" lon="14.338035"></trkpt>
      <trkpt lat="51.733761" lon="14.338058"></trkpt>
      <trkpt lat="51.733451" lon="14.338249"></trkpt>
      <trkpt lat="51.733202" lon="14.3384"></trkpt>
      <trkpt lat="51.733099" lon="14.338463"></trkpt>
      <trkpt lat="51.732544" lon="14.338781"></trkpt>
      <trkpt lat="51.732317" lon="14.338918"></trkpt>
      <trkpt lat="51.732213" lon="14.33898"></trkpt>
      <trkpt lat="51.732091" lon="14.33905"></trkpt>
      <trkpt lat="51.731996" lon="14.339105"></trkpt>
      <trkpt lat="51.731764" lon="14.339243"></trkpt>
      <trkpt lat="51.731665" lon="14.339303"></trkpt>
      <trkpt lat="51.731574" lon="14.339358"></trkpt>
      <trkpt lat="51.73144" lon="14.339442"></trkpt>
      <trkpt lat="51.731041" lon="14.339681"></trkpt>
      <trkpt lat="51.729798" lon="14.340415"></trkpt>
      <trkpt lat="51.729422" lon="14.340621"></trkpt>
      <trkpt lat="51.72928" lon="14.340699"></trkpt>
      <trkpt lat="51.729098" lon="14.340807"></trkpt>
      <trkpt lat="51.728714" lon="14.341026"></trkpt>
      <trkpt lat="51.728367" lon="14.341222"></trkpt>
      <trkpt lat="51.72817" lon="14.341341"></trkpt>
      <trkpt lat="51.727996" lon="14.341466"></trkpt>
      <trkpt lat="51.727819" lon="14.341579"></trkpt>
      <trkpt lat="51.727703" lon="14.341648"></trkpt>
      <trkpt lat="51.727057" lon="14.342039"></trkpt>
      <trkpt lat="51.726391" lon="14.342434"></trkpt>
      <trkpt lat="51.7258" lon="14.342751"></trkpt>
      <trkpt lat="51.725754" lon="14.342778"></trkpt>
      <trkpt lat="51.725663" lon="14.342831"></trkpt>
      <trkpt lat="51.725566" lon="14.342886"></trkpt>
      <trkpt lat="51.725335" lon="14.343019"></trkpt>
      <trkpt lat="51.725242" lon="14.343073"></trkpt>
      <trkpt lat="51.72516" lon="14.34312"></trkpt>
      <trkpt lat="51.725052" lon="14.343183"></trkpt>
      <trkpt lat="51.724862" lon="14.343317"></trkpt>
      <trkpt lat="51.724762" lon="14.343387"></trkpt>
      <trkpt lat="51.72441" lon="14.343614"></trkpt>
      <trkpt lat="51.724297" lon="14.343698"></trkpt>
      <trkpt lat="51.72397" lon="14.34393"></trkpt>
      <trkpt lat="51.723669" lon="14.344151"></trkpt>
      <trkpt lat="51.722522" lon="14.344992"></trkpt>
      <trkpt lat="51.721837" lon="14.345549"></trkpt>
      <trkpt lat="51.721409" lon="14.345921"></trkpt>
      <trkpt lat="51.721306" lon="14.346011"></trkpt>
      <trkpt lat="51.721285" lon="14.346028"></trkpt>
      <trkpt lat="51.721154" lon="14.346142"></trkpt>
      <trkpt lat="51.721094" lon="14.34619"></trkpt>
      <trkpt lat="51.721057" lon="14.346222"></trkpt>
      <trkpt lat="51.721016" lon="14.346257"></trkpt>
      <trkpt lat="51.720961" lon="14.346307"></trkpt>
      <trkpt lat="51.720854" lon="14.346397"></trkpt>
      <trkpt lat="51.720666" lon="14.346563"></trkpt>
      <trkpt lat="51.720489" lon="14.34673"></trkpt>
      <trkpt lat="51.720273" lon="14.346916"></trkpt>
      <trkpt lat="51.720245" lon="14.34694"></trkpt>
      <trkpt lat="51.720126" lon="14.347051"></trkpt>
      <trkpt lat="51.719941" lon="14.34722"></trkpt>
      <trkpt lat="51.719917" lon="14.347242"></trkpt>
      <trkpt lat="51.719623" lon="14.34751"></trkpt>
      <trkpt lat="51.719538" lon="14.347585"></trkpt>
      <trkpt lat="51.719091" lon="14.347987"></trkpt>
      <trkpt lat="51.718664" lon="14.348348"></trkpt>
      <trkpt lat="51.718291" lon="14.348675"></trkpt>
      <trkpt lat="51.71821" lon="14.348749"></trkpt>
      <trkpt lat="51.717805" lon="14.349123"></trkpt>
      <trkpt lat="51.717239" lon="14.349646"></trkpt>
      <trkpt lat="51.716925" lon="14.349927"></trkpt>
      <trkpt lat="51.716653" lon="14.350165"></trkpt>
      <trkpt lat="51.716442" lon="14.350352"></trkpt>
      <trkpt lat="51.716173" lon="14.35059"></trkpt>
      <trkpt lat="51.716035" lon="14.35071"></trkpt>
      <trkpt lat="51.715954" lon="14.350784"></trkpt>
      <trkpt lat="51.71584" lon="14.350886"></trkpt>
      <trkpt lat="51.715515" lon="14.351195"></trkpt>
      <trkpt lat="51.715267" lon="14.351417"></trkpt>
      <trkpt lat="51.71476" lon="14.351873"></trkpt>
      <trkpt lat="51.714634" lon="14.351979"></trkpt>
      <trkpt lat="51.714579" lon="14.352027"></trkpt>
      <trkpt lat="51.714491" lon="14.352112"></trkpt>
      <trkpt lat="51.714314" lon="14.352271"></trkpt>
      <trkpt lat="51.714288" lon="14.352295"></trkpt>
      <trkpt lat="51.714128" lon="14.352439"></trkpt>
      <trkpt lat="51.714011" lon="14.352544"></trkpt>
      <trkpt lat="51.714003" lon="14.352551"></trkpt>
      <trkpt lat="51.713903" lon="14.352645"></trkpt>
      <trkpt lat="51.713294" lon="14.353226"></trkpt>
      <trkpt lat="51.712924" lon="14.353563"></trkpt>
      <trkpt lat="51.712618" lon="14.353855"></trkpt>
      <trkpt lat="51.711901" lon="14.35453"></trkpt>
      <trkpt lat="51.711155" lon="14.355238"></trkpt>
      <trkpt lat="51.710972" lon="14.355415"></trkpt>
      <trkpt lat="51.710707" lon="14.355668"></trkpt>
      <trkpt lat="51.710283" lon="14.356089"></trkpt>
      <trkpt lat="51.710083" lon="14.356291"></trkpt>
      <trkpt lat="51.70962" lon="14.35671"></trkpt>
      <trkpt lat="51.709364" lon="14.356947"></trkpt>
      <trkpt lat="51.709196" lon="14.357102"></trkpt>
      <trkpt lat="51.709109" lon="14.357178"></trkpt>
      <trkpt lat="51.708942" lon="14.357327"></trkpt>
      <trkpt lat="51.708679" lon="14.357569"></trkpt>
      <trkpt lat="51.708296" lon="14.357918"></trkpt>
      <trkpt lat="51.708156" lon="14.358043"></trkpt>
      <trkpt lat="51.70804" lon="14.358147"></trkpt>
      <trkpt lat="51.707717" lon="14.358437"></trkpt>
      <trkpt lat="51.707412" lon="14.35871"></trkpt>
      <trkpt lat="51.706064" lon="14.359925"></trkpt>
      <trkpt lat="51.705441" lon="14.360486"></trkpt>
      <trkpt lat="51.705392" lon="14.360531"></trkpt>
      <trkpt lat="51.705279" lon="14.360632"></trkpt>
      <trkpt lat="51.705233" lon="14.360674"></trkpt>
      <trkpt lat="51.705137" lon="14.36076"></trkpt>
      <trkpt lat="51.704529" lon="14.361307"></trkpt>
      <trkpt lat="51.70429" lon="14.361498"></trkpt>
      <trkpt lat="51.70406" lon="14.361657"></trkpt>
      <trkpt lat="51.703797" lon="14.361802"></trkpt>
      <trkpt lat="51.703603" lon="14.361891"></trkpt>
      <trkpt lat="51.703335" lon="14.361995"></trkpt>
      <trkpt lat="51.703175" lon="14.362044"></trkpt>
      <trkpt lat="51.703003" lon="14.362056"></trkpt>
      <trkpt lat="51.70284" lon="14.362063"></trkpt>
      <trkpt lat="51.702464" lon="14.362085"></trkpt>
      <trkpt lat="51.702133" lon="14.362057"></trkpt>
      <trkpt lat="51.701883" lon="14.362026"></trkpt>
      <trkpt lat="51.701847" lon="14.362021"></trkpt>
      <trkpt lat="51.700809" lon="14.361832"></trkpt>
      <trkpt lat="51.70012" lon="14.361724"></trkpt>
      <trkpt lat="51.699874" lon="14.361686"></trkpt>
      <trkpt lat="51.699356" lon="14.361605"></trkpt>
      <trkpt lat="51.6988" lon="14.361489"></trkpt>
      <trkpt lat="51.697873" lon="14.361323"></trkpt>
      <trkpt lat="51.6952" lon="14.36081"></trkpt>
      <trkpt lat="51.694872" lon="14.360753"></trkpt>
      <trkpt lat="51.694627" lon="14.360708"></trkpt>
      <trkpt lat="51.693172" lon="14.360439"></trkpt>
      <trkpt lat="51.69191" lon="14.360204"></trkpt>
      <trkpt lat="51.691833" lon="14.360194"></trkpt>
      <trkpt lat="51.691392" lon="14.360087"></trkpt>
      <trkpt lat="51.690861" lon="14.360009"></trkpt>
      <trkpt lat="51.690237" lon="14.359899"></trkpt>
      <trkpt lat="51.689114" lon="14.359691"></trkpt>
      <trkpt lat="51.688863" lon="14.359636"></trkpt>
      <trkpt lat="51.688478" lon="14.359552"></trkpt>
      <trkpt lat="51.688188" lon="14.359506"></trkpt>
      <trkpt lat="51.688063" lon="14.359486"></trkpt>
      <trkpt lat="51.687492" lon="14.359385"></trkpt>
      <trkpt lat="51.686887" lon="14.359266"></trkpt>
      <trkpt lat="51.686804" lon="14.359249"></trkpt>
      <trkpt lat="51.686237" lon="14.359135"></trkpt>
      <trkpt lat="51.685604" lon="14.359031"></trkpt>
      <trkpt lat="51.685128" lon="14.358987"></trkpt>
      <trkpt lat="51.684726" lon="14.3589"></trkpt>
      <trkpt lat="51.684399" lon="14.358832"></trkpt>
      <trkpt lat="51.684264" lon="14.358803"></trkpt>
      <trkpt lat="51.684028" lon="14.358751"></trkpt>
      <trkpt lat="51.684013" lon="14.358748"></trkpt>
      <trkpt lat="51.683892" lon="14.358722"></trkpt>
      <trkpt lat="51.683735" lon="14.35869"></trkpt>
      <trkpt lat="51.683597" lon="14.358663"></trkpt>
      <trkpt lat="51.683455" lon="14.358637"></trkpt>
      <trkpt lat="51.682975" lon="14.358555"></trkpt>
      <trkpt lat="51.680647" lon="14.358146"></trkpt>
      <trkpt lat="51.680075" lon="14.357983"></trkpt>
      <trkpt lat="51.679874" lon="14.357902"></trkpt>
      <trkpt lat="51.679538" lon="14.357726"></trkpt>
      <trkpt lat="51.67934" lon="14.357606"></trkpt>
      <trkpt lat="51.67885" lon="14.357245"></trkpt>
      <trkpt lat="51.678746" lon="14.35717"></trkpt>
      <trkpt lat="51.678735" lon="14.357162"></trkpt>
      <trkpt lat="51.678684" lon="14.357126"></trkpt>
      <trkpt lat="51.678531" lon="14.357016"></trkpt>
      <trkpt lat="51.678498" lon="14.356992"></trkpt>
      <trkpt lat="51.678477" lon="14.356977"></trkpt>
      <trkpt lat="51.678414" lon="14.356939"></trkpt>
      <trkpt lat="51.678321" lon="14.356932"></trkpt>
      <trkpt lat="51.67821" lon="14.356907"></trkpt>
      <trkpt lat="51.678122" lon="14.356854"></trkpt>
      <trkpt lat="51.678115" lon="14.35685"></trkpt>
      <trkpt lat="51.677979" lon="14.356759"></trkpt>
      <trkpt lat="51.67786" lon="14.356586"></trkpt>
      <trkpt lat="51.677752" lon="14.356515"></trkpt>
      <trkpt lat="51.677504" lon="14.35635"></trkpt>
      <trkpt lat="51.67733" lon="14.356253"></trkpt>
      <trkpt lat="51.677124" lon="14.356148"></trkpt>
      <trkpt lat="51.676846" lon="14.356006"></trkpt>
      <trkpt lat="51.676233" lon="14.355824"></trkpt>
      <trkpt lat="51.676038" lon="14.355776"></trkpt>
      <trkpt lat="51.675875" lon="14.355766"></trkpt>
      <trkpt lat="51.675795" lon="14.355765"></trkpt>
      <trkpt lat="51.67566" lon="14.355763"></trkpt>
      <trkpt lat="51.675135" lon="14.35581"></trkpt>
      <trkpt lat="51.674409" lon="14.355982"></trkpt>
      <trkpt lat="51.673749" lon="14.356143"></trkpt>
      <trkpt lat="51.670638" lon="14.356899"></trkpt>
      <trkpt lat="51.669596" lon="14.357161"></trkpt>
      <trkpt lat="51.668338" lon="14.357487"></trkpt>
      <trkpt lat="51.668016" lon="14.357567"></trkpt>
      <trkpt lat="51.666624" lon="14.357915"></trkpt>
      <trkpt lat="51.665318" lon="14.358252"></trkpt>
      <trkpt lat="51.664207" lon="14.35854"></trkpt>
      <trkpt lat="51.663791" lon="14.358647"></trkpt>
      <trkpt lat="51.66046" lon="14.359471"></trkpt>
      <trkpt lat="51.660215" lon="14.359531"></trkpt>
      <trkpt lat="51.660173" lon="14.359542"></trkpt>
      <trkpt lat="51.660132" lon="14.359552"></trkpt>
      <trkpt lat="51.660059" lon="14.359572"></trkpt>
      <trkpt lat="51.659657" lon="14.359686"></trkpt>
      <trkpt lat="51.659084" lon="14.359829"></trkpt>
      <trkpt lat="51.65843" lon="14.360014"></trkpt>
      <trkpt lat="51.657849" lon="14.360161"></trkpt>
      <trkpt lat="51.657686" lon="14.360205"></trkpt>
      <trkpt lat="51.656739" lon="14.360463"></trkpt>
      <trkpt lat="51.655205" lon="14.360849"></trkpt>
      <trkpt lat="51.654399" lon="14.361025"></trkpt>
      <trkpt lat="51.653406" lon="14.36109"></trkpt>
      <trkpt lat="51.652242" lon="14.361185"></trkpt>
      <trkpt lat="51.65143" lon="14.361218"></trkpt>
      <trkpt lat="51.651176" lon="14.361238"></trkpt>
      <trkpt lat="51.650767" lon="14.361271"></trkpt>
      <trkpt lat="51.650725" lon="14.361275"></trkpt>
      <trkpt lat="51.650648" lon="14.361278"></trkpt>
      <trkpt lat="51.650184" lon="14.361299"></trkpt>
      <trkpt lat="51.644641" lon="14.361575"></trkpt>
      <trkpt lat="51.64299" lon="14.361662"></trkpt>
      <trkpt lat="51.642099" lon="14.361708"></trkpt>
      <trkpt lat="51.641776" lon="14.361727"></trkpt>
      <trkpt lat="51.640976" lon="14.361749"></trkpt>
      <trkpt lat="51.64012" lon="14.361773"></trkpt>
      <trkpt lat="51.638373" lon="14.361845"></trkpt>
      <trkpt lat="51.637004" lon="14.361904"></trkpt>
      <trkpt lat="51.63686" lon="14.361912"></trkpt>
      <trkpt lat="51.634111" lon="14.362062"></trkpt>
      <trkpt lat="51.633689" lon="14.362079"></trkpt>
      <trkpt lat="51.632942" lon="14.362115"></trkpt>
      <trkpt lat="51.632543" lon="14.362134"></trkpt>
      <trkpt lat="51.631791" lon="14.362169"></trkpt>
      <trkpt lat="51.631727" lon="14.36217"></trkpt>
      <trkpt lat="51.631385" lon="14.362181"></trkpt>
      <trkpt lat="51.626861" lon="14.362406"></trkpt>
      <trkpt lat="51.625605" lon="14.362473"></trkpt>
      <trkpt lat="51.625565" lon="14.362475"></trkpt>
      <trkpt lat="51.625289" lon="14.36249"></trkpt>
      <trkpt lat="51.624998" lon="14.362502"></trkpt>
      <trkpt lat="51.624955" lon="14.362504"></trkpt>
      <trkpt lat="51.624609" lon="14.362519"></trkpt>
      <trkpt lat="51.624296" lon="14.362539"></trkpt>
      <trkpt lat="51.622999" lon="14.362603"></trkpt>
      <trkpt lat="51.622246" lon="14.362637"></trkpt>
      <trkpt lat="51.621399" lon="14.362692"></trkpt>
      <trkpt lat="51.6204" lon="14.362794"></trkpt>
      <trkpt lat="51.620162" lon="14.362809"></trkpt>
      <trkpt lat="51.619574" lon="14.362845"></trkpt>
      <trkpt lat="51.619015" lon="14.362862"></trkpt>
      <trkpt lat="51.612949" lon="14.363179"></trkpt>
      <trkpt lat="51.612306" lon="14.363203"></trkpt>
      <trkpt lat="51.612175" lon="14.363209"></trkpt>
      <trkpt lat="51.611622" lon="14.363223"></trkpt>
      <trkpt lat="51.611428" lon="14.363239"></trkpt>
      <trkpt lat="51.611261" lon="14.363248"></trkpt>
      <trkpt lat="51.610974" lon="14.363264"></trkpt>
      <trkpt lat="51.610704" lon="14.363275"></trkpt>
      <trkpt lat="51.610398" lon="14.363284"></trkpt>
      <trkpt lat="51.610346" lon="14.363286"></trkpt>
      <trkpt lat="51.610272" lon="14.363288"></trkpt>
      <trkpt lat="51.609804" lon="14.363303"></trkpt>
      <trkpt lat="51.604487" lon="14.363586"></trkpt>
      <trkpt lat="51.602097" lon="14.363691"></trkpt>
      <trkpt lat="51.601133" lon="14.363734"></trkpt>
      <trkpt lat="51.600152" lon="14.36379"></trkpt>
      <trkpt lat="51.599781" lon="14.363798"></trkpt>
      <trkpt lat="51.59944" lon="14.363794"></trkpt>
      <trkpt lat="51.598778" lon="14.363634"></trkpt>
      <trkpt lat="51.598378" lon="14.36348"></trkpt>
      <trkpt lat="51.597867" lon="14.363157"></trkpt>
      <trkpt lat="51.597544" lon="14.362903"></trkpt>
      <trkpt lat="51.597533" lon="14.362895"></trkpt>
      <trkpt lat="51.597429" lon="14.362813"></trkpt>
      <trkpt lat="51.597365" lon="14.362972"></trkpt>
      <trkpt lat="51.59731" lon="14.363108"></trkpt>
      <trkpt lat="51.597172" lon="14.363377"></trkpt>
      <trkpt lat="51.597023" lon="14.36352"></trkpt>
      <trkpt lat="51.596896" lon="14.363582"></trkpt>
      <trkpt lat="51.596857" lon="14.363601"></trkpt>
      <trkpt lat="51.596701" lon="14.363631"></trkpt>
      <trkpt lat="51.596341" lon="14.363583"></trkpt>
      <trkpt lat="51.595968" lon="14.363444"></trkpt>
      <trkpt lat="51.591247" lon="14.362016"></trkpt>
      <trkpt lat="51.590278" lon="14.361748"></trkpt>
      <trkpt lat="51.590087" lon="14.361695"></trkpt>
      <trkpt lat="51.589625" lon="14.361558"></trkpt>
      <trkpt lat="51.58842" lon="14.3612"></trkpt>
      <trkpt lat="51.587733" lon="14.360958"></trkpt>
      <trkpt lat="51.587536" lon="14.360868"></trkpt>
      <trkpt lat="51.587231" lon="14.360708"></trkpt>
      <trkpt lat="51.586513" lon="14.360341"></trkpt>
      <trkpt lat="51.586257" lon="14.360231"></trkpt>
      <trkpt lat="51.585927" lon="14.360128"></trkpt>
      <trkpt lat="51.585674" lon="14.360067"></trkpt>
      <trkpt lat="51.585352" lon="14.360024"></trkpt>
      <trkpt lat="51.585211" lon="14.36002"></trkpt>
      <trkpt lat="51.585083" lon="14.360011"></trkpt>
      <trkpt lat="51.585007" lon="14.360009"></trkpt>
      <trkpt lat="51.584988" lon="14.360009"></trkpt>
      <trkpt lat="51.584844" lon="14.36001"></trkpt>
      <trkpt lat="51.584088" lon="14.360062"></trkpt>
      <trkpt lat="51.583355" lon="14.360136"></trkpt>
      <trkpt lat="51.583137" lon="14.360194"></trkpt>
      <trkpt lat="51.581543" lon="14.360937"></trkpt>
      <trkpt lat="51.580929" lon="14.361251"></trkpt>
      <trkpt lat="51.580112" lon="14.361661"></trkpt>
      <trkpt lat="51.580054" lon="14.36169"></trkpt>
      <trkpt lat="51.578505" lon="14.362424"></trkpt>
      <trkpt lat="51.578296" lon="14.362523"></trkpt>
      <trkpt lat="51.577482" lon="14.362951"></trkpt>
      <trkpt lat="51.575524" lon="14.363934"></trkpt>
      <trkpt lat="51.575441" lon="14.36398"></trkpt>
      <trkpt lat="51.57496" lon="14.364246"></trkpt>
      <trkpt lat="51.574725" lon="14.364422"></trkpt>
      <trkpt lat="51.573649" lon="14.365314"></trkpt>
      <trkpt lat="51.573356" lon="14.365584"></trkpt>
      <trkpt lat="51.572376" lon="14.366446"></trkpt>
      <trkpt lat="51.572224" lon="14.366585"></trkpt>
      <trkpt lat="51.572137" lon="14.366663"></trkpt>
      <trkpt lat="51.571749" lon="14.367012"></trkpt>
      <trkpt lat="51.57161" lon="14.367135"></trkpt>
      <trkpt lat="51.57126" lon="14.367436"></trkpt>
      <trkpt lat="51.571102" lon="14.367573"></trkpt>
      <trkpt lat="51.571032" lon="14.367636"></trkpt>
      <trkpt lat="51.570911" lon="14.367744"></trkpt>
      <trkpt lat="51.570717" lon="14.367889"></trkpt>
      <trkpt lat="51.570548" lon="14.367988"></trkpt>
      <trkpt lat="51.570371" lon="14.368084"></trkpt>
      <trkpt lat="51.570203" lon="14.368172"></trkpt>
      <trkpt lat="51.569751" lon="14.368403"></trkpt>
      <trkpt lat="51.569697" lon="14.368431"></trkpt>
      <trkpt lat="51.569598" lon="14.368484"></trkpt>
      <trkpt lat="51.569496" lon="14.368537"></trkpt>
      <trkpt lat="51.569437" lon="14.368566"></trkpt>
      <trkpt lat="51.568862" lon="14.368851"></trkpt>
      <trkpt lat="51.568673" lon="14.368943"></trkpt>
      <trkpt lat="51.568361" lon="14.369106"></trkpt>
      <trkpt lat="51.568235" lon="14.369206"></trkpt>
      <trkpt lat="51.568133" lon="14.369337"></trkpt>
      <trkpt lat="51.56806" lon="14.369431"></trkpt>
      <trkpt lat="51.567995" lon="14.369518"></trkpt>
      <trkpt lat="51.567822" lon="14.369716"></trkpt>
      <trkpt lat="51.56769" lon="14.369803"></trkpt>
      <trkpt lat="51.567575" lon="14.369877"></trkpt>
      <trkpt lat="51.567501" lon="14.369956"></trkpt>
      <trkpt lat="51.56748" lon="14.369996"></trkpt>
      <trkpt lat="51.56746" lon="14.370091"></trkpt>
      <trkpt lat="51.567467" lon="14.370172"></trkpt>
      <trkpt lat="51.567903" lon="14.371517"></trkpt>
      <trkpt lat="51.567932" lon="14.371687"></trkpt>
      <trkpt lat="51.56797" lon="14.37181"></trkpt>
      <trkpt lat="51.568025" lon="14.371985"></trkpt>
      <trkpt lat="51.568066" lon="14.372118"></trkpt>
      <trkpt lat="51.568172" lon="14.372458"></trkpt>
      <trkpt lat="51.568267" lon="14.372773"></trkpt>
      <trkpt lat="51.568279" lon="14.372818"></trkpt>
      <trkpt lat="51.568291" lon="14.372877"></trkpt>
      <trkpt lat="51.568298" lon="14.372933"></trkpt>
      <trkpt lat="51.568306" lon="14.372997"></trkpt>
      <trkpt lat="51.568318" lon="14.373151"></trkpt>
      <trkpt lat="51.568315" lon="14.37336"></trkpt>
      <trkpt lat="51.568312" lon="14.373482"></trkpt>
      <trkpt lat="51.568308" lon="14.373525"></trkpt>
      <trkpt lat="51.568303" lon="14.373584"></trkpt>
      <trkpt lat="51.568289" lon="14.373645"></trkpt>
      <trkpt lat="51.568271" lon="14.373679"></trkpt>
      <trkpt lat="51.568216" lon="14.373704"></trkpt>
      <trkpt lat="51.568166" lon="14.373747"></trkpt>
      <trkpt lat="51.568134" lon="14.373791"></trkpt>
      <trkpt lat="51.568123" lon="14.373805"></trkpt>
      <trkpt lat="51.568088" lon="14.373876"></trkpt>
      <trkpt lat="51.568065" lon="14.373961"></trkpt>
      <trkpt lat="51.568057" lon="14.373987"></trkpt>
      <trkpt lat="51.568047" lon="14.374107"></trkpt>
      <trkpt lat="51.568055" lon="14.374207"></trkpt>
      <trkpt lat="51.568057" lon="14.374227"></trkpt>
      <trkpt lat="51.56808" lon="14.374317"></trkpt>
      <trkpt lat="51.56811" lon="14.374384"></trkpt>
      <trkpt lat="51.568115" lon="14.374397"></trkpt>
      <trkpt lat="51.568161" lon="14.374462"></trkpt>
      <trkpt lat="51.568214" lon="14.374509"></trkpt>
      <trkpt lat="51.568226" lon="14.374515"></trkpt>
      <trkpt lat="51.568237" lon="14.374571"></trkpt>
      <trkpt lat="51.568245" lon="14.374614"></trkpt>
      <trkpt lat="51.568247" lon="14.374697"></trkpt>
      <trkpt lat="51.568251" lon="14.374793"></trkpt>
      <trkpt lat="51.568256" lon="14.37493"></trkpt>
      <trkpt lat="51.568264" lon="14.37505"></trkpt>
      <trkpt lat="51.568266" lon="14.375074"></trkpt>
      <trkpt lat="51.568292" lon="14.375255"></trkpt>
      <trkpt lat="51.568328" lon="14.375448"></trkpt>
      <trkpt lat="51.568365" lon="14.375599"></trkpt>
      <trkpt lat="51.568416" lon="14.375558"></trkpt>
      <trkpt lat="51.568459" lon="14.375524"></trkpt>
      <trkpt lat="51.568478" lon="14.375509"></trkpt>
      <trkpt lat="51.568477" lon="14.375434"></trkpt>
      <trkpt lat="51.568477" lon="14.375309"></trkpt>
      <trkpt lat="51.568477" lon="14.375191"></trkpt>
      <trkpt lat="51.568605" lon="14.375011"></trkpt>
      <trkpt lat="51.568611" lon="14.375004"></trkpt>
      <trkpt lat="51.56865" lon="14.374948"></trkpt>
      <trkpt lat="51.56869" lon="14.374892"></trkpt>
      <trkpt lat="51.568753" lon="14.374804"></trkpt>
      <trkpt lat="51.56885" lon="14.374669"></trkpt>
      <trkpt lat="51.568876" lon="14.374752"></trkpt>
      <trkpt lat="51.568903" lon="14.374843"></trkpt>
      <trkpt lat="51.568927" lon="14.374926"></trkpt>
      <trkpt lat="51.568968" lon="14.37507"></trkpt>
      <trkpt lat="51.569044" lon="14.375342"></trkpt>
      <trkpt lat="51.569249" lon="14.376082"></trkpt>
      <trkpt lat="51.56892" lon="14.376314"></trkpt>
      <trkpt lat="51.5689" lon="14.376328"></trkpt>
      <trkpt lat="51.568782" lon="14.376411"></trkpt>
      <trkpt lat="51.568727" lon="14.376452"></trkpt>
      <trkpt lat="51.568653" lon="14.376507"></trkpt>
      <trkpt lat="51.568673" lon="14.376585"></trkpt>
      <trkpt lat="51.568762" lon="14.376918"></trkpt>
      <trkpt lat="51.568787" lon="14.37702"></trkpt>
      <trkpt lat="51.568821" lon="14.377163"></trkpt>
      <trkpt lat="51.56887" lon="14.377355"></trkpt>
      <trkpt lat="51.569065" lon="14.378043"></trkpt>
      <trkpt lat="51.569111" lon="14.378178"></trkpt>
      <trkpt lat="51.569164" lon="14.378328"></trkpt>
      <trkpt lat="51.569238" lon="14.378519"></trkpt>
      <trkpt lat="51.569312" lon="14.378704"></trkpt>
      <trkpt lat="51.569353" lon="14.378795"></trkpt>
      <trkpt lat="51.569385" lon="14.378864"></trkpt>
      <trkpt lat="51.569563" lon="14.379293"></trkpt>
      <trkpt lat="51.5698" lon="14.37981"></trkpt>
      <trkpt lat="51.56982" lon="14.379848"></trkpt>
      <trkpt lat="51.569982" lon="14.380218"></trkpt>
      <trkpt lat="51.570176" lon="14.38063"></trkpt>
      <trkpt lat="51.570338" lon="14.380964"></trkpt>
      <trkpt lat="51.570435" lon="14.381126"></trkpt>
      <trkpt lat="51.570457" lon="14.381157"></trkpt>
      <trkpt lat="51.570509" lon="14.381229"></trkpt>
      <trkpt lat="51.570592" lon="14.381322"></trkpt>
      <trkpt lat="51.570577" lon="14.381381"></trkpt>
      <trkpt lat="51.570574" lon="14.381443"></trkpt>
      <trkpt lat="51.570583" lon="14.381505"></trkpt>
      <trkpt lat="51.570604" lon="14.381558"></trkpt>
      <trkpt lat="51.570633" lon="14.3816"></trkpt>
      <trkpt lat="51.570669" lon="14.381625"></trkpt>
      <trkpt lat="51.57071" lon="14.381631"></trkpt>
      <trkpt lat="51.57075" lon="14.381615"></trkpt>
      <trkpt lat="51.570785" lon="14.38158"></trkpt>
      <trkpt lat="51.570811" lon="14.381528"></trkpt>
      <trkpt lat="51.570826" lon="14.381466"></trkpt>
      <trkpt lat="51.570827" lon="14.381399"></trkpt>
      <trkpt lat="51.570815" lon="14.381336"></trkpt>
      <trkpt lat="51.57079" lon="14.381282"></trkpt>
      <trkpt lat="51.570781" lon="14.381271"></trkpt>
      <trkpt lat="51.570757" lon="14.381243"></trkpt>
      <trkpt lat="51.570804" lon="14.381106"></trkpt>
      <trkpt lat="51.570828" lon="14.381033"></trkpt>
      <trkpt lat="51.570886" lon="14.380864"></trkpt>
      <trkpt lat="51.570985" lon="14.38065"></trkpt>
      <trkpt lat="51.57103" lon="14.380575"></trkpt>
      <trkpt lat="51.571136" lon="14.380412"></trkpt>
      <trkpt lat="51.571302" lon="14.380163"></trkpt>
      <trkpt lat="51.571355" lon="14.380085"></trkpt>
      <trkpt lat="51.571392" lon="14.380062"></trkpt>
      <trkpt lat="51.571419" lon="14.380062"></trkpt>
      <trkpt lat="51.571443" lon="14.380068"></trkpt>
      <trkpt lat="51.571484" lon="14.380103"></trkpt>
      <trkpt lat="51.571513" lon="14.380146"></trkpt>
      <trkpt lat="51.571615" lon="14.3804"></trkpt>
      <trkpt lat="51.571672" lon="14.380544"></trkpt>
      <trkpt lat="51.571815" lon="14.380907"></trkpt>
      <trkpt lat="51.571897" lon="14.381122"></trkpt>
      <trkpt lat="51.57197" lon="14.381313"></trkpt>
      <trkpt lat="51.572011" lon="14.381416"></trkpt>
      <trkpt lat="51.572048" lon="14.381521"></trkpt>
      <trkpt lat="51.572261" lon="14.382137"></trkpt>
      <trkpt lat="51.572354" lon="14.382434"></trkpt>
      <trkpt lat="51.572449" lon="14.382735"></trkpt>
      <trkpt lat="51.572488" lon="14.382862"></trkpt>
      <trkpt lat="51.572612" lon="14.383366"></trkpt>
      <trkpt lat="51.572704" lon="14.383883"></trkpt>
      <trkpt lat="51.572753" lon="14.384269"></trkpt>
      <trkpt lat="51.572782" lon="14.384595"></trkpt>
      <trkpt lat="51.572801" lon="14.385146"></trkpt>
      <trkpt lat="51.572786" lon="14.385802"></trkpt>
      <trkpt lat="51.572767" lon="14.38619"></trkpt>
      <trkpt lat="51.572632" lon="14.387162"></trkpt>
      <trkpt lat="51.572583" lon="14.387455"></trkpt>
      <trkpt lat="51.57255" lon="14.387825"></trkpt>
      <trkpt lat="51.572539" lon="14.388744"></trkpt>
      <trkpt lat="51.572586" lon="14.389543"></trkpt>
      <trkpt lat="51.572651" lon="14.389996"></trkpt>
      <trkpt lat="51.57279" lon="14.390663"></trkpt>
      <trkpt lat="51.573062" lon="14.391585"></trkpt>
      <trkpt lat="51.573422" lon="14.392406"></trkpt>
      <trkpt lat="51.57348" lon="14.392537"></trkpt>
      <trkpt lat="51.573731" lon="14.393109"></trkpt>
      <trkpt lat="51.573886" lon="14.393463"></trkpt>
      <trkpt lat="51.574309" lon="14.394411"></trkpt>
      <trkpt lat="51.574437" lon="14.394734"></trkpt>
      <trkpt lat="51.574581" lon="14.395181"></trkpt>
      <trkpt lat="51.574826" lon="14.39593"></trkpt>
      <trkpt lat="51.5749" lon="14.39614"></trkpt>
      <trkpt lat="51.574933" lon="14.396205"></trkpt>
      <trkpt lat="51.574966" lon="14.396237"></trkpt>
      <trkpt lat="51.574939" lon="14.396324"></trkpt>
      <trkpt lat="51.574911" lon="14.396389"></trkpt>
      <trkpt lat="51.574773" lon="14.396561"></trkpt>
      <trkpt lat="51.574897" lon="14.396958"></trkpt>
      <trkpt lat="51.574998" lon="14.396877"></trkpt>
      <trkpt lat="51.57517" lon="14.396738"></trkpt>
      <trkpt lat="51.575181" lon="14.396729"></trkpt>
      <trkpt lat="51.575251" lon="14.396673"></trkpt>
      <trkpt lat="51.575135" lon="14.396301"></trkpt>
      <trkpt lat="51.575107" lon="14.396211"></trkpt>
      <trkpt lat="51.575058" lon="14.396244"></trkpt>
      <trkpt lat="51.575025" lon="14.396258"></trkpt>
      <trkpt lat="51.574998" lon="14.396257"></trkpt>
      <trkpt lat="51.574966" lon="14.396237"></trkpt>
      <trkpt lat="51.574933" lon="14.396205"></trkpt>
      <trkpt lat="51.5749" lon="14.39614"></trkpt>
      <trkpt lat="51.574826" lon="14.39593"></trkpt>
      <trkpt lat="51.574581" lon="14.395181"></trkpt>
      <trkpt lat="51.574437" lon="14.394734"></trkpt>
      <trkpt lat="51.574309" lon="14.394411"></trkpt>
      <trkpt lat="51.573886" lon="14.393463"></trkpt>
      <trkpt lat="51.573731" lon="14.393109"></trkpt>
      <trkpt lat="51.57348" lon="14.392537"></trkpt>
      <trkpt lat="51.573422" lon="14.392406"></trkpt>
      <trkpt lat="51.573062" lon="14.391585"></trkpt>
      <trkpt lat="51.57279" lon="14.390663"></trkpt>
      <trkpt lat="51.572651" lon="14.389996"></trkpt>
      <trkpt lat="51.572586" lon="14.389543"></trkpt>
      <trkpt lat="51.572539" lon="14.388744"></trkpt>
      <trkpt lat="51.57255" lon="14.387825"></trkpt>
      <trkpt lat="51.572583" lon="14.387455"></trkpt>
      <trkpt lat="51.572632" lon="14.387162"></trkpt>
      <trkpt lat="51.572767" lon="14.38619"></trkpt>
      <trkpt lat="51.572786" lon="14.385802"></trkpt>
      <trkpt lat="51.572801" lon="14.385146"></trkpt>
      <trkpt lat="51.572782" lon="14.384595"></trkpt>
      <trkpt lat="51.572753" lon="14.384269"></trkpt>
      <trkpt lat="51.572704" lon="14.383883"></trkpt>
      <trkpt lat="51.572612" lon="14.383366"></trkpt>
      <trkpt lat="51.572488" lon="14.382862"></trkpt>
      <trkpt lat="51.572449" lon="14.382735"></trkpt>
      <trkpt lat="51.572354" lon="14.382434"></trkpt>
      <trkpt lat="51.572261" lon="14.382137"></trkpt>
      <trkpt lat="51.572048" lon="14.381521"></trkpt>
      <trkpt lat="51.572011" lon="14.381416"></trkpt>
      <trkpt lat="51.57197" lon="14.381313"></trkpt>
      <trkpt lat="51.571897" lon="14.381122"></trkpt>
      <trkpt lat="51.571815" lon="14.380907"></trkpt>
      <trkpt lat="51.571672" lon="14.380544"></trkpt>
      <trkpt lat="51.571615" lon="14.3804"></trkpt>
      <trkpt lat="51.571513" lon="14.380146"></trkpt>
      <trkpt lat="51.571484" lon="14.380103"></trkpt>
      <trkpt lat="51.571443" lon="14.380068"></trkpt>
      <trkpt lat="51.571419" lon="14.380062"></trkpt>
      <trkpt lat="51.571392" lon="14.380062"></trkpt>
      <trkpt lat="51.571355" lon="14.380085"></trkpt>
      <trkpt lat="51.571302" lon="14.380163"></trkpt>
      <trkpt lat="51.571136" lon="14.380412"></trkpt>
      <trkpt lat="51.57103" lon="14.380575"></trkpt>
      <trkpt lat="51.570985" lon="14.38065"></trkpt>
      <trkpt lat="51.570886" lon="14.380864"></trkpt>
      <trkpt lat="51.570828" lon="14.381033"></trkpt>
      <trkpt lat="51.570804" lon="14.381106"></trkpt>
      <trkpt lat="51.570757" lon="14.381243"></trkpt>
      <trkpt lat="51.570721" lon="14.381225"></trkpt>
      <trkpt lat="51.570683" lon="14.381224"></trkpt>
      <trkpt lat="51.570647" lon="14.381242"></trkpt>
      <trkpt lat="51.570615" lon="14.381275"></trkpt>
      <trkpt lat="51.570592" lon="14.381322"></trkpt>
      <trkpt lat="51.570509" lon="14.381229"></trkpt>
      <trkpt lat="51.570457" lon="14.381157"></trkpt>
      <trkpt lat="51.570435" lon="14.381126"></trkpt>
      <trkpt lat="51.570338" lon="14.380964"></trkpt>
      <trkpt lat="51.570176" lon="14.38063"></trkpt>
      <trkpt lat="51.569982" lon="14.380218"></trkpt>
      <trkpt lat="51.56982" lon="14.379848"></trkpt>
      <trkpt lat="51.5698" lon="14.37981"></trkpt>
      <trkpt lat="51.569563" lon="14.379293"></trkpt>
      <trkpt lat="51.569385" lon="14.378864"></trkpt>
      <trkpt lat="51.569353" lon="14.378795"></trkpt>
      <trkpt lat="51.569312" lon="14.378704"></trkpt>
      <trkpt lat="51.569238" lon="14.378519"></trkpt>
      <trkpt lat="51.569164" lon="14.378328"></trkpt>
      <trkpt lat="51.569111" lon="14.378178"></trkpt>
      <trkpt lat="51.569065" lon="14.378043"></trkpt>
      <trkpt lat="51.56887" lon="14.377355"></trkpt>
      <trkpt lat="51.568821" lon="14.377163"></trkpt>
      <trkpt lat="51.568787" lon="14.37702"></trkpt>
      <trkpt lat="51.568762" lon="14.376918"></trkpt>
      <trkpt lat="51.568673" lon="14.376585"></trkpt>
      <trkpt lat="51.568653" lon="14.376507"></trkpt>
      <trkpt lat="51.568624" lon="14.376403"></trkpt>
      <trkpt lat="51.568622" lon="14.376393"></trkpt>
      <trkpt lat="51.568627" lon="14.376352"></trkpt>
      <trkpt lat="51.568625" lon="14.376302"></trkpt>
      <trkpt lat="51.568616" lon="14.376264"></trkpt>
      <trkpt lat="51.568598" lon="14.376198"></trkpt>
      <trkpt lat="51.568458" lon="14.375711"></trkpt>
      <trkpt lat="51.568444" lon="14.375667"></trkpt>
      <trkpt lat="51.568416" lon="14.375558"></trkpt>
      <trkpt lat="51.568387" lon="14.375447"></trkpt>
      <trkpt lat="51.568361" lon="14.37533"></trkpt>
      <trkpt lat="51.568325" lon="14.375085"></trkpt>
      <trkpt lat="51.568314" lon="14.374894"></trkpt>
      <trkpt lat="51.568312" lon="14.374751"></trkpt>
      <trkpt lat="51.568315" lon="14.3747"></trkpt>
      <trkpt lat="51.568322" lon="14.374656"></trkpt>
      <trkpt lat="51.568335" lon="14.37459"></trkpt>
      <trkpt lat="51.568353" lon="14.374536"></trkpt>
      <trkpt lat="51.56838" lon="14.37453"></trkpt>
      <trkpt lat="51.568431" lon="14.374501"></trkpt>
      <trkpt lat="51.568478" lon="14.374457"></trkpt>
      <trkpt lat="51.568506" lon="14.374415"></trkpt>
      <trkpt lat="51.568518" lon="14.374398"></trkpt>
      <trkpt lat="51.56855" lon="14.374327"></trkpt>
      <trkpt lat="51.568576" lon="14.37423"></trkpt>
      <trkpt lat="51.568578" lon="14.374208"></trkpt>
      <trkpt lat="51.568587" lon="14.374126"></trkpt>
      <trkpt lat="51.568582" lon="14.374021"></trkpt>
      <trkpt lat="51.568564" lon="14.373932"></trkpt>
      <trkpt lat="51.568535" lon="14.373851"></trkpt>
      <trkpt lat="51.56852" lon="14.373824"></trkpt>
      <trkpt lat="51.568496" lon="14.373782"></trkpt>
      <trkpt lat="51.568448" lon="14.373728"></trkpt>
      <trkpt lat="51.568395" lon="14.373691"></trkpt>
      <trkpt lat="51.568333" lon="14.373674"></trkpt>
      <trkpt lat="51.568271" lon="14.373679"></trkpt>
      <trkpt lat="51.568216" lon="14.373704"></trkpt>
      <trkpt lat="51.568166" lon="14.373747"></trkpt>
      <trkpt lat="51.568134" lon="14.373791"></trkpt>
      <trkpt lat="51.568123" lon="14.373805"></trkpt>
      <trkpt lat="51.568088" lon="14.373876"></trkpt>
      <trkpt lat="51.568065" lon="14.373961"></trkpt>
      <trkpt lat="51.568057" lon="14.373987"></trkpt>
      <trkpt lat="51.568047" lon="14.374107"></trkpt>
      <trkpt lat="51.568055" lon="14.374207"></trkpt>
      <trkpt lat="51.568057" lon="14.374227"></trkpt>
      <trkpt lat="51.56808" lon="14.374317"></trkpt>
      <trkpt lat="51.56811" lon="14.374384"></trkpt>
      <trkpt lat="51.568115" lon="14.374397"></trkpt>
      <trkpt lat="51.568161" lon="14.374462"></trkpt>
      <trkpt lat="51.568214" lon="14.374509"></trkpt>
      <trkpt lat="51.568226" lon="14.374515"></trkpt>
      <trkpt lat="51.568237" lon="14.374571"></trkpt>
      <trkpt lat="51.568245" lon="14.374614"></trkpt>
      <trkpt lat="51.568247" lon="14.374697"></trkpt>
      <trkpt lat="51.568251" lon="14.374793"></trkpt>
      <trkpt lat="51.568256" lon="14.37493"></trkpt>
      <trkpt lat="51.568264" lon="14.37505"></trkpt>
      <trkpt lat="51.568266" lon="14.375074"></trkpt>
      <trkpt lat="51.568292" lon="14.375255"></trkpt>
      <trkpt lat="51.568328" lon="14.375448"></trkpt>
      <trkpt lat="51.568365" lon="14.375599"></trkpt>
      <trkpt lat="51.568416" lon="14.375558"></trkpt>
      <trkpt lat="51.568459" lon="14.375524"></trkpt>
      <trkpt lat="51.568478" lon="14.375509"></trkpt>
      <trkpt lat="51.568477" lon="14.375434"></trkpt>
      <trkpt lat="51.568477" lon="14.375309"></trkpt>
      <trkpt lat="51.568477" lon="14.375191"></trkpt>
      <trkpt lat="51.568605" lon="14.375011"></trkpt>
      <trkpt lat="51.568611" lon="14.375003"></trkpt>
      <trkpt lat="51.56865" lon="14.374948"></trkpt>
      <trkpt lat="51.56869" lon="14.374892"></trkpt>
      <trkpt lat="51.568754" lon="14.374804"></trkpt>
      <trkpt lat="51.56885" lon="14.374669"></trkpt>
      <trkpt lat="51.568836" lon="14.374629"></trkpt>
      <trkpt lat="51.568816" lon="14.374595"></trkpt>
      <trkpt lat="51.568787" lon="14.374552"></trkpt>
      <trkpt lat="51.568767" lon="14.374522"></trkpt>
      <trkpt lat="51.56873" lon="14.374478"></trkpt>
      <trkpt lat="51.568682" lon="14.374406"></trkpt>
      <trkpt lat="51.568649" lon="14.374356"></trkpt>
      <trkpt lat="51.568623" lon="14.374318"></trkpt>
      <trkpt lat="51.568596" lon="14.37426"></trkpt>
      <trkpt lat="51.568578" lon="14.374208"></trkpt>
      <trkpt lat="51.568587" lon="14.374126"></trkpt>
      <trkpt lat="51.568582" lon="14.374021"></trkpt>
      <trkpt lat="51.568564" lon="14.373932"></trkpt>
      <trkpt lat="51.568535" lon="14.373851"></trkpt>
      <trkpt lat="51.56852" lon="14.373824"></trkpt>
      <trkpt lat="51.568496" lon="14.373782"></trkpt>
      <trkpt lat="51.568448" lon="14.373728"></trkpt>
      <trkpt lat="51.568395" lon="14.373691"></trkpt>
      <trkpt lat="51.568377" lon="14.373631"></trkpt>
      <trkpt lat="51.568365" lon="14.37353"></trkpt>
      <trkpt lat="51.568365" lon="14.373461"></trkpt>
      <trkpt lat="51.56837" lon="14.373211"></trkpt>
      <trkpt lat="51.568354" lon="14.372953"></trkpt>
      <trkpt lat="51.568324" lon="14.372787"></trkpt>
      <trkpt lat="51.568313" lon="14.37274"></trkpt>
      <trkpt lat="51.568113" lon="14.372079"></trkpt>
      <trkpt lat="51.568096" lon="14.372021"></trkpt>
      <trkpt lat="51.568017" lon="14.371772"></trkpt>
      <trkpt lat="51.567977" lon="14.371645"></trkpt>
      <trkpt lat="51.567903" lon="14.371517"></trkpt>
      <trkpt lat="51.567467" lon="14.370172"></trkpt>
      <trkpt lat="51.56746" lon="14.370091"></trkpt>
      <trkpt lat="51.56748" lon="14.369996"></trkpt>
      <trkpt lat="51.567501" lon="14.369956"></trkpt>
      <trkpt lat="51.567575" lon="14.369877"></trkpt>
      <trkpt lat="51.56769" lon="14.369803"></trkpt>
      <trkpt lat="51.567822" lon="14.369716"></trkpt>
      <trkpt lat="51.567995" lon="14.369518"></trkpt>
      <trkpt lat="51.56806" lon="14.369431"></trkpt>
      <trkpt lat="51.567682" lon="14.36865"></trkpt>
      <trkpt lat="51.567415" lon="14.368101"></trkpt>
      <trkpt lat="51.567263" lon="14.367805"></trkpt>
      <trkpt lat="51.567129" lon="14.367522"></trkpt>
      <trkpt lat="51.56709" lon="14.367435"></trkpt>
      <trkpt lat="51.566578" lon="14.366392"></trkpt>
      <trkpt lat="51.566057" lon="14.365394"></trkpt>
      <trkpt lat="51.565252" lon="14.364146"></trkpt>
      <trkpt lat="51.564774" lon="14.363447"></trkpt>
      <trkpt lat="51.564506" lon="14.363037"></trkpt>
      <trkpt lat="51.564386" lon="14.362855"></trkpt>
      <trkpt lat="51.564319" lon="14.362748"></trkpt>
      <trkpt lat="51.564197" lon="14.362576"></trkpt>
      <trkpt lat="51.563631" lon="14.361748"></trkpt>
      <trkpt lat="51.563469" lon="14.361512"></trkpt>
      <trkpt lat="51.563106" lon="14.360995"></trkpt>
      <trkpt lat="51.562894" lon="14.360684"></trkpt>
      <trkpt lat="51.562882" lon="14.360668"></trkpt>
      <trkpt lat="51.562708" lon="14.360439"></trkpt>
      <trkpt lat="51.561427" lon="14.358638"></trkpt>
      <trkpt lat="51.561095" lon="14.358187"></trkpt>
      <trkpt lat="51.559968" lon="14.356657"></trkpt>
      <trkpt lat="51.559726" lon="14.356329"></trkpt>
      <trkpt lat="51.559329" lon="14.35579"></trkpt>
      <trkpt lat="51.558978" lon="14.355313"></trkpt>
      <trkpt lat="51.558953" lon="14.355279"></trkpt>
      <trkpt lat="51.55885" lon="14.35514"></trkpt>
      <trkpt lat="51.558804" lon="14.355078"></trkpt>
      <trkpt lat="51.558763" lon="14.355023"></trkpt>
      <trkpt lat="51.55874" lon="14.354994"></trkpt>
      <trkpt lat="51.558338" lon="14.354459"></trkpt>
      <trkpt lat="51.558269" lon="14.35437"></trkpt>
      <trkpt lat="51.557725" lon="14.353686"></trkpt>
      <trkpt lat="51.556751" lon="14.352606"></trkpt>
      <trkpt lat="51.555423" lon="14.351143"></trkpt>
      <trkpt lat="51.555421" lon="14.351141"></trkpt>
      <trkpt lat="51.555326" lon="14.351036"></trkpt>
      <trkpt lat="51.555246" lon="14.350947"></trkpt>
      <trkpt lat="51.554881" lon="14.350579"></trkpt>
      <trkpt lat="51.551521" lon="14.347515"></trkpt>
      <trkpt lat="51.550972" lon="14.347014"></trkpt>
      <trkpt lat="51.550281" lon="14.346388"></trkpt>
      <trkpt lat="51.549592" lon="14.345764"></trkpt>
      <trkpt lat="51.549412" lon="14.34552"></trkpt>
      <trkpt lat="51.549318" lon="14.345342"></trkpt>
      <trkpt lat="51.549241" lon="14.34515"></trkpt>
      <trkpt lat="51.549136" lon="14.344766"></trkpt>
      <trkpt lat="51.549126" lon="14.344733"></trkpt>
      <trkpt lat="51.549046" lon="14.344538"></trkpt>
      <trkpt lat="51.548935" lon="14.344365"></trkpt>
      <trkpt lat="51.548856" lon="14.344266"></trkpt>
      <trkpt lat="51.548872" lon="14.344182"></trkpt>
      <trkpt lat="51.548869" lon="14.344088"></trkpt>
      <trkpt lat="51.548849" lon="14.344"></trkpt>
      <trkpt lat="51.548818" lon="14.343935"></trkpt>
      <trkpt lat="51.548778" lon="14.34389"></trkpt>
      <trkpt lat="51.548718" lon="14.343862"></trkpt>
      <trkpt lat="51.54867" lon="14.343865"></trkpt>
      <trkpt lat="51.548611" lon="14.343903"></trkpt>
      <trkpt lat="51.548564" lon="14.343975"></trkpt>
      <trkpt lat="51.54854" lon="14.344052"></trkpt>
      <trkpt lat="51.548532" lon="14.344149"></trkpt>
      <trkpt lat="51.548549" lon="14.344252"></trkpt>
      <trkpt lat="51.548592" lon="14.34434"></trkpt>
      <trkpt lat="51.548609" lon="14.344365"></trkpt>
      <trkpt lat="51.548563" lon="14.344478"></trkpt>
      <trkpt lat="51.54853" lon="14.344536"></trkpt>
      <trkpt lat="51.548342" lon="14.344782"></trkpt>
      <trkpt lat="51.548218" lon="14.344862"></trkpt>
      <trkpt lat="51.548047" lon="14.344902"></trkpt>
      <trkpt lat="51.547805" lon="14.344878"></trkpt>
      <trkpt lat="51.547357" lon="14.344759"></trkpt>
      <trkpt lat="51.547344" lon="14.344755"></trkpt>
      <trkpt lat="51.546886" lon="14.344623"></trkpt>
      <trkpt lat="51.545483" lon="14.344218"></trkpt>
      <trkpt lat="51.545278" lon="14.344159"></trkpt>
      <trkpt lat="51.544047" lon="14.343816"></trkpt>
      <trkpt lat="51.540862" lon="14.342908"></trkpt>
      <trkpt lat="51.540798" lon="14.342891"></trkpt>
      <trkpt lat="51.538813" lon="14.34237"></trkpt>
      <trkpt lat="51.538543" lon="14.342287"></trkpt>
      <trkpt lat="51.538344" lon="14.342234"></trkpt>
      <trkpt lat="51.536182" lon="14.341627"></trkpt>
      <trkpt lat="51.535649" lon="14.341504"></trkpt>
      <trkpt lat="51.535597" lon="14.341489"></trkpt>
      <trkpt lat="51.535507" lon="14.341463"></trkpt>
      <trkpt lat="51.535072" lon="14.341312"></trkpt>
      <trkpt lat="51.534959" lon="14.341269"></trkpt>
      <trkpt lat="51.53482" lon="14.341209"></trkpt>
      <trkpt lat="51.534348" lon="14.340955"></trkpt>
      <trkpt lat="51.534066" lon="14.340772"></trkpt>
      <trkpt lat="51.533761" lon="14.340547"></trkpt>
      <trkpt lat="51.533544" lon="14.340386"></trkpt>
      <trkpt lat="51.533191" lon="14.340126"></trkpt>
      <trkpt lat="51.532313" lon="14.33957"></trkpt>
      <trkpt lat="51.531971" lon="14.339383"></trkpt>
      <trkpt lat="51.531784" lon="14.339281"></trkpt>
      <trkpt lat="51.531623" lon="14.339189"></trkpt>
      <trkpt lat="51.531053" lon="14.338845"></trkpt>
      <trkpt lat="51.53044" lon="14.338475"></trkpt>
      <trkpt lat="51.529829" lon="14.338106"></trkpt>
      <trkpt lat="51.528979" lon="14.337593"></trkpt>
      <trkpt lat="51.528945" lon="14.337573"></trkpt>
      <trkpt lat="51.528334" lon="14.337213"></trkpt>
      <trkpt lat="51.528131" lon="14.337093"></trkpt>
      <trkpt lat="51.52809" lon="14.337069"></trkpt>
      <trkpt lat="51.528063" lon="14.337053"></trkpt>
      <trkpt lat="51.527676" lon="14.336825"></trkpt>
      <trkpt lat="51.526659" lon="14.336205"></trkpt>
      <trkpt lat="51.526111" lon="14.335875"></trkpt>
      <trkpt lat="51.524661" lon="14.335016"></trkpt>
      <trkpt lat="51.524515" lon="14.334932"></trkpt>
      <trkpt lat="51.524202" lon="14.334745"></trkpt>
      <trkpt lat="51.523989" lon="14.334619"></trkpt>
      <trkpt lat="51.523812" lon="14.334514"></trkpt>
      <trkpt lat="51.523839" lon="14.334231"></trkpt>
      <trkpt lat="51.523886" lon="14.333735"></trkpt>
      <trkpt lat="51.523939" lon="14.33375"></trkpt>
      <trkpt lat="51.524757" lon="14.334007"></trkpt>
      <trkpt lat="51.524586" lon="14.334597"></trkpt>
      <trkpt lat="51.524757" lon="14.334007"></trkpt>
      <trkpt lat="51.523939" lon="14.33375"></trkpt>
      <trkpt lat="51.523886" lon="14.333735"></trkpt>
      <trkpt lat="51.523839" lon="14.334231"></trkpt>
      <trkpt lat="51.523812" lon="14.334514"></trkpt>
      <trkpt lat="51.523797" lon="14.334667"></trkpt>
      <trkpt lat="51.523776" lon="14.334808"></trkpt>
      <trkpt lat="51.523704" lon="14.335193"></trkpt>
      <trkpt lat="51.523673" lon="14.335321"></trkpt>
      <trkpt lat="51.523621" lon="14.335444"></trkpt>
      <trkpt lat="51.523561" lon="14.335532"></trkpt>
      <trkpt lat="51.523476" lon="14.335618"></trkpt>
      <trkpt lat="51.523409" lon="14.335657"></trkpt>
      <trkpt lat="51.523306" lon="14.335677"></trkpt>
      <trkpt lat="51.523178" lon="14.335678"></trkpt>
      <trkpt lat="51.522667" lon="14.335682"></trkpt>
      <trkpt lat="51.522211" lon="14.335686"></trkpt>
      <trkpt lat="51.521506" lon="14.335696"></trkpt>
      <trkpt lat="51.521386" lon="14.33572"></trkpt>
      <trkpt lat="51.521275" lon="14.335762"></trkpt>
      <trkpt lat="51.521135" lon="14.335851"></trkpt>
      <trkpt lat="51.521008" lon="14.335975"></trkpt>
      <trkpt lat="51.520897" lon="14.336141"></trkpt>
      <trkpt lat="51.520335" lon="14.337045"></trkpt>
      <trkpt lat="51.519973" lon="14.337642"></trkpt>
      <trkpt lat="51.520006" lon="14.337776"></trkpt>
      <trkpt lat="51.520095" lon="14.337784"></trkpt>
      <trkpt lat="51.520139" lon="14.337789"></trkpt>
      <trkpt lat="51.520164" lon="14.33783"></trkpt>
      <trkpt lat="51.520186" lon="14.337911"></trkpt>
      <trkpt lat="51.520188" lon="14.338147"></trkpt>
      <trkpt lat="51.520186" lon="14.337911"></trkpt>
      <trkpt lat="51.520164" lon="14.33783"></trkpt>
      <trkpt lat="51.520139" lon="14.337789"></trkpt>
      <trkpt lat="51.520095" lon="14.337784"></trkpt>
      <trkpt lat="51.520006" lon="14.337776"></trkpt>
      <trkpt lat="51.519973" lon="14.337642"></trkpt>
      <trkpt lat="51.520335" lon="14.337045"></trkpt>
      <trkpt lat="51.520897" lon="14.336141"></trkpt>
      <trkpt lat="51.521008" lon="14.335975"></trkpt>
      <trkpt lat="51.521135" lon="14.335851"></trkpt>
      <trkpt lat="51.521275" lon="14.335762"></trkpt>
      <trkpt lat="51.521386" lon="14.33572"></trkpt>
      <trkpt lat="51.521506" lon="14.335696"></trkpt>
      <trkpt lat="51.522211" lon="14.335686"></trkpt>
      <trkpt lat="51.522667" lon="14.335682"></trkpt>
      <trkpt lat="51.523178" lon="14.335678"></trkpt>
      <trkpt lat="51.523306" lon="14.335677"></trkpt>
      <trkpt lat="51.523409" lon="14.335657"></trkpt>
      <trkpt lat="51.523476" lon="14.335618"></trkpt>
      <trkpt lat="51.523561" lon="14.335532"></trkpt>
      <trkpt lat="51.523621" lon="14.335444"></trkpt>
      <trkpt lat="51.523673" lon="14.335321"></trkpt>
      <trkpt lat="51.523704" lon="14.335193"></trkpt>
      <trkpt lat="51.523776" lon="14.334808"></trkpt>
      <trkpt lat="51.523797" lon="14.334667"></trkpt>
      <trkpt lat="51.523812" lon="14.334514"></trkpt>
      <trkpt lat="51.523638" lon="14.334405"></trkpt>
      <trkpt lat="51.523316" lon="14.334205"></trkpt>
      <trkpt lat="51.523173" lon="14.334115"></trkpt>
      <trkpt lat="51.523033" lon="14.334028"></trkpt>
      <trkpt lat="51.522746" lon="14.33385"></trkpt>
      <trkpt lat="51.522448" lon="14.333688"></trkpt>
      <trkpt lat="51.521828" lon="14.333317"></trkpt>
      <trkpt lat="51.521117" lon="14.332917"></trkpt>
      <trkpt lat="51.519837" lon="14.332142"></trkpt>
      <trkpt lat="51.519291" lon="14.33182"></trkpt>
      <trkpt lat="51.519153" lon="14.331738"></trkpt>
      <trkpt lat="51.519115" lon="14.331716"></trkpt>
      <trkpt lat="51.518763" lon="14.331508"></trkpt>
      <trkpt lat="51.518141" lon="14.331141"></trkpt>
      <trkpt lat="51.517119" lon="14.330538"></trkpt>
      <trkpt lat="51.516401" lon="14.330105"></trkpt>
      <trkpt lat="51.516342" lon="14.3301"></trkpt>
      <trkpt lat="51.516249" lon="14.330101"></trkpt>
      <trkpt lat="51.516164" lon="14.330139"></trkpt>
      <trkpt lat="51.51613" lon="14.330152"></trkpt>
      <trkpt lat="51.516046" lon="14.330202"></trkpt>
      <trkpt lat="51.516019" lon="14.330082"></trkpt>
      <trkpt lat="51.515943" lon="14.329925"></trkpt>
      <trkpt lat="51.515873" lon="14.32984"></trkpt>
      <trkpt lat="51.51518" lon="14.329379"></trkpt>
      <trkpt lat="51.513751" lon="14.328523"></trkpt>
      <trkpt lat="51.512567" lon="14.327836"></trkpt>
      <trkpt lat="51.512264" lon="14.32766"></trkpt>
      <trkpt lat="51.511954" lon="14.327436"></trkpt>
      <trkpt lat="51.511866" lon="14.327365"></trkpt>
      <trkpt lat="51.51159" lon="14.327144"></trkpt>
      <trkpt lat="51.511348" lon="14.326868"></trkpt>
      <trkpt lat="51.511201" lon="14.326676"></trkpt>
      <trkpt lat="51.511075" lon="14.326512"></trkpt>
      <trkpt lat="51.511015" lon="14.326431"></trkpt>
      <trkpt lat="51.511007" lon="14.326421"></trkpt>
      <trkpt lat="51.510389" lon="14.325575"></trkpt>
      <trkpt lat="51.509854" lon="14.324845"></trkpt>
      <trkpt lat="51.509685" lon="14.324599"></trkpt>
      <trkpt lat="51.509557" lon="14.324428"></trkpt>
      <trkpt lat="51.509429" lon="14.324227"></trkpt>
      <trkpt lat="51.509319" lon="14.32398"></trkpt>
      <trkpt lat="51.509271" lon="14.323829"></trkpt>
      <trkpt lat="51.509212" lon="14.323641"></trkpt>
      <trkpt lat="51.509102" lon="14.323371"></trkpt>
      <trkpt lat="51.509018" lon="14.3232"></trkpt>
      <trkpt lat="51.508914" lon="14.322991"></trkpt>
      <trkpt lat="51.508734" lon="14.32324"></trkpt>
      <trkpt lat="51.508238" lon="14.323929"></trkpt>
      <trkpt lat="51.507328" lon="14.325173"></trkpt>
      <trkpt lat="51.506465" lon="14.326373"></trkpt>
      <trkpt lat="51.50484" lon="14.328656"></trkpt>
      <trkpt lat="51.504708" lon="14.328831"></trkpt>
      <trkpt lat="51.504247" lon="14.329483"></trkpt>
      <trkpt lat="51.503824" lon="14.330061"></trkpt>
      <trkpt lat="51.50341" lon="14.330655"></trkpt>
      <trkpt lat="51.503236" lon="14.330916"></trkpt>
      <trkpt lat="51.503066" lon="14.331183"></trkpt>
      <trkpt lat="51.502879" lon="14.331491"></trkpt>
      <trkpt lat="51.5027" lon="14.331809"></trkpt>
      <trkpt lat="51.502511" lon="14.332164"></trkpt>
      <trkpt lat="51.502329" lon="14.332531"></trkpt>
      <trkpt lat="51.502196" lon="14.332811"></trkpt>
      <trkpt lat="51.50211" lon="14.332993"></trkpt>
      <trkpt lat="51.501903" lon="14.33346"></trkpt>
      <trkpt lat="51.501601" lon="14.334189"></trkpt>
      <trkpt lat="51.501319" lon="14.334956"></trkpt>
      <trkpt lat="51.501103" lon="14.335606"></trkpt>
      <trkpt lat="51.500667" lon="14.33692"></trkpt>
      <trkpt lat="51.500391" lon="14.33779"></trkpt>
      <trkpt lat="51.50018" lon="14.338483"></trkpt>
      <trkpt lat="51.500159" lon="14.338551"></trkpt>
      <trkpt lat="51.499851" lon="14.339555"></trkpt>
      <trkpt lat="51.499676" lon="14.340087"></trkpt>
      <trkpt lat="51.49942" lon="14.340901"></trkpt>
      <trkpt lat="51.499286" lon="14.341332"></trkpt>
      <trkpt lat="51.499157" lon="14.341748"></trkpt>
      <trkpt lat="51.498769" lon="14.343025"></trkpt>
      <trkpt lat="51.498248" lon="14.344695"></trkpt>
      <trkpt lat="51.497689" lon="14.346467"></trkpt>
      <trkpt lat="51.4976" lon="14.346754"></trkpt>
      <trkpt lat="51.497481" lon="14.347115"></trkpt>
      <trkpt lat="51.497224" lon="14.347862"></trkpt>
      <trkpt lat="51.497105" lon="14.348195"></trkpt>
      <trkpt lat="51.496973" lon="14.348517"></trkpt>
      <trkpt lat="51.496769" lon="14.349007"></trkpt>
      <trkpt lat="51.496703" lon="14.349156"></trkpt>
      <trkpt lat="51.496579" lon="14.349405"></trkpt>
      <trkpt lat="51.49643" lon="14.349678"></trkpt>
      <trkpt lat="51.496247" lon="14.349978"></trkpt>
      <trkpt lat="51.496032" lon="14.350311"></trkpt>
      <trkpt lat="51.495813" lon="14.35061"></trkpt>
      <trkpt lat="51.495575" lon="14.350893"></trkpt>
      <trkpt lat="51.495333" lon="14.351164"></trkpt>
      <trkpt lat="51.495042" lon="14.351418"></trkpt>
      <trkpt lat="51.494923" lon="14.351517"></trkpt>
      <trkpt lat="51.494744" lon="14.351656"></trkpt>
      <trkpt lat="51.494606" lon="14.351753"></trkpt>
      <trkpt lat="51.494466" lon="14.351837"></trkpt>
      <trkpt lat="51.494185" lon="14.351982"></trkpt>
      <trkpt lat="51.493898" lon="14.352109"></trkpt>
      <trkpt lat="51.493624" lon="14.352196"></trkpt>
      <trkpt lat="51.49339" lon="14.352255"></trkpt>
      <trkpt lat="51.493161" lon="14.352298"></trkpt>
      <trkpt lat="51.49284" lon="14.352326"></trkpt>
      <trkpt lat="51.492557" lon="14.352338"></trkpt>
      <trkpt lat="51.492389" lon="14.352341"></trkpt>
      <trkpt lat="51.492185" lon="14.35233"></trkpt>
      <trkpt lat="51.491992" lon="14.352308"></trkpt>
      <trkpt lat="51.491354" lon="14.352229"></trkpt>
      <trkpt lat="51.490034" lon="14.351956"></trkpt>
      <trkpt lat="51.487712" lon="14.351472"></trkpt>
      <trkpt lat="51.484039" lon="14.350737"></trkpt>
      <trkpt lat="51.483078" lon="14.350529"></trkpt>
      <trkpt lat="51.4815" lon="14.350169"></trkpt>
      <trkpt lat="51.480804" lon="14.349983"></trkpt>
      <trkpt lat="51.480118" lon="14.349755"></trkpt>
      <trkpt lat="51.479399" lon="14.349465"></trkpt>
      <trkpt lat="51.478696" lon="14.349116"></trkpt>
      <trkpt lat="51.478059" lon="14.348712"></trkpt>
      <trkpt lat="51.477439" lon="14.348302"></trkpt>
      <trkpt lat="51.476402" lon="14.347443"></trkpt>
      <trkpt lat="51.475189" lon="14.34624"></trkpt>
      <trkpt lat="51.473772" lon="14.344739"></trkpt>
      <trkpt lat="51.473076" lon="14.344008"></trkpt>
      <trkpt lat="51.472477" lon="14.343377"></trkpt>
      <trkpt lat="51.470313" lon="14.341106"></trkpt>
      <trkpt lat="51.468624" lon="14.339333"></trkpt>
      <trkpt lat="51.466872" lon="14.33751"></trkpt>
      <trkpt lat="51.465892" lon="14.336478"></trkpt>
      <trkpt lat="51.465611" lon="14.336181"></trkpt>
      <trkpt lat="51.465211" lon="14.335761"></trkpt>
      <trkpt lat="51.464734" lon="14.335199"></trkpt>
      <trkpt lat="51.464281" lon="14.334573"></trkpt>
      <trkpt lat="51.464088" lon="14.334235"></trkpt>
      <trkpt lat="51.463856" lon="14.333782"></trkpt>
      <trkpt lat="51.463675" lon="14.333348"></trkpt>
      <trkpt lat="51.463511" lon="14.332866"></trkpt>
      <trkpt lat="51.463331" lon="14.332236"></trkpt>
      <trkpt lat="51.463183" lon="14.331541"></trkpt>
      <trkpt lat="51.463081" lon="14.330891"></trkpt>
      <trkpt lat="51.463029" lon="14.330356"></trkpt>
      <trkpt lat="51.462994" lon="14.32983"></trkpt>
      <trkpt lat="51.462971" lon="14.329329"></trkpt>
      <trkpt lat="51.462943" lon="14.328244"></trkpt>
      <trkpt lat="51.462666" lon="14.315707"></trkpt>
      <trkpt lat="51.462645" lon="14.314732"></trkpt>
      <trkpt lat="51.462618" lon="14.313528"></trkpt>
      <trkpt lat="51.462415" lon="14.304337"></trkpt>
      <trkpt lat="51.4624" lon="14.30365"></trkpt>
      <trkpt lat="51.462339" lon="14.300894"></trkpt>
      <trkpt lat="51.462313" lon="14.299716"></trkpt>
      <trkpt lat="51.462291" lon="14.298731"></trkpt>
      <trkpt lat="51.462306" lon="14.298612"></trkpt>
      <trkpt lat="51.462309" lon="14.298472"></trkpt>
      <trkpt lat="51.462312" lon="14.298154"></trkpt>
      <trkpt lat="51.462327" lon="14.298006"></trkpt>
      <trkpt lat="51.46238" lon="14.297964"></trkpt>
      <trkpt lat="51.462425" lon="14.297892"></trkpt>
      <trkpt lat="51.462453" lon="14.297805"></trkpt>
      <trkpt lat="51.462459" lon="14.297721"></trkpt>
      <trkpt lat="51.462452" lon="14.297625"></trkpt>
      <trkpt lat="51.462426" lon="14.29754"></trkpt>
      <trkpt lat="51.46238" lon="14.297459"></trkpt>
      <trkpt lat="51.462327" lon="14.297416"></trkpt>
      <trkpt lat="51.462305" lon="14.297268"></trkpt>
      <trkpt lat="51.462289" lon="14.297069"></trkpt>
      <trkpt lat="51.462271" lon="14.296851"></trkpt>
      <trkpt lat="51.462243" lon="14.296679"></trkpt>
      <trkpt lat="51.462224" lon="14.295829"></trkpt>
      <trkpt lat="51.46218" lon="14.293863"></trkpt>
      <trkpt lat="51.462011" lon="14.286387"></trkpt>
      <trkpt lat="51.461982" lon="14.285113"></trkpt>
      <trkpt lat="51.461962" lon="14.284241"></trkpt>
      <trkpt lat="51.461922" lon="14.282474"></trkpt>
      <trkpt lat="51.461914" lon="14.282099"></trkpt>
      <trkpt lat="51.46191" lon="14.28193"></trkpt>
      <trkpt lat="51.461901" lon="14.281549"></trkpt>
      <trkpt lat="51.461893" lon="14.281157"></trkpt>
      <trkpt lat="51.461865" lon="14.280696"></trkpt>
      <trkpt lat="51.461839" lon="14.280422"></trkpt>
      <trkpt lat="51.461805" lon="14.280109"></trkpt>
      <trkpt lat="51.46175" lon="14.279758"></trkpt>
      <trkpt lat="51.4617" lon="14.279457"></trkpt>
      <trkpt lat="51.46164" lon="14.279157"></trkpt>
      <trkpt lat="51.461591" lon="14.278942"></trkpt>
      <trkpt lat="51.46155" lon="14.278782"></trkpt>
      <trkpt lat="51.461413" lon="14.278297"></trkpt>
      <trkpt lat="51.461304" lon="14.277955"></trkpt>
      <trkpt lat="51.461176" lon="14.27762"></trkpt>
      <trkpt lat="51.460862" lon="14.276864"></trkpt>
      <trkpt lat="51.460557" lon="14.27619"></trkpt>
      <trkpt lat="51.460389" lon="14.275826"></trkpt>
      <trkpt lat="51.459644" lon="14.274238"></trkpt>
      <trkpt lat="51.458588" lon="14.272012"></trkpt>
      <trkpt lat="51.458367" lon="14.27157"></trkpt>
      <trkpt lat="51.458158" lon="14.271195"></trkpt>
      <trkpt lat="51.457982" lon="14.270965"></trkpt>
      <trkpt lat="51.457852" lon="14.270791"></trkpt>
      <trkpt lat="51.457498" lon="14.270458"></trkpt>
      <trkpt lat="51.457194" lon="14.270203"></trkpt>
      <trkpt lat="51.456904" lon="14.26997"></trkpt>
      <trkpt lat="51.45645" lon="14.269587"></trkpt>
      <trkpt lat="51.456058" lon="14.26926"></trkpt>
      <trkpt lat="51.455724" lon="14.268966"></trkpt>
      <trkpt lat="51.455529" lon="14.268774"></trkpt>
      <trkpt lat="51.455321" lon="14.268533"></trkpt>
      <trkpt lat="51.455022" lon="14.268179"></trkpt>
      <trkpt lat="51.454618" lon="14.267707"></trkpt>
      <trkpt lat="51.454164" lon="14.267182"></trkpt>
      <trkpt lat="51.453841" lon="14.266807"></trkpt>
      <trkpt lat="51.453724" lon="14.266671"></trkpt>
      <trkpt lat="51.453621" lon="14.266888"></trkpt>
      <trkpt lat="51.453372" lon="14.267425"></trkpt>
      <trkpt lat="51.453209" lon="14.267753"></trkpt>
      <trkpt lat="51.453139" lon="14.267893"></trkpt>
      <trkpt lat="51.453052" lon="14.268053"></trkpt>
      <trkpt lat="51.452953" lon="14.268211"></trkpt>
      <trkpt lat="51.452806" lon="14.2684"></trkpt>
      <trkpt lat="51.452476" lon="14.268824"></trkpt>
      <trkpt lat="51.452408" lon="14.268903"></trkpt>
      <trkpt lat="51.451814" lon="14.269586"></trkpt>
      <trkpt lat="51.451572" lon="14.269865"></trkpt>
      <trkpt lat="51.450888" lon="14.270648"></trkpt>
      <trkpt lat="51.450265" lon="14.271375"></trkpt>
      <trkpt lat="51.449906" lon="14.271793"></trkpt>
      <trkpt lat="51.44958" lon="14.272174"></trkpt>
      <trkpt lat="51.449462" lon="14.272311"></trkpt>
      <trkpt lat="51.449419" lon="14.272363"></trkpt>
      <trkpt lat="51.448823" lon="14.273076"></trkpt>
      <trkpt lat="51.447626" lon="14.274456"></trkpt>
      <trkpt lat="51.446975" lon="14.275208"></trkpt>
      <trkpt lat="51.446904" lon="14.275236"></trkpt>
      <trkpt lat="51.44687" lon="14.275272"></trkpt>
      <trkpt lat="51.446822" lon="14.275323"></trkpt>
      <trkpt lat="51.446771" lon="14.275428"></trkpt>
      <trkpt lat="51.446626" lon="14.275553"></trkpt>
      <trkpt lat="51.446513" lon="14.275628"></trkpt>
      <trkpt lat="51.44644" lon="14.275677"></trkpt>
      <trkpt lat="51.446342" lon="14.275732"></trkpt>
      <trkpt lat="51.446092" lon="14.275858"></trkpt>
      <trkpt lat="51.445915" lon="14.275938"></trkpt>
      <trkpt lat="51.445737" lon="14.276003"></trkpt>
      <trkpt lat="51.445055" lon="14.276254"></trkpt>
      <trkpt lat="51.444624" lon="14.276401"></trkpt>
      <trkpt lat="51.444128" lon="14.276558"></trkpt>
      <trkpt lat="51.444099" lon="14.276567"></trkpt>
      <trkpt lat="51.444023" lon="14.276591"></trkpt>
      <trkpt lat="51.443938" lon="14.27643"></trkpt>
      <trkpt lat="51.44375" lon="14.276067"></trkpt>
      <trkpt lat="51.443619" lon="14.275732"></trkpt>
      <trkpt lat="51.443552" lon="14.2755"></trkpt>
      <trkpt lat="51.443485" lon="14.275268"></trkpt>
      <trkpt lat="51.443342" lon="14.27474"></trkpt>
      <trkpt lat="51.443261" lon="14.274386"></trkpt>
      <trkpt lat="51.443059" lon="14.273299"></trkpt>
      <trkpt lat="51.442956" lon="14.272648"></trkpt>
      <trkpt lat="51.442947" lon="14.272573"></trkpt>
      <trkpt lat="51.442908" lon="14.272208"></trkpt>
      <trkpt lat="51.442857" lon="14.271675"></trkpt>
      <trkpt lat="51.442852" lon="14.271611"></trkpt>
      <trkpt lat="51.44283" lon="14.271199"></trkpt>
      <trkpt lat="51.442827" lon="14.270924"></trkpt>
      <trkpt lat="51.442823" lon="14.270074"></trkpt>
      <trkpt lat="51.442822" lon="14.269977"></trkpt>
      <trkpt lat="51.442817" lon="14.269824"></trkpt>
      <trkpt lat="51.442812" lon="14.269669"></trkpt>
      <trkpt lat="51.442641" lon="14.269746"></trkpt>
      <trkpt lat="51.441888" lon="14.270025"></trkpt>
      <trkpt lat="51.441574" lon="14.270142"></trkpt>
      <trkpt lat="51.441236" lon="14.270274"></trkpt>
      <trkpt lat="51.440945" lon="14.270391"></trkpt>
      <trkpt lat="51.440774" lon="14.270453"></trkpt>
      <trkpt lat="51.440622" lon="14.270492"></trkpt>
      <trkpt lat="51.44062" lon="14.270492"></trkpt>
      <trkpt lat="51.44054" lon="14.270503"></trkpt>
      <trkpt lat="51.440445" lon="14.270513"></trkpt>
      <trkpt lat="51.440293" lon="14.270518"></trkpt>
      <trkpt lat="51.440207" lon="14.270511"></trkpt>
      <trkpt lat="51.440123" lon="14.270497"></trkpt>
      <trkpt lat="51.440046" lon="14.270472"></trkpt>
      <trkpt lat="51.43995" lon="14.270436"></trkpt>
      <trkpt lat="51.439876" lon="14.270403"></trkpt>
      <trkpt lat="51.439792" lon="14.270357"></trkpt>
      <trkpt lat="51.439707" lon="14.2703"></trkpt>
      <trkpt lat="51.43964" lon="14.270248"></trkpt>
      <trkpt lat="51.439584" lon="14.270195"></trkpt>
      <trkpt lat="51.4395" lon="14.270097"></trkpt>
      <trkpt lat="51.439429" lon="14.269998"></trkpt>
      <trkpt lat="51.439322" lon="14.269856"></trkpt>
      <trkpt lat="51.439204" lon="14.269644"></trkpt>
      <trkpt lat="51.439092" lon="14.269419"></trkpt>
      <trkpt lat="51.439001" lon="14.269218"></trkpt>
      <trkpt lat="51.438982" lon="14.269176"></trkpt>
      <trkpt lat="51.43889" lon="14.268974"></trkpt>
      <trkpt lat="51.438748" lon="14.268667"></trkpt>
      <trkpt lat="51.438698" lon="14.268553"></trkpt>
      <trkpt lat="51.438481" lon="14.268064"></trkpt>
      <trkpt lat="51.438127" lon="14.267182"></trkpt>
      <trkpt lat="51.438103" lon="14.26712"></trkpt>
      <trkpt lat="51.437711" lon="14.266102"></trkpt>
      <trkpt lat="51.437639" lon="14.265915"></trkpt>
      <trkpt lat="51.437366" lon="14.265209"></trkpt>
      <trkpt lat="51.437321" lon="14.265094"></trkpt>
      <trkpt lat="51.437297" lon="14.265027"></trkpt>
      <trkpt lat="51.437228" lon="14.264861"></trkpt>
      <trkpt lat="51.437369" lon="14.264699"></trkpt>
      <trkpt lat="51.437765" lon="14.264265"></trkpt>
      <trkpt lat="51.438151" lon="14.263865"></trkpt>
      <trkpt lat="51.438231" lon="14.263785"></trkpt>
      <trkpt lat="51.438287" lon="14.263704"></trkpt>
      <trkpt lat="51.438335" lon="14.263608"></trkpt>
      <trkpt lat="51.438681" lon="14.263232"></trkpt>
      <trkpt lat="51.438773" lon="14.263132"></trkpt>
      <trkpt lat="51.43902" lon="14.262862"></trkpt>
      <trkpt lat="51.439254" lon="14.262607"></trkpt>
      <trkpt lat="51.439973" lon="14.261728"></trkpt>
      <trkpt lat="51.440111" lon="14.261512"></trkpt>
      <trkpt lat="51.440024" lon="14.261278"></trkpt>
      <trkpt lat="51.439989" lon="14.261181"></trkpt>
      <trkpt lat="51.439605" lon="14.260073"></trkpt>
      <trkpt lat="51.439459" lon="14.259664"></trkpt>
      <trkpt lat="51.439376" lon="14.259432"></trkpt>
      <trkpt lat="51.439315" lon="14.259263"></trkpt>
      <trkpt lat="51.439166" lon="14.258854"></trkpt>
      <trkpt lat="51.439075" lon="14.25858"></trkpt>
      <trkpt lat="51.438982" lon="14.258242"></trkpt>
      <trkpt lat="51.438879" lon="14.257728"></trkpt>
      <trkpt lat="51.438809" lon="14.257284"></trkpt>
      <trkpt lat="51.438792" lon="14.257147"></trkpt>
      <trkpt lat="51.438756" lon="14.256777"></trkpt>
      <trkpt lat="51.438743" lon="14.256492"></trkpt>
      <trkpt lat="51.438736" lon="14.255991"></trkpt>
      <trkpt lat="51.438737" lon="14.255809"></trkpt>
      <trkpt lat="51.438745" lon="14.255516"></trkpt>
      <trkpt lat="51.438753" lon="14.255376"></trkpt>
      <trkpt lat="51.438765" lon="14.255181"></trkpt>
      <trkpt lat="51.438799" lon="14.254887"></trkpt>
      <trkpt lat="51.438844" lon="14.25462"></trkpt>
      <trkpt lat="51.438868" lon="14.254488"></trkpt>
      <trkpt lat="51.438919" lon="14.254238"></trkpt>
      <trkpt lat="51.438985" lon="14.253944"></trkpt>
      <trkpt lat="51.439009" lon="14.253839"></trkpt>
      <trkpt lat="51.439106" lon="14.253403"></trkpt>
      <trkpt lat="51.439142" lon="14.253254"></trkpt>
      <trkpt lat="51.439192" lon="14.253026"></trkpt>
      <trkpt lat="51.43903" lon="14.252947"></trkpt>
      <trkpt lat="51.438637" lon="14.252759"></trkpt>
      <trkpt lat="51.438282" lon="14.252538"></trkpt>
      <trkpt lat="51.437993" lon="14.252404"></trkpt>
      <trkpt lat="51.437775" lon="14.252238"></trkpt>
      <trkpt lat="51.437606" lon="14.25208"></trkpt>
      <trkpt lat="51.43745" lon="14.25186"></trkpt>
      <trkpt lat="51.437072" lon="14.251431"></trkpt>
      <trkpt lat="51.436425" lon="14.250649"></trkpt>
      <trkpt lat="51.435772" lon="14.249853"></trkpt>
      <trkpt lat="51.435593" lon="14.249622"></trkpt>
      <trkpt lat="51.43511" lon="14.249071"></trkpt>
      <trkpt lat="51.434966" lon="14.248902"></trkpt>
      <trkpt lat="51.435036" lon="14.248667"></trkpt>
      <trkpt lat="51.435086" lon="14.24849"></trkpt>
      <trkpt lat="51.435127" lon="14.248292"></trkpt>
      <trkpt lat="51.43516" lon="14.248077"></trkpt>
      <trkpt lat="51.435181" lon="14.247946"></trkpt>
      <trkpt lat="51.435192" lon="14.247787"></trkpt>
      <trkpt lat="51.435199" lon="14.247581"></trkpt>
      <trkpt lat="51.435201" lon="14.247415"></trkpt>
      <trkpt lat="51.435197" lon="14.24727"></trkpt>
      <trkpt lat="51.435192" lon="14.247118"></trkpt>
      <trkpt lat="51.435171" lon="14.246517"></trkpt>
      <trkpt lat="51.435165" lon="14.246329"></trkpt>
      <trkpt lat="51.435161" lon="14.246161"></trkpt>
      <trkpt lat="51.435157" lon="14.245979"></trkpt>
      <trkpt lat="51.435152" lon="14.245755"></trkpt>
      <trkpt lat="51.435145" lon="14.245441"></trkpt>
      <trkpt lat="51.435147" lon="14.245232"></trkpt>
      <trkpt lat="51.435149" lon="14.244885"></trkpt>
      <trkpt lat="51.435162" lon="14.244521"></trkpt>
      <trkpt lat="51.43518" lon="14.244221"></trkpt>
      <trkpt lat="51.435201" lon="14.244022"></trkpt>
      <trkpt lat="51.43524" lon="14.243443"></trkpt>
      <trkpt lat="51.435284" lon="14.242859"></trkpt>
      <trkpt lat="51.435305" lon="14.242602"></trkpt>
      <trkpt lat="51.435371" lon="14.241718"></trkpt>
      <trkpt lat="51.435387" lon="14.24152"></trkpt>
      <trkpt lat="51.435406" lon="14.241204"></trkpt>
      <trkpt lat="51.435425" lon="14.240809"></trkpt>
      <trkpt lat="51.435445" lon="14.240394"></trkpt>
      <trkpt lat="51.435464" lon="14.240024"></trkpt>
      <trkpt lat="51.435476" lon="14.239754"></trkpt>
      <trkpt lat="51.43548" lon="14.239633"></trkpt>
      <trkpt lat="51.435483" lon="14.239484"></trkpt>
      <trkpt lat="51.435382" lon="14.239315"></trkpt>
      <trkpt lat="51.435213" lon="14.23908"></trkpt>
      <trkpt lat="51.435103" lon="14.238962"></trkpt>
      <trkpt lat="51.434985" lon="14.238837"></trkpt>
      <trkpt lat="51.434871" lon="14.238749"></trkpt>
      <trkpt lat="51.434318" lon="14.23848"></trkpt>
      <trkpt lat="51.434264" lon="14.238454"></trkpt>
      <trkpt lat="51.434268" lon="14.238392"></trkpt>
      <trkpt lat="51.434279" lon="14.238206"></trkpt>
      <trkpt lat="51.434302" lon="14.237831"></trkpt>
      <trkpt lat="51.434315" lon="14.237618"></trkpt>
      <trkpt lat="51.434321" lon="14.237541"></trkpt>
      <trkpt lat="51.434362" lon="14.23703"></trkpt>
      <trkpt lat="51.434377" lon="14.236842"></trkpt>
      <trkpt lat="51.434403" lon="14.236524"></trkpt>
      <trkpt lat="51.434412" lon="14.236416"></trkpt>
      <trkpt lat="51.434443" lon="14.235999"></trkpt>
      <trkpt lat="51.434452" lon="14.235885"></trkpt>
      <trkpt lat="51.434471" lon="14.235662"></trkpt>
      <trkpt lat="51.434504" lon="14.235187"></trkpt>
      <trkpt lat="51.434502" lon="14.235056"></trkpt>
      <trkpt lat="51.434486" lon="14.234867"></trkpt>
      <trkpt lat="51.434332" lon="14.234122"></trkpt>
      <trkpt lat="51.434327" lon="14.234099"></trkpt>
      <trkpt lat="51.434183" lon="14.233396"></trkpt>
      <trkpt lat="51.434171" lon="14.233291"></trkpt>
      <trkpt lat="51.434151" lon="14.233125"></trkpt>
      <trkpt lat="51.43415" lon="14.232929"></trkpt>
      <trkpt lat="51.434154" lon="14.232779"></trkpt>
      <trkpt lat="51.434157" lon="14.232668"></trkpt>
      <trkpt lat="51.43416" lon="14.232644"></trkpt>
      <trkpt lat="51.434163" lon="14.232608"></trkpt>
      <trkpt lat="51.434176" lon="14.232471"></trkpt>
      <trkpt lat="51.433977" lon="14.232389"></trkpt>
      <trkpt lat="51.433781" lon="14.232317"></trkpt>
      <trkpt lat="51.433716" lon="14.23229"></trkpt>
      <trkpt lat="51.433679" lon="14.232263"></trkpt>
      <trkpt lat="51.433648" lon="14.232233"></trkpt>
      <trkpt lat="51.433613" lon="14.232187"></trkpt>
      <trkpt lat="51.433581" lon="14.232088"></trkpt>
      <trkpt lat="51.433557" lon="14.232"></trkpt>
      <trkpt lat="51.433538" lon="14.231934"></trkpt>
      <trkpt lat="51.433513" lon="14.231836"></trkpt>
      <trkpt lat="51.433552" lon="14.231778"></trkpt>
      <trkpt lat="51.433592" lon="14.231689"></trkpt>
      <trkpt lat="51.433611" lon="14.231623"></trkpt>
      <trkpt lat="51.433627" lon="14.231532"></trkpt>
      <trkpt lat="51.433632" lon="14.231491"></trkpt>
      <trkpt lat="51.433668" lon="14.231156"></trkpt>
      <trkpt lat="51.433687" lon="14.231027"></trkpt>
      <trkpt lat="51.433709" lon="14.230943"></trkpt>
      <trkpt lat="51.433729" lon="14.230893"></trkpt>
      <trkpt lat="51.433766" lon="14.230821"></trkpt>
      <trkpt lat="51.43373" lon="14.230741"></trkpt>
      <trkpt lat="51.433687" lon="14.230671"></trkpt>
      <trkpt lat="51.433655" lon="14.230625"></trkpt>
      <trkpt lat="51.433632" lon="14.230596"></trkpt>
      <trkpt lat="51.433603" lon="14.230569"></trkpt>
      <trkpt lat="51.433578" lon="14.230559"></trkpt>
      <trkpt lat="51.433436" lon="14.230566"></trkpt>
      <trkpt lat="51.433398" lon="14.230565"></trkpt>
      <trkpt lat="51.433316" lon="14.230539"></trkpt>
      <trkpt lat="51.433296" lon="14.230532"></trkpt>
      <trkpt lat="51.433259" lon="14.230524"></trkpt>
      <trkpt lat="51.433234" lon="14.230534"></trkpt>
      <trkpt lat="51.433213" lon="14.230555"></trkpt>
      <trkpt lat="51.433205" lon="14.230574"></trkpt>
      <trkpt lat="51.433195" lon="14.230638"></trkpt>
      <trkpt lat="51.43312" lon="14.231164"></trkpt>
    </trkseg>
  </trk>
</gpx>